ipa,license,other,word,cod_amm,des_amm,Comune,nome_resp,cogn_resp,Cap,Provincia,Regione,sito_istituzionale,Indirizzo,titolo_resp,tipologia_istat,tipologia_amm,acronimo,cf_validato,Cf,mail1,tipo_mail1,mail2,tipo_mail2,mail3,tipo_mail3,mail4,tipo_mail4,mail5,tipo_mail5,url_facebook,url_twitter,url_googleplus,url_youtube,liv_accessibili,slug,name,lat,lng
c_d077,http://creativecommons.org/licenses/by/3.0/it/deed.it,CC Attr. 3.0,,c_d077,Comune di Cortona,Cortona,Francesca,Basanieri,52044,AR,Toscana,http://www.comunedicortona.it,"Piazza Della Repubblica, 13",Sindaco,Comuni e loro Consorzi e Associazioni,Pubbliche Amministrazioni,,S,137520516,protocollo@pec.comune.cortona.ar.it,pec,elettorale@pec.comune.cortona.ar.it,pec,anagrafe@pec.comune.cortona.ar.it,pec,segretario@pec.comune.cortona.ar.it,pec,,,,,,,0,cortona,Cortona,43.2741,11.9878
c_a171,http://creativecommons.org/licenses/by/2.5/it/,,,c_a171,Comune di Albonese,Albonese,Andrea,Bazzano,27020,PV,Lombardia,http://www.comune.albonese.pv.it,"Via Negrone Manara, 21",Sindaco,Comuni e loro Consorzi e Associazioni,Pubbliche Amministrazioni,,S,83000470183,comune.albonese@legalmail.it,pec,,,,,,,,,,,,,0,albonese,Albonese,45.2934,8.708
c_d817,http://creativecommons.org/licenses/by-sa/3.0/deed.it,Creative Commons - Attribuzione 3.0,,c_d817,Comune di Fuipiano Valle Imagna,Fuipiano Valle Imagna,Valentina,Zuccala,24030,BG,Lombardia,http://www.comune.fuipianovalleimagna.bg.it,"Via Arnosto, 25",Sindaco,Comuni e loro Consorzi e Associazioni,Pubbliche Amministrazioni,,S,542030168,comune.fuipianovalleimagna@pec.regione.lombardia.it,pec,fuipiano_valleimagna@tin.it,altro,tecnico@comune.fuipianovalleimagna.bg.it,altro,,,,,,,,,1,fuipiano-valle-imagna,Fuipiano Valle Imagna,45.8506,9.526
c_i048,http://creativecommons.org/licenses/by/2.5/it/,,,c_i048,Comune di Sannazzaro De' Burgondi,Sannazzaro de' Burgondi,Marinella,Fassi,27039,PV,Lombardia,http://www.comune.sannazzarodeburgondi.pv.it,"Via Cavour, 18",Responsabile Struttura 4,Comuni e loro Consorzi e Associazioni,Pubbliche Amministrazioni,,S,409830189,protocollo.comunesannazzarodeburgondi@pec.it,pec,,,,,,,,,https://it-it.facebook.com/ilburgundo/,,https://www.youtube.com/channel/UCvKkELCE3byPbkyOs9fIGZQ/featured,,0,sannazzaro-de-burgondi,Sannazzaro de' Burgondi,45.1033,8.9075
c_b825,https://creativecommons.org/licenses/by/2.0/,licenza CC,,c_b825,Comune di Carpineti,Carpineti,Tiziano,Borghi,42033,RE,Emilia Romagna,http://www.comune.carpineti.re.it,"Piazza Matilde Di Canossa, 1",Sindaco,Comuni e loro Consorzi e Associazioni,Pubbliche Amministrazioni,,S,445630353,comune.carpineti@legalmail.it,pec,comune@comune.carpineti.re.it,altro,,,,,,,,,,,0,carpineti,Carpineti,44.4571,10.5208
c_f866,http://creativecommons.org/licenses/by/3.0/it/legalcode,Creative Commons 3.0 BY-SA Italia,,c_f866,Comune di Nemoli,Nemoli,Antonio,Cavallaro,85040,PZ,Basilicata,http://www.comune.nemoli.pz.it,"Piazza S. Maria Delle Grazie, 2",responsabile area contabile - amministrativa,Comuni e loro Consorzi e Associazioni,Pubbliche Amministrazioni,,S,83000430765,protocollonemoli@ebaspec.it,pec,comunenemoli@rete.basilicata.it,altro,,,,,,,,,,,0,nemoli,Nemoli,40.0686,15.8013
c_e662,http://creativecommons.org/licenses/by/2.5/it/,,,c_e662,Comune di Lomello,Lomello,Silvia,Ruggia,27034,PV,Lombardia,http://www.comune.lomello.pv.it,"Piazza Castello, 1",Sindaco,Comuni e loro Consorzi e Associazioni,Pubbliche Amministrazioni,,S,485840185,ragioneria.comune.lomello@pec.regione.lombardia.it,pec,,,,,,,,,,,,,0,lomello,Lomello,45.122,8.7974
c_l357,http://creativecommons.org/licenses/by/3.0/it/legalcode,Creative Commons 3.0 BY-SA Italia,,c_l357,Comune di Trecchina,Trecchina,Ludovico,Iannotti,85049,PZ,Basilicata,https://trecchina.gov.it/,Via Roma 17,Sindaco,Comuni e loro Consorzi e Associazioni,Pubbliche Amministrazioni,,S,84002110769,trecchina@pec.it,pec,,,,,,,,,@ComuneTrecchina,,,,0,trecchina,Trecchina,40.0277,15.7756
c_e793,https://creativecommons.org/licenses/by/4.0/deed.it,Creative Commons Attribution 4.0,,c_e793,Comune di Madignano,Madignano,Guido,Ongaro,26020,CR,Lombardia,https://www.comune.madignano.cr.it,"Via Liberta', 22",Sindaco,Comuni e loro Consorzi e Associazioni,Pubbliche Amministrazioni,,S,302860192,pec@pec.comune.madignano.cr.it,pec,info@comune.madignano.cr.it,altro,,,,,,,,,,,1,madignano,Madignano,45.3467,9.7244
c_e746,http://creativecommons.org/licenses/by/2.5/it/,,,c_e746,Comune di Luogosano,Luogosano,Vincenzino,Buono,83040,AV,Campania,http://www.comune.luogosano.av.it,"Via F. De Sanctis, 30",Sindaco,Comuni e loro Consorzi e Associazioni,Pubbliche Amministrazioni,,S,82000610640,ragioneria.luogosano@cert.irpinianet.eu,pec,anagrafe.luogosano@cert.irpinianet.eu,pec,tributi@comune.luogosano.av.it,altro,utc@comune.luogosano.av.it,altro,protocollo.luogosano@cert.irpinianet.eu,pec,,,,,1,luogosano,Luogosano,40.9883,14.9917
c_d414,http://creativecommons.org/licenses/by/3.0/it/legalcode,Creative Commons 3.0 BY-SA Italia,,c_d414,Comune di Episcopia,Episcopia,Egidio,Vecchione,85033,PZ,Basilicata,https://episcopia.gov.it,"Via Ing.G.Bruno,115",Sindaco,Comuni e loro Consorzi e Associazioni,Pubbliche Amministrazioni,,S,82001030764,protocollocomunepiscopia@pec.it,pec,ragcomunepiscopia@pec.it,pec,ufftecnicocomunepiscopia@pec.it,pec,anagrafecomunepiscopia@pec.it,pec,suap@pec.comune.episcopia.pz.it,pec,,,,,0,episcopia,Episcopia,40.076,16.0991
c_i820,http://creativecommons.org/licenses/by/3.0/it/legalcode,Creative Commons 3.0 BY-SA Italia,,c_i820,Comune di Somma Vesuviana,Somma Vesuviana,SALVATORE,DI SARNO,80049,,Campania,http://www.comune.sommavesuviana.na.it,"Piazza Vittorio Emanuele III, 26",Sindaco,Comuni e loro Consorzi e Associazioni,Pubbliche Amministrazioni,,S,80021380631,protocollo.generale@pec.sommavesuviana.info,pec,sindaco@pec.sommavesuviana.info,pec,ragioniere@pec.sommavesuviana.info,pec,suap@pec.sommavesuviana.info,pec,lavori.pubblici@pec.sommavesuviana.info,pec,,,,,0,somma-vesuviana,Somma Vesuviana,40.8718,14.4382
c_d316,https://www.dati.gov.it/content/italian-open-data-license-v20,Italian Open Data License 2.0,,c_d316,Comune di Dogna,Dogna,Simone,Peruzzi,33010,UD,Friuli Venezia Giulia,http://www.comune.dogna.ud.it,"Via Roma, 20",Sindaco,Comuni e loro Consorzi e Associazioni,Pubbliche Amministrazioni,,S,84005290303,comune.dogna@certgov.fvg.it,pec,,,,,,,,,,,,,0,dogna,Dogna,46.4489,13.3161
c_l593,http://creativecommons.org/licenses/by/2.5/it/,,,c_l593,Comune di Valle Lomellina,Valle Lomellina,Pier Roberto,Carabelli,27020,PV,Lombardia,http://www.comune.vallelomellina.pv.it,"Piazza Municipio, 2",Sindaco,Comuni e loro Consorzi e Associazioni,Pubbliche Amministrazioni,,S,471450189,sindaco.comune.vallelomellina@pec.it,pec,sindaco@comune.vallelomellina.pv.it,altro,bgallina@comune.vallelomellina.pv.it,altro,,,,,,,,,0,valle-lomellina,Valle Lomellina,45.1518,8.6668
c_h769,https://creativecommons.org/licenses/by/3.0/it/,,,c_h769,Comune di San Benedetto del Tronto,San Benedetto del Tronto,Pasqualino,Piunti,63074,AP,Marche,http://www.comunesbt.it,"Viale Alcide De Gasperi, 124",Sindaco,Comuni e loro Consorzi e Associazioni,Pubbliche Amministrazioni,,S,360140446,protocollo@cert-sbt.it,pec,comunesbt@comunesbt.it,altro,suapsbt@cert-sbt.it,pec,,,,,https://www.facebook.com/cittasbt,https://twitter.com/cittasbt,https://www.youtube.com/user/cittasbt,,3,san-benedetto-del-tronto,San Benedetto del Tronto,42.9495,13.8781
c_d612,https://creativecommons.org/licenses/by/3.0/it/,CC BY 3.0 IT,,c_d612,Comune di Firenze,Firenze,Dario,Nardella,50122,FI,Toscana,http://www.comune.fi.it,"Palazzo Vecchio, Piazza Della Signoria",Sindaco (rieletto il 26 maggio 2019),Comuni e loro Consorzi e Associazioni,Pubbliche Amministrazioni,,S,1307110484,protocollo@pec.comune.fi.it,pec,segreteria.urp@comune.fi.it,altro,,,,,,,https://www.facebook.com/cittadifirenzeufficiale,https://twitter.com/comunefi,http://www.youtube.com/user/comunefirenze,,0,firenze,Firenze,43.7667,11.25
c_h885,http://creativecommons.org/licenses/by/2.5/it/,,,c_h885,Comune di San Giorgio di Lomellina,San Giorgio di Lomellina,ANDREA ,MORA,27020,PV,Lombardia,http://www.comune.sangiorgiodilomellina.pv.it,"Piazza Pietro Corti, 12",Sindaco,Comuni e loro Consorzi e Associazioni,Pubbliche Amministrazioni,,S,83001710181,comune.sangiorgiodilomellina@pec.regione.lombardia.it,pec,,,,,,,,,,,,,0,san-giorgio-di-lomellina,San Giorgio di Lomellina,45.176,8.7913
c_g224,http://creativecommons.org/licenses/by/4.0/deed.it,"(CC BY
              4.0)",,c_g224,Comune di Padova,Padova,Sergio,Giordani,35122,PD,Veneto,http://www.comune.padova.it,Via Municipio 6,Sindaco,Comuni e loro Consorzi e Associazioni,Pubbliche Amministrazioni,COMPD,S,644060287,protocollo.generale@pec.comune.padova.it,pec,,,,,,,,,,,,,0,padova,Padova,45.4167,11.8833
c_b476,http://creativecommons.org/licenses/by/3.0/it/legalcode,Creative Commons 3.0 BY-SA Italia,,c_b476,Comune di Camerota,Camerota,Antonio,ROMANO,84040,SA,Campania,http://www.comune.camerota.sa.it,Piazza San Vincenzo 5,Sindaco,Comuni e loro Consorzi e Associazioni,Pubbliche Amministrazioni,,S,84001750656,protocollo.camerota@asmepec.it,pec,info@comune.camerota.sa.it,altro,,,,,,,https://www.facebook.com/ComuneDiCamerota,https://twitter.com/ComuneCamerota,http://www.youtube.com/user/ComuneDiCamerota,,3,camerota,Camerota,40.0298,15.3728
c_i914,https://creativecommons.org/licenses/by/4.0/deed.it,Creative Commons Attribution 4.0,,c_i914,Comune di Spino d'Adda,Spino d'Adda,Luigi,Poli,26016,CR,Lombardia,http://www.comune.spinodadda.gov.it,"Piazza XXV Aprile, 2",Sindaco,Comuni e loro Consorzi e Associazioni,Pubbliche Amministrazioni,,S,82003090196,comune.spinodadda@pec.regione.lombardia.it,pec,,,,,,,,,,,,,0,spino-d-adda,Spino d'Adda,45.3998,9.4935
c_e632,https://creativecommons.org/licenses/by/3.0/it/,CC BY 3.0 IT,,c_e632,Comune di Loano,Loano,Luigi,Pignocca,17025,SV,Liguria,http://www.comuneloano.it,"Piazza Italia, 2",Sindaco,Comuni e loro Consorzi e Associazioni,Pubbliche Amministrazioni,,S,308950096,loano@peccomuneloano.it,pec,loano@comuneloano.it,altro,,,,,,,,,,,0,loano,Loano,44.1288,8.26
c_l219,https://creativecommons.org/licenses/by/3.0/it/,CC BY 3.0 IT,,c_l219,Comune di Torino,Torino,Chiara,Appendino,10122,TO,Piemonte,http://www.comune.torino.it,Piazza Palazzo Di Citta' 1,Sindaco,Comuni e loro Consorzi e Associazioni,Pubbliche Amministrazioni,,S,514490010,protocollogenerale@cert.comune.torino.it,pec,,,,,,,,,https://www.facebook.com/cittaditorino,https://twitter.com/twitorino,http://www.youtube.com/youtorino,,0,torino,Torino,45.05,7.6667
c_l575,http://creativecommons.org/licenses/by/2.5/it/,Creative Commons (CCBY) (apre il link in una nuova finestra),,c_l575,Comune di Valfloriana,Valfloriana,Jessica,Medici,38040,TN,Trentino Alto Adige,http://www.comune.valfloriana.tn.it,"Frazione Casatta, 1",Resposabile Servizio Finanziario,Comuni e loro Consorzi e Associazioni,Pubbliche Amministrazioni,,S,91001540227,comune@pec.comune.valfloriana.tn.it,pec,,,,,,,,,https://www.facebook.com/groups/1565532067076744/,,,,0,valfloriana,Valfloriana,46.2506,11.3442
c_e492,http://creativecommons.org/licenses/by/2.5/it/,Creative Commons (CCBY) (apre il link in una nuova finestra),,c_e492,Comune di Lavarone,Lavarone,Isacco,Corradi,38046,TN,Trentino Alto Adige,http://www.comune.lavarone.tn.it,"Frazione Gionghi, 107",Sindaco,Comuni e loro Consorzi e Associazioni,Pubbliche Amministrazioni,,S,256270224,protocollo@cert.comune.lavarone.tn.it,pec,protocollo@comune.lavarone.tn.it,altro,,,,,,,,,,,0,lavarone,Lavarone,45.9379,11.2757
c_l308,http://creativecommons.org/licenses/by/3.0/it/legalcode,http://creativecommons.org/licenses/by/3.0/it/legalcode,,c_l308,Comune di Tortorici,Tortorici,Rizzo Nervo,Carmelo,98078,ME,Sicilia,http://www.tortorici.gov.it,"Viale Rosario Livatino, snc",Sindaco,Comuni e loro Consorzi e Associazioni,Pubbliche Amministrazioni,,S,84004890830,comune.tortorici@pec.tortorici.eu,pec,info@comunetortorici.me.it,altro,,,,,,,https://www.facebook.com/comuneditortorici/,https://twitter.com/comunetortorici,http://www.youtube.com/channel/UCnceVu_wGIDHbc5UBFoY7_w,,0,tortorici,Tortorici,38.0354,14.8222
c_ku0k,https://creativecommons.org/licenses/by/3.0/it/,CC BY 3.0 IT,,c_ku0k,Comune di Lusernetta,Lusernetta,Alex,Maurino,10060,TO,Piemonte,http://www.lusernetta.gov.it,Piazza S. Antonio 11/Bis,Sindaco,Comuni e loro Consorzi e Associazioni,Pubbliche Amministrazioni,,S,2054360017,comune.lusernetta.to@legalmail.it,pec,comune@lusernetta.gov.it,altro,anagrafe@lusernetta.gov.it,altro,ragioneria@lusernetta.gov.it,altro,ufficiotecnico@lusernetta.gov.it,altro,,,,,0,lusernetta,Lusernetta,44.8025,7.2487
c_d651,http://creativecommons.org/licenses/by/2.5/it/,Creative Commons (CCBY),,c_d651,Comune di Folgaria,Folgaria,Maurizio,Toller,38064,TN,Trentino Alto Adige,http://www.comune.folgaria.tn.it,Via Roma N. 60,Sindaco,Comuni e loro Consorzi e Associazioni,Pubbliche Amministrazioni,,S,323920223,comune@pec.comune.folgaria.tn.it,pec,info@comune.folgaria.tn.it,altro,,,,,,,,,,,0,folgaria,Folgaria,45.9163,11.1717
c_d714,http://creativecommons.org/licenses/by/2.5/it/,Creative Commons (CCBY) (apre il link in una nuova finestra),,c_d714,Comune di Fornace,Fornace,Mauro,Stenico,38040,TN,Trentino Alto Adige,http://www.comune.fornace.tn.it,"Piazza Castello, 1",Sindaco,Comuni e loro Consorzi e Associazioni,Pubbliche Amministrazioni,,S,386100226,comune@pec.comune.fornace.tn.it,pec,segreteria@comune.fornace.tn.it,altro,,,,,,,,,,,0,fornace,Fornace,46.118,11.2075
c_i576,http://creativecommons.org/licenses/by/2.5/it/,Creative Commons (CCBY) (apre il link in una nuova finestra),,c_i576,Comune di Segonzano,Segonzano,Pierangelo,Villaci,38047,TN,Trentino Alto Adige,http://www.comune.segonzano.tn.it,"Frazione Scancio, 64",Sindaco,Comuni e loro Consorzi e Associazioni,Pubbliche Amministrazioni,,S,371860222,segreteria@PEC.comune.segonzano.tn.it,pec,affarigenerali.gestioneassociata@comune.segonzano.tn.it,altro,,,,,,,,,,,0,segonzano,Segonzano,46.1876,11.2574
c_c710,http://creativecommons.org/licenses/by/3.0/it/,Licenza Creative Commons,,c_c710,Comune di Cinquefrondi,Cinquefrondi,Marco,Cascarano,89021,RC,Calabria,http://www.comune.cinquefrondi.rc.it,Corso Garibaldi 103,Sindaco,Comuni e loro Consorzi e Associazioni,Pubbliche Amministrazioni,,S,8010803,protocollo@pec.comune.cinquefrondi.rc.it,pec,,,,,,,,,,,,,0,cinquefrondi,Cinquefrondi,38.4182,16.0949
c_a804,http://creativecommons.org/licenses/by/3.0/it/,Licenza Creative Commons,,c_a804,Comune di Bernate Ticino,Bernate Ticino,Mariapia,Colombo,20010,MI,Lombardia,http://www.comune.bernateticino.mi.it,Piazza Della Pace snc,Sindaco,Comuni e loro Consorzi e Associazioni,Pubbliche Amministrazioni,,S,3365620156,bernateticino@legalmail.it,pec,,,,,,,,,,,,,0,bernate-ticino,Bernate Ticino,45.4782,8.8183
c_a916,http://creativecommons.org/licenses/by/2.5/it/,Creative Commons (CCBY) (apre il link in una nuova finestra),,c_a916,Comune di Bocenago,Bocenago,Walter,Ferrazza,38080,TN,Trentino Alto Adige,http://www.comune.bocenago.tn.it,"Via A. Ferrazza, 54",Sindaco,Comuni e loro Consorzi e Associazioni,Pubbliche Amministrazioni,,S,266100221,comune@pec.comune.bocenago.tn.it,pec,protocollo@comune.bocenago.tn.it,altro,,,,,,,,,,,0,bocenago,Bocenago,46.12,10.76
c_d775,http://creativecommons.org/licenses/by/2.5/it/,Creative Commons (CCBY) (apre il link in una nuova finestra),,c_d775,Comune di Frassilongo,Frassilongo,Bruno,Groff,38050,TN,Trentino Alto Adige,http://www.comune.frassilongo.tn.it,Maso Paoli 52,Sindaco,Comuni e loro Consorzi e Associazioni,Pubbliche Amministrazioni,,S,80005250222,comune@pec.comune.frassilongo.tn.it,pec,,,,,,,,,,,,,0,frassilongo,Frassilongo,46.091,11.2983
c_e471,http://creativecommons.org/licenses/by/3.0/it/legalcode,http://creativecommons.org/licenses/by/3.0/it/legalcode,,c_e471,Comune di Latiano,Latiano,Carmela,Flore,72022,BR,Puglia,http://www.comune.latiano.br.it,"Via Cesare Battisti, 4",Segretario Comunale,Comuni e loro Consorzi e Associazioni,Pubbliche Amministrazioni,,S,91008570748,segreteria@pec.comune.latiano.br.it,pec,segreteria@comune.latiano.br.it,altro,,,,,,,https://www.facebook.com/Comune-di-Latiano-157581550921096,,,,0,latiano,Latiano,40.5539,17.7214
c_a520,http://creativecommons.org/licenses/by/2.5/it/,Creative Commons (CCBY) (apre il link in una nuova finestra),,c_a520,Comune di Avio,Avio,Federico,Secchi,38063,TN,Trentino Alto Adige,http://www.comune.avio.tn.it,"Piazza Vittorio Emanuele III, 1",Sindaco,Comuni e loro Consorzi e Associazioni,Pubbliche Amministrazioni,,S,110390226,segreteria@pec.comune.avio.tn.it,pec,segreteria@comune.avio.tn.it,altro,,,,,,,,,,,0,avio,Avio,45.7349,10.9383
c_m407,http://creativecommons.org/licenses/by/2.5/it/,Creative Commons (CCBY),,c_m407,Comune di Terre D'Adige,Terre D'adige,Adriano,Bevilacqua,38010,TN,Trentino Alto Adige,http://www.comune.terredadige.tn.it,Piazza Ss Filippo E Giacomo,Segretario Comunale,Comuni e loro Consorzi e Associazioni,Pubbliche Amministrazioni,,S,2527840223,comune@pec.comune.terredadige.tn.it,pec,,,,,,,,,,,,,0,terre-d-adige,Terre d'Adige,46.15267,11.09737
c_c931,http://creativecommons.org/licenses/by/2.5/it/,Creative Commons (CCBY) (apre il link in una nuova finestra),,c_c931,Comune di Commezzadura,Commezzadura,Ivan ,Tevini,38020,TN,Trentino Alto Adige,http://www.comune.commezzadura.tn.it,"Frazione Mestriago Via Del Comune, 10",Sindaco,Comuni e loro Consorzi e Associazioni,Pubbliche Amministrazioni,,S,252960224,comune@pec.comune.commezzadura.tn.it,pec,protocollo@comune.commezzadura.tn.it,altro,,,,,,,,,,,0,commezzadura,Commezzadura,46.3226,10.8407
c_l282,http://creativecommons.org/licenses/by/3.0/it/,Licenza Creative Commons,,c_l282,Comune di Torretta,Torretta,Salvatore,Gambino,90040,PA,Sicilia,http://www.comune.torretta.pa.it,"Piazza V.Emanuele, 22",Sindaco,Comuni e loro Consorzi e Associazioni,Pubbliche Amministrazioni,,S,80020560829,segretariogenerale@pec.comune.torretta.pa.it,pec,uffpersonaletorretta@libero.it,altro,,,,,,,,,,,0,torretta,Torretta,38.1314,13.2327
c_f119,http://creativecommons.org/licenses/by/3.0/it/,Licenza Creative Commons,,c_f119,Comune di Melzo,Melzo,Antonio,Fuse',20066,MI,Lombardia,http://www.comune.melzo.mi.it,"Piazza Vittorio Emenuele II, 1",Sindaco,Comuni e loro Consorzi e Associazioni,Pubbliche Amministrazioni,,S,795710151,comunemelzo@pec.it,pec,spaziocitta@comune.melzo.mi.it,altro,,,,,,,,,,,0,melzo,Melzo,45.4978,9.4184
c_a388,http://creativecommons.org/licenses/by/3.0/it/,Licenza Creative Commons,,c_a388,Comune di Arenzano,Arenzano,Luigi,Gambino,16011,GE,Liguria,http://www.comune.arenzano.ge.it,v. Sauli Pallavicino 39,Sindaco,Comuni e loro Consorzi e Associazioni,Pubbliche Amministrazioni,,S,449500107,info@pec.comune.arenzano.ge.it,pec,info@comune.arenzano.ge.it,altro,,,,,,,,,,,0,arenzano,Arenzano,44.403999999999996,8.681000000000001
c_h146,http://creativecommons.org/licenses/by/2.5/it/,Creative Commons (CCBY) (apre il link in una nuova finestra),,c_h146,Comune di Rabbi,Rabbi,Lorenzo,Cicolini,38020,TN,Trentino Alto Adige,http://www.comune.rabbi.tn.it,"Frazione San Bernardo, 48D",Sindaco,Comuni e loro Consorzi e Associazioni,Pubbliche Amministrazioni,,S,279660229,comune@pec.comune.rabbi.tn.it,pec,comune@comune.rabbi.tn.it,altro,,,,,,,,,,,3,rabbi,Rabbi,46.4013,10.8467
c_f363,http://creativecommons.org/licenses/by/3.0/it/legalcode,http://creativecommons.org/licenses/by/3.0/it/legalcode,,c_f363,Comune di Monghidoro,Monghidoro,Barbara,Panzacchi,40063,BO,Emilia Romagna,http://www.comune.monghidoro.bo.it,"Via Matteotti, 1",Sindaco,Comuni e loro Consorzi e Associazioni,Pubbliche Amministrazioni,,S,562720375,comune.monghidoro@cert.provincia.bo.it,pec,,,,,,,,,,,,,0,monghidoro,Monghidoro,44.2275,11.3286
c_m313,http://creativecommons.org/licenses/by/2.5/it/,Creative Commons (CCBY) (apre il link in una nuova finestra),,c_m313,Comune di Ledro,Ledro,Renato,Girardi,38067,TN,Trentino Alto Adige,http://www.comune.ledro.tn.it,"Via Vittoria, 5",Sindaco,Comuni e loro Consorzi e Associazioni,Pubbliche Amministrazioni,,S,2147150227,comune@pec.comune.ledro.tn.it,pec,comune@comune.ledro.tn.it,altro,,,,,,,,,,,0,ledro,Ledro,45.8885,10.7312
c_i428,http://creativecommons.org/licenses/by/3.0/it/,Licenza Creative Commons,,c_i428,Comune di Sardara,Sardara,Roberto,Montisci,9030,VS,Sardegna,http://www.comune.sardara.vs.it,"Piazza Gramsci, 1",Sindaco,Comuni e loro Consorzi e Associazioni,Pubbliche Amministrazioni,,S,82000170926,affarigenerali@pec.comune.sardara.vs.it,pec,amministrativodemografici@pec.comune.sardara.vs.it,pec,finanziario@pec.comune.sardara.vs.it,pec,,,,,,,,,0,sardara,Sardara,39.6138,8.8208
c_m345,http://creativecommons.org/licenses/by/2.5/it/,Creative Commons (CCBY),,c_m345,Comune di San Lorenzo Dorsino,San Lorenzo Dorsino,Albino,Dellaidotti,38078,TN,Trentino Alto Adige,http://www.comune.sanlorenzodorsino.tn.it,"Piazza Delle Sette Ville, 4",Sindaco,Comuni e loro Consorzi e Associazioni,Pubbliche Amministrazioni,,S,2362480226,comune@pec.comune.sanlorenzodorsino.tn.it,pec,segreteria@comune.sanlorenzodorsino.tn.it,altro,,,,,,,,,,,0,san-lorenzo-dorsino,Dorsino,46.0737,10.8976
c_b419,http://creativecommons.org/licenses/by/2.5/it/,Creative Commons (CCBY),,c_b419,Comune di Calliano,Calliano,LORENZO,CONCI,38060,TN,Trentino Alto Adige,http://www.comune.calliano.tn.it,"Via A. Valentini, 35",SINDACO,Comuni e loro Consorzi e Associazioni,Pubbliche Amministrazioni,CALLIANO,S,410550222,comunecallianotn@legalmail.it,pec,ragioneria.calliano@comune.calliano.tn.it,altro,,,,,,,,,,,1,calliano,Calliano,45.0094,8.2558
c_i605,https://creativecommons.org/publicdomain/zero/1.0/deed.it,CC0 Creative Commons,,c_i605,Comune di Seneghe,Seneghe,Gianni,Oggianu,9070,OR,Sardegna,http://www.comune.seneghe.or.it,"Piazza Giovanni Antonio Deriu, 1",Sindaco,Comuni e loro Consorzi e Associazioni,Pubbliche Amministrazioni,,S,70890959,protocollo.seneghe@legalmail.it,pec,comune.seneghe@tiscali.it,altro,amministrativo.seneghe@legalmail.it,pec,,,,,,,,,0,seneghe,Seneghe,40.0835,8.6167
c_m353,http://creativecommons.org/licenses/by/2.5/it/,Creative Commons (CCBY) (apre il link in una nuova finestra),,c_m353,Comune di Borgo Lares,Borgo Lares,Michele,Carboni,38079,TN,Trentino Alto Adige,http://www.comune.borgolares.tn.it,"Via 21 Aprile, 6",Segretario Comunale,Comuni e loro Consorzi e Associazioni,Pubbliche Amministrazioni,,S,2401740226,comune@pec.comune.borgolares.tn.it,pec,info@comune.borgolares.tn.it,altro,,,,,,,,,,,0,borgo-lares,Borgo Lares,46.035332,10.7522
c_h628,https://www.dati.gov.it/content/italian-open-data-license-v20,“Italian Open Data License v2.0”.,,c_h628,Comune di Rubiera,Rubiera,Emanuele,Cavallaro,42048,RE,Emilia Romagna,http://www.comune.rubiera.re.it/,Via Emilia Est 5,Sindaco,Comuni e loro Consorzi e Associazioni,Pubbliche Amministrazioni,,S,441270352,comune.rubiera@postecert.it,pec,segreteria@comune.rubiera.re.it,altro,,,,,,,http://www.facebook.com/comunedirubiera,https://twitter.com/ComuneRubiera,,,0,rubiera,Rubiera,44.6537,10.7813
c_b360,http://creativecommons.org/licenses/by/2.5/it/,Creative Commons (CCBY) (apre il link in una nuova finestra),,c_b360,Comune di Cagno',Cagno',Ivan,Dalpiaz,38028,TN,Trentino Alto Adige,http://www.comune.cagno.tn.it,"Via Nazionale, 48",Sindaco,Comuni e loro Consorzi e Associazioni,Pubbliche Amministrazioni,,S,83005490228,comune@pec.comune.cagno.tn.it,pec,c.cagno@comuni.infotn.it,altro,,,,,,,,,,,0,cagno,Cagno,46.394,11.0429
c_l145,http://creativecommons.org/licenses/by/2.5/it/,Creative Commons (CCBY) (apre il link in una nuova finestra),,c_l145,Comune di Terzolas,Terzolas,Enrico,Manini,38027,TN,Trentino Alto Adige,http://www.comune.terzolas.tn.it,"Piazza Della Torraccia, 2",Sindaco,Comuni e loro Consorzi e Associazioni,Pubbliche Amministrazioni,,S,159200229,pec@terzolas.legalmail.it,pec,segretario@comune.terzolas.tn.it,altro,,,,,,,,,,,0,terzolas,Terzolas,46.361999999999995,10.9271
c_b788,http://creativecommons.org/licenses/by/3.0/it/,Creative Commons - Attribuzione 3.0 Italia (CC BY 3.0 IT),,c_b788,Comune di Carlino,Carlino,Diego,Navarria,33050,UD,Friuli Venezia Giulia,http://www.comune.carlino.ud.it,"Piazza San Rocco, 24",Sindaco,Comuni e loro Consorzi e Associazioni,Pubbliche Amministrazioni,,S,81002550309,comune.carlino@certgov.fvg.it,pec,,,,,,,,,,,,,0,carlino,Carlino,45.8034,13.1896
c_m390,http://creativecommons.org/licenses/by/2.5/it/,Creative Commons (CCBY),,c_m390,San Giovanni di Fassa-Sen Jan,Pozza di Fassa,Luigi,Chiocchetti,38036,TN,Trentino Alto Adige,http://www.comune.senjandifassa.tn.it,"Piaza De Comun, 1",Segretario Comunale,Comuni e loro Consorzi e Associazioni,Pubbliche Amministrazioni,,S,2485300228,protocollo@pec.comune.senjandifassa.tn.it,pec,,,,,,,,,,,,,0,pozza-di-fassa,Pozza di Fassa,46.4299,11.6919
c_h254,http://creativecommons.org/licenses/by/2.5/it/,Creative Commons (CCBY) (apre il link in una nuova finestra),,c_h254,Comune di Revo',Revo',Yvette,Maccani,38028,TN,Trentino Alto Adige,http://www.comune.revo.tn.it,"Piazza Della Madonna Pellegrina, 19",Sindaco,Comuni e loro Consorzi e Associazioni,Pubbliche Amministrazioni,,S,83005510223,comune@pec.comune.revo.tn.it,pec,protocollo@comune.revo.tn.it,altro,,,,,,,,,,,0,revo,Revò,46.3928,11.0608
c_c727,http://creativecommons.org/licenses/by/2.5/it/,Creative Commons (CCBY) (apre il link in una nuova finestra),,c_c727,Comune di Cis,Cis,Fabio,Mengoni,38020,TN,Trentino Alto Adige,http://www.comune.cis.tn.it,"Piazza Centrale, 5",Sindaco,Comuni e loro Consorzi e Associazioni,Pubbliche Amministrazioni,,S,291010221,comune@pec.comune.cis.tn.it,pec,comune@comune.cis.tn.it,altro,,,,,,,,,,,0,cis,Cis,46.3998,11.0045
c_f899,http://creativecommons.org/licenses/by/3.0/it/,Licenza Creative Commons,,c_f899,Comune di Niscemi,Niscemi,Francesco,La Rosa,93015,CL,Sicilia,http://www.comune.niscemi.cl.it,"Piazza Vittorio Emanuele, 1",Sindaco,Comuni e loro Consorzi e Associazioni,Pubbliche Amministrazioni,,S,82002100855,ufficioprotocollo@comuneniscemipec.it,pec,segretariogenerale@comune.niscemi.cl.it,altro,segretariogenerale@comuneniscemipec.it,pec,ufficiogare@comuneniscemipec.it,pec,elettorale@comuneniscemipec.it,pec,,,,,0,niscemi,Niscemi,37.149,14.3865
c_c183,http://creativecommons.org/licenses/by/2.5/it/,Creative Commons (CCBY) (apre il link in una nuova finestra),,c_c183,Comune di Castel Condino,Castel Condino,Stefano,Bagozzi,38082,TN,Trentino Alto Adige,http://www.comune.castelcondino.tn.it,"Via Cesare Battisti, 12",Sindaco,Comuni e loro Consorzi e Associazioni,Pubbliche Amministrazioni,,S,86002610227,comune@castelcondino.legalmail.it,pec,comune@comune.castelcondino.tn.it,altro,elena.zocchi@comune.storo.tn.it,altro,roberto.bagozzi@comune.storo.tn.it,altro,lina.cimarolli@comune.storo.tn.it,altro,,,,,0,castel-condino,Castel Condino,45.9161,10.6026
c_m349,http://creativecommons.org/licenses/by/2.5/it/,Creative Commons (CCBY) (apre il link in una nuova finestra),,c_m349,Comune di Altavalle,Altavalle,Matteo,Paolazzi,38030,TN,Trentino Alto Adige,http://www.comune.altavalle.tn.it,"Piazza Chiesa, 2",Legale Rappresentante,Comuni e loro Consorzi e Associazioni,Pubbliche Amministrazioni,,S,2401930223,comune@pec.comune.altavalle.tn.it,pec,ragioneria@comune.altavalle.tn.it,altro,paola.paolazzi@comune.altavalle.tn.it,altro,,,,,,,,,0,altavalle,Altavalle,46.18237,11.23846
c_e850,http://creativecommons.org/licenses/by/2.5/it/,Creative Commons (CCBY) (apre il link in una nuova finestra),,c_e850,Comune di Male',Male',Giorgio,Osele,38027,TN,Trentino Alto Adige,http://www.comune.male.tn.it,"Piazza Regina Elena, 17",Segretario Comunale,Comuni e loro Consorzi e Associazioni,Pubbliche Amministrazioni,,S,378700223,comune@pec.comune.male.tn.it,pec,info@comunemale.it,altro,,,,,,,,,,,0,male,Malè,46.3525,10.9139
c_f704,http://creativecommons.org/licenses/by/2.5/it/,licenza Creative Commons - Attribuzione 2.5 Italia,,c_f704,Comune di Monza,Monza,Dario,Allevi,20900,MB,Lombardia,http://www.comune.monza.it,Piazza Trento E Trieste,Sindaco,Comuni e loro Consorzi e Associazioni,Pubbliche Amministrazioni,,S,2030880153,monza@pec.comune.monza.it,pec,,,,,,,,,,,,,0,monza,Monza,45.583999999999996,9.273
c_d040,http://creativecommons.org/licenses/by-sa/2.5/it/,,,c_d040,Comune di Correzzola,Correzzola,Mauro,Fecchio,35020,PD,Veneto,http://www.comune.correzzola.pd.it,Via G. Garibaldi n. 41,Sindaco,Comuni e loro Consorzi e Associazioni,Pubbliche Amministrazioni,,S,80009410285,correzzola.pd@cert.ip-veneto.net,pec,info@comune.correzzola.pd.it,altro,,,,,,,,,,,2,correzzola,Correzzola,45.2363,12.0688
c_1k21,http://creativecommons.org/licenses/by/2.5/it/,Creative Commons (CCBY) (apre il link in una nuova finestra),,c_1k21,Comune di Caderzone Terme,Caderzone Terme,Marcello,Mosca,38080,TN,Trentino Alto Adige,http://www.comune.caderzoneterme.tn.it,Via Regina Elena 45,Sindaco,Comuni e loro Consorzi e Associazioni,Pubbliche Amministrazioni,,S,293350229,comune@pec.caderzone.net,pec,comune@caderzone.net,altro,anagrafe@pec.caderzone.net,pec,contabilita@pec.caderzone.net,pec,,,,,,,0,caderzone-terme,Caderzone Terme,46.129959,10.75858
c_m365,http://creativecommons.org/licenses/by/2.5/it/,Creative Commons (CCBY) (apre il link in una nuova finestra),,c_m365,Comune di Pieve di Bono-prezzo,Pieve di Bono-Prezzo,Attilio,Maestri,38085,TN,Trentino Alto Adige,http://www.comune.pievedibono-prezzo.tn.it,"Via Roma, 34",Legale Rappresentante,Comuni e loro Consorzi e Associazioni,Pubbliche Amministrazioni,,S,2401730227,comune@pec.comune.pievedibono-prezzo.tn.it,pec,,,,,,,,,https://it-it.facebook.com/ComunePievediBonoPrezzo/,,,,0,pieve-di-bono-prezzo,Pieve di Bono,45.9429,10.6409
c_a346,http://creativecommons.org/licenses/by/3.0/it/,Licenza Creative Commons,,c_a346,Comune di Aquileia,Aquileia,Marcella,Bonanni,33051,UD,Friuli Venezia Giulia,http://www.comune.aquileia.ud.it,"Piazza Garibaldi, 7",Segretario Comunale,Comuni e loro Consorzi e Associazioni,Pubbliche Amministrazioni,,S,81000890301,comune.aquileia@certgov.fvg.it,pec,protocollo@com-aquileia.regione.fvg.it,altro,,,,,,,,,,,0,aquileia,Aquileia,45.7683,13.3646
c_i799,http://creativecommons.org/licenses/by-sa/2.5/it/,,,c_i799,Comune di Solesino,Solesino,Elvy,Bentani,35047,PD,Veneto,http://www.comunesolesino.it,"Via XXVIII Aprile, 3",Sindaco,Comuni e loro Consorzi e Associazioni,Pubbliche Amministrazioni,,S,82005010283,solesino.pd@cert.ip-veneto.net,pec,pizzardo@comunesolesino.it,altro,,,,,,,,,,,0,solesino,Solesino,45.1787,11.7438
c_d231,http://creativecommons.org/licenses/by/3.0/it/legalcode,http://creativecommons.org/licenses/by/3.0/it/legalcode,,c_d231,Comune di Cusano Milanino,Cusano Milanino,Lorenzo,Gaiani,20095,MI,Lombardia,http://www.comune.cusano-milanino.mi.it,"Piazza Martiri Di Tienanmen, 1",Sindaco,Comuni e loro Consorzi e Associazioni,Pubbliche Amministrazioni,,S,83005680158,comune.cusano-milanino@pec.regione.lombardia.it,pec,,,,,,,,,,,,,0,cusano-milanino,Cusano Milanino,45.5507,9.1814
c_a475,http://creativecommons.org/licenses/by/2.5/deed.it,Licenza Creative Commons,,c_a475,Comune di Assisi,Assisi,Stefania,Proietti,6081,PG,Umbria,http://www.comune.assisi.pg.it,"Piazza Del Comune, 10 -",SINDACO,Comuni e loro Consorzi e Associazioni,Pubbliche Amministrazioni,,S,313820540,comune.assisi@postacert.umbria.it,pec,protocollo@comune.assisi.pg.it,altro,,,,,,,,,,,0,assisi,Assisi,43.0702,12.6175
c_bf0o,http://creativecommons.org/licenses/by/2.5/it/,Creative Commons (CCBY),,c_bf0o,Comune di Roncegno Terme,Roncegno Terme,Mirko,Montibeller,38050,TN,Trentino Alto Adige,http://www.comune.roncegnoterme.tn.it,Piazza Achille De Giovanni 1,Sindaco,Comuni e loro Consorzi e Associazioni,Pubbliche Amministrazioni,,S,296510225,comune@pec.comune.roncegnoterme.tn.it,pec,ragioneria@comune.roncegnoterme.tn.it,altro,,,,,,,,,,,1,roncegno-terme,Roncegno Terme,46.050011,11.40895
c_h896,http://creativecommons.org/licenses/by/3.0/it/legalcode,http://creativecommons.org/licenses/by/3.0/it/legalcode,,c_h896,Comune di San Giorgio di Piano,San Giorgio di Piano,Paolo,Crescimbeni,40016,BO,Emilia Romagna,http://www.comune.san-giorgio-di-piano.bo.it,"Via Della Liberta', 35",Sindaco,Comuni e loro Consorzi e Associazioni,Pubbliche Amministrazioni,,S,1025510379,comune.san-giorgio-di-piano@cert.provincia.bo.it,pec,,,,,,,,,,,,,0,san-giorgio-di-piano,San Giorgio di Piano,44.6481,11.3769
c_m303,http://creativecommons.org/licenses/by/2.5/it/,Creative Commons (CCBY) (apre il link in una nuova finestra),,c_m303,Comune di Ronzo Chienis,Ronzo-Chienis,Piera ,Benedetti,38060,TN,Trentino Alto Adige,http://www.comune.ronzo-chienis.tn.it,"Via Teatro, 13/B",Sindaco,Comuni e loro Consorzi e Associazioni,Pubbliche Amministrazioni,,S,342900222,comune@pec.comune.ronzo-chienis.tn.it,pec,,,,,,,,,,,,,0,ronzo-chienis,Ronzo-Chienis,45.8906,10.9513
c_l050,http://creativecommons.org/licenses/by/3.0/it/legalcode,Licenza Creative Commons CC BY 3.0 IT,,c_l050,Comune di Tarcento,Tarcento,Mauro,Steccati,33017,UD,Friuli Venezia Giulia,http://www.comune.tarcento.ud.it,"Piazza Roma, 7",Sindaco,Comuni e loro Consorzi e Associazioni,Pubbliche Amministrazioni,,S,408250306,comune.tarcento@certgov.fvg.it,pec,tributi@com-tarcento.regione.fvg.it,altro,,,,,,,,,,,0,tarcento,Tarcento,46.2153,13.215
c_h639,http://creativecommons.org/licenses/by/2.5/it/,Creative Commons (CCBY) (apre il link in una nuova finestra),,c_h639,Comune di Rumo,Rumo,Michela,Noletti,38020,TN,Trentino Alto Adige,http://www.comune.rumo.tn.it,Via Marcena 21,Sindaco,Comuni e loro Consorzi e Associazioni,Pubbliche Amministrazioni,,S,83003060221,comune@pec.comune.rumo.tn.it,pec,rumo@comune.rumo.tn.it,altro,,,,,,,,,,,0,rumo,Rumo,46.4419,11.0186
c_g173,http://creativecommons.org/licenses/by/2.5/it/,Creative Commons (CCBY),,c_g173,Comune di Ossana,Ossana,Luciano,Dell' Eva,38026,TN,Trentino Alto Adige,http://www.comune.ossana.tn.it,"Via Venezia, 1",Sindaco,Comuni e loro Consorzi e Associazioni,Pubbliche Amministrazioni,,S,159240225,comune@pec.comune.ossana.tn.it,pec,segretario@comune.ossana.tn.it,altro,,,,,,,,,,,0,ossana,Ossana,46.3075,10.7388
c_c393,http://creativecommons.org/licenses/by/2.5/it/,Creative Commons (CCBY),,c_c393,Comune di Cavedine,Cavedine,Maria,Ceschini,38073,TN,Trentino Alto Adige,http://www.comune.cavedine.tn.it,"Via XXV Aprile, 26",Sindaco,Comuni e loro Consorzi e Associazioni,Pubbliche Amministrazioni,,S,274540228,comune@pec.comune.cavedine.tn.it,pec,,,,,,,,,,,,,0,cavedine,Cavedine,45.9963,10.9747
c_a438,http://creativecommons.org/licenses/by-sa/2.5/it/,,,c_a438,Comune di Arre,Arre,Alberto,Sturaro,35020,PD,Veneto,http://www.comune.arre.pd.it,"Via Roma, 94",Sindaco,Comuni e loro Consorzi e Associazioni,Pubbliche Amministrazioni,,S,80008810287,arre.pd@legalmailpa.it,pec,,,,,,,,,,,,,0,arre,Arre,45.2191,11.9253
c_f168,http://creativecommons.org/licenses/by/2.5/it/,Creative Commons (CCBY) (apre il link in una nuova finestra),,c_f168,Comune di Mezzana,Mezzana,Giacomo,Redolfi,38020,TN,Trentino Alto Adige,http://www.comune.mezzana.tn.it,"Via Quattro Novembre, 75",Sindaco,Comuni e loro Consorzi e Associazioni,Pubbliche Amministrazioni,,S,252040225,comune@pec.comune.mezzana.tn.it,pec,,,,,,,,,,,,,0,mezzana,Mezzana,46.3177,10.8013
c_f187,http://creativecommons.org/licenses/by/2.5/it/,Creative Commons (CCBY) (apre il link in una nuova finestra),,c_f187,Comune di Mezzolombardo,Mezzolombardo,Girardi,Christian,38017,TN,Trentino Alto Adige,http://www.comune.mezzolombardo.tn.it,"Corso Del Popolo, 17",Sindaco,Comuni e loro Consorzi e Associazioni,Pubbliche Amministrazioni,,S,80014070223,comune.mezzolombardo@cmail.autenticazione.it,pec,info@comune.mezzolombardo.tn.it,altro,,,,,,,,,,,0,mezzolombardo,Mezzolombardo,46.21,11.0978
c_f955,http://creativecommons.org/licenses/by-sa/3.0/it/,,,c_f955,Comune di Novate Milanese,Novate Milanese,Lorenzo,Guzzeloni,20026,MI,Lombardia,http://www.comune.novate-milanese.mi.it,Via Vittorio Veneto 18,Dottore,Comuni e loro Consorzi e Associazioni,Pubbliche Amministrazioni,,S,2032910156,comune.novatemilanese@legalmail.it,pec,,,,,,,,,,,,,0,novate-milanese,Novate Milanese,45.5318,9.1408
c_b783,http://creativecommons.org/licenses/by/2.5/it/,Creative Commons (CCBY) (apre il link in una nuova finestra),,c_b783,Comune di Carisolo,Carisolo,Arturo,Povinelli,38080,TN,Trentino Alto Adige,http://www.comune.carisolo.tn.it,"via Campiglio, 9",Sindaco,Comuni e loro Consorzi e Associazioni,Pubbliche Amministrazioni,,S,288090228,comune@pec.comune.carisolo.tn.it,pec,,,,,,,,,,,,,0,carisolo,Carisolo,46.1699,10.76
c_l322,http://creativecommons.org/licenses/by/2.5/it/,Creative Commons (CCBY) (apre il link in una nuova finestra),,c_l322,Comune di Trambileno,Trambileno,Franco,Vigagni,38068,TN,Trentino Alto Adige,http://www.comune.trambileno.tn.it,"Frazione Moscheri, 8",Sindaco,Comuni e loro Consorzi e Associazioni,Pubbliche Amministrazioni,,S,270830227,posta@pec.comune.trambileno.tn.it,pec,,,,,,,,,,,,,0,trambileno,Trambileno,45.8699,11.0746
c_g305,http://creativecommons.org/licenses/by/2.5/it/,Creative Commons (CCBY) (apre il link in una nuova finestra),,c_g305,Comune di Panchia',Panchia',Giuseppe,Zorzi,38030,TN,Trentino Alto Adige,http://www.comune.panchia.tn.it,"Piazza Chiesa, 1",Sindaco,Comuni e loro Consorzi e Associazioni,Pubbliche Amministrazioni,,S,82000870228,comune@pec.comune.panchia.tn.it,pec,c.panchia@comuni.infotn.it,altro,,,,,,,,,,,0,panchia,Panchià,46.2867,11.5436
c_b404,http://creativecommons.org/licenses/by/2.5/it/,Creative Commons (CCBY) (apre il link in una nuova finestra),,c_b404,Comune di Caldonazzo,Caldonazzo,Giorgio,Schmidt,38052,TN,Trentino Alto Adige,http://comune.caldonazzo.tn.it,Piazza Municipio 1,Sindaco,Comuni e loro Consorzi e Associazioni,Pubbliche Amministrazioni,,S,81001190222,comune.caldonazzo@legalmail.it,pec,,,,,,,,,,,,,0,caldonazzo,Caldonazzo,45.9959,11.2658
c_d246,http://creativecommons.org/licenses/by/2.5/it/,Creative Commons (CCBY) (apre il link in una nuova finestra),,c_d246,Comune di Dambel,Dambel,Carlo,Polastri,38010,TN,Trentino Alto Adige,http://comune.dambel.tn.it,"Via G. Garibaldi, 33",Sindaco,Comuni e loro Consorzi e Associazioni,Pubbliche Amministrazioni,,S,83005270224,comune@pec.comune.dambel.tn.it,pec,comune@comune.dambel.tn.it,altro,anagrafe@comune.dambel.tn.it,altro,segreteria@comune.dambel.tn.it,altro,,,,,,,0,dambel,Dambel,46.4052,11.0939
c_i531,https://creativecommons.org/licenses/by/4.0/deed.it,Creative Commons Attribuzione 4.0 Internazionale,,c_i531,Comune di Schio,Schio,Valter,Orsi,36015,VI,Veneto,http://www.comune.schio.vi.it,"Via Pasini, 33",Sindaco,Comuni e loro Consorzi e Associazioni,Pubbliche Amministrazioni,,S,402150247,schio.vi@cert.ip-veneto.net,pec,info@comune.schio.vi.it,altro,,,,,,,https://www.facebook.com/urpschio,https://twitter.com/comunedischio,https://www.youtube.com/schiotube,,3,schio,Schio,45.7135,11.3584
c_h634,http://creativecommons.org/licenses/by/2.5/it/,Creative Commons (CCBY) (apre il link in una nuova finestra),,c_h634,Comune di Ruffre',Ruffre'-Mendola,Donato,Seppi,38010,TN,Trentino Alto Adige,http://www.comune.ruffre.tn.it,"Maso Lana, 3",Sindaco,Comuni e loro Consorzi e Associazioni,Pubbliche Amministrazioni,,S,340240225,comune@pec.comune.ruffremendola.tn.it,pec,comune@ruffremendola.it,altro,,,,,,,,,,,0,ruffre-mendola,Ruffrè-Mendola,46.050011,11.40895
c_h622,http://creativecommons.org/licenses/by-sa/2.5/it/,,,c_h622,Comune di Rovolon,Rovolon,Maria Elena,Sinigaglia,35030,PD,Veneto,http://www.comune.rovolon.pd.it,"Piazza Marconi, 1",Sindaco pro tempore,Comuni e loro Consorzi e Associazioni,Pubbliche Amministrazioni,,S,80009910284,rovolon.pd@cert.ip-veneto.net,pec,info@comune.rovolon.pd.it,altro,,,,,,,,,,,0,rovolon,Rovolon,45.3654,11.6623
c_d656,http://creativecommons.org/licenses/by/3.0/it/,Licenza Creative Commons,,c_d656,Comune di Follonica,Follonica,Andrea,Benini,58022,GR,Toscana,http://www.comune.follonica.gr.it,"Largo Felice Cavallotti, 1",Sindaco,Comuni e loro Consorzi e Associazioni,Pubbliche Amministrazioni,,S,80490535,follonica@postacert.toscana.it,pec,protocollo@comune.follonica.gr.it,altro,,,,,,,https://www.facebook.com/comunefollonica/,https://twitter.com/comunefollonica,http://www.youtube.com/user/comunedifollonica,,2,follonica,Follonica,42.9189,10.7614
c_e801,http://creativecommons.org/licenses/by/3.0/it/deed.it,licenza creative commons CC BY 3.0 IT,,c_e801,Comune di Magenta,Magenta,Chiara,Calati,20013,MI,Lombardia,http://www.comunedimagenta.it,"Piazza Formenti, 3",Sindaco,Comuni e loro Consorzi e Associazioni,Pubbliche Amministrazioni,,S,1082490150,egov.magenta@cert.poliscomuneamico.net,pec,,,,,,,,,,,,,0,magenta,Magenta,45.4682,8.881
c_m314,http://creativecommons.org/licenses/by/2.5/it/,Creative Commons (CCBY) (apre il link in una nuova finestra),,c_m314,Comune di Comano Terme,Comano Terme,Fabio,Zambotti,38077,TN,Trentino Alto Adige,http://www.comune.comanoterme.tn.it,"Via Giovanni Prati, 1",Sindaco,Comuni e loro Consorzi e Associazioni,Pubbliche Amministrazioni,,S,2146620220,segreteria@pec.comune.comanoterme.tn.it,pec,,,,,,,,,,,,,0,comano-terme,Comano Terme,46.0342,10.8707
c_b848,http://creativecommons.org/licenses/by-sa/2.5/it/,,,c_b848,Comune di Cartura,Cartura,Pasqualina,Franzolin,35025,PD,Veneto,http://www.comune.cartura.pd.it,"Piazza De Gasperi, 2/3",Sindaco,Comuni e loro Consorzi e Associazioni,Pubbliche Amministrazioni,,S,80009210289,protocollo@cert.comune.cartura.pd.it,pec,protocollo@comune.cartura.pd.it,altro,,,,,,,,,,,0,cartura,Cartura,45.2694,11.8578
c_g963,http://creativecommons.org/licenses/by-sa/2.5/it/,,,c_g963,Comune di Pozzonovo,Pozzonovo,Arianna,Lazzarini,35020,PD,Veneto,http://www.comune.pozzonovo.pd.it/,Via Roma N. 29,Sindaco,Comuni e loro Consorzi e Associazioni,Pubbliche Amministrazioni,,S,651940280,protocollo@pec.comune.pozzonovo.pd.it,pec,segreteria@comune.pozzonovo.pd.it,altro,,,,,,,,,,,0,pozzonovo,Pozzonovo,45.1974,11.7928
c_l769,http://creativecommons.org/licenses/by/2.5/it/,Creative Commons (CCBY) (apre il link in una nuova finestra),,c_l769,Comune di Vermiglio,Vermiglio,Anna,Panizza,38029,TN,Trentino Alto Adige,http://www.comune.vermiglio.tn.it,Piazza Giovanni XXIII N.1,Sindaco,Comuni e loro Consorzi e Associazioni,Pubbliche Amministrazioni,,S,343510228,comunevermiglio@pec.it,pec,comune@comune.vermiglio.tn.it,altro,,,,,,,,,,,0,vermiglio,Vermiglio,46.2985,10.6928
c_a730,http://creativecommons.org/licenses/by/2.5/it/,Creative Commons (CCBY) (apre il link in una nuova finestra),,c_a730,Comune di Bedollo,Bedollo,Francesco,Fantini,38043,TN,Trentino Alto Adige,http://www.comunebedollo.it,"Via G.Verdi, 35",Sindaco,Comuni e loro Consorzi e Associazioni,Pubbliche Amministrazioni,,S,80005890225,comune@pec.comune.bedollo.tn.it,pec,,,,,,,,,,,,,0,bedollo,Bedollo,46.1701,11.3017
c_m355,http://creativecommons.org/licenses/by/2.5/it/,Creative Commons (CCBY) (apre il link in una nuova finestra),,c_m355,Comune di Cembra Lisignago,Cembra Lisignago,Damiano,Zanotelli,38034,TN,Trentino Alto Adige,http://www.comune.cembralisignago.tn.it,"Piazza G. Marconi, 7",Legale Rappresentante - Sindaco,Comuni e loro Consorzi e Associazioni,Pubbliche Amministrazioni,,S,2401950221,comune@pec.comune.cembralisignago.tn.it,pec,protocollo@comune.cembralisignago.tn.it,altro,,,,,,,,,,,0,cembra-lisignago,Lisignago,46.1616,11.1888
c_a458,http://creativecommons.org/licenses/by-sa/2.5/it/,,,c_a458,Comune di Arzergrande,Arzergrande,Filippo,Lazzarin,35020,PD,Veneto,http://www.comune.arzergrande.pd.it,"Via Roma, 104",Sindaco,Comuni e loro Consorzi e Associazioni,Pubbliche Amministrazioni,,S,80008830285,arzergrande@postemailcertificata.it,pec,arzergrande.pd@cert.ip-veneto.net,pec,,,,,,,,,,,0,arzergrande,Arzergrande,45.2738,12.0528
c_c388,https://creativecommons.org/licenses/by/4.0/,Licenza CC-BY 4.0,,c_c388,Comune di Jesolo,Jesolo,Valerio,Zoggia,30016,VE,Veneto,http://www.comune.jesolo.ve.it,"v. S. Antonio, 11",Sindaco,Comuni e loro Consorzi e Associazioni,Pubbliche Amministrazioni,,S,608720272,comune.jesolo@legalmail.it,pec,comunicazione@comune.jesolo.ve.it,altro,,,,,,,,,,,0,jesolo,Jesolo,45.5354,12.645
c_l211,http://creativecommons.org/licenses/by/2.5/it/,Creative Commons (CCBY) (apre il link in una nuova finestra),,c_l211,Comune di Torcegno,Torcegno,Ornella,Campestrini,38050,TN,Trentino Alto Adige,http://www.comune.torcegno.tn.it,"Piazza Maggiore, 5",Sindaco,Comuni e loro Consorzi e Associazioni,Pubbliche Amministrazioni,,S,291650224,comune@pec.comune.torcegno.tn.it,pec,,,,,,,,,,,,,0,torcegno,Torcegno,46.0753,11.450999999999999
c_l483,https://creativecommons.org/licenses/by/4.0/deed.it,http://creativecommons.org/licenses/by/4.0/deed.it,,c_l483,Comune di Udine,Udine,Pietro,Fontanini,33100,UD,Friuli Venezia Giulia,http://www.comune.udine.gov.it,"Via Lionello, 1",Sindaco,Comuni e loro Consorzi e Associazioni,Pubbliche Amministrazioni,,S,168650307,protocollo@pec.comune.udine.it,pec,,,,,,,,,,,,,0,udine,Udine,46.0649,13.2307
c_f808,http://creativecommons.org/licenses/by/3.0/it/,Licenza Creative Commons,,c_f808,Comune di Muravera,Muravera,Marco Sebastiano,Falchi,9043,CA,Sardegna,http://comune.muravera.ca.it,"Via Europa, 1",Sindaco,Comuni e loro Consorzi e Associazioni,Pubbliche Amministrazioni,,S,80000630923,protocollocomunemuravera@legalmail.it,pec,info@comune.muravera.ca.it,altro,ragioneria@comune.muravera.ca.it,altro,anagrafe@comunemuravera.it,pec,,,,,,,0,muravera,Muravera,39.4202,9.5744
c_h683,http://creativecommons.org/licenses/by/3.0/it/legalcode,http://creativecommons.org/licenses/by/3.0/it/legalcode,,c_h683,Comune di Sala Consilina,Sala Consilina,Francesco,Cavallone,84036,SA,Campania,http://www.comunesalaconsilina.it,"Via Giuseppe Mezzacapo, 44",Sindaco,Comuni e loro Consorzi e Associazioni,Pubbliche Amministrazioni,,S,502010655,protocollo.salaconsilina@asmepec.it,pec,,,,,,,,,,,,,0,sala-consilina,Sala Consilina,40.3948,15.5923
c_a158,http://creativecommons.org/licenses/by/2.5/it/,Creative Commons (CCBY) (apre il link in una nuova finestra),,c_a158,Comune di Albiano,Albiano,ERNA,PISETTA,38041,TN,Trentino Alto Adige,http://www.comune.albiano.tn.it,Via S.Antonio N.30,Sindaco,Comuni e loro Consorzi e Associazioni,Pubbliche Amministrazioni,,S,271100224,certificata@pec.comune.albiano.tn.it,pec,ragioneria@comune.albiano.tn.it,altro,affarigenerali.gestioneassociata@comune.segonzano.tn.it,altro,,,,,,,,,0,albiano,Albiano,46.146,11.1945
c_b723,http://creativecommons.org/licenses/by/2.5/it/,Creative Commons (CCBY) (apre il link in una nuova finestra),,c_b723,Comune di Carano,Carano,Andrea,Varesco,38033,TN,Trentino Alto Adige,http://www.comune.carano.tn.it,"Via Giovanelli A., 38",Sindaco,Comuni e loro Consorzi e Associazioni,Pubbliche Amministrazioni,,S,148580228,comune@pec.comune.carano.tn.it,pec,info@comune.carano.tn.it,altro,,,,,,,,,,,0,carano,Carano,46.2925,11.440999999999999
c_l678,http://creativecommons.org/licenses/by/2.5/it/,Creative Commons (CCBY) (apre il link in una nuova finestra),,c_l678,Comune di Varena,Varena,Paride,Gianmoena,38030,TN,Trentino Alto Adige,http://www.comune.varena.tn.it,"Via Mercato, 16",Sindaco,Comuni e loro Consorzi e Associazioni,Pubbliche Amministrazioni,,S,149160228,comunedivarena@registerpec.it,pec,ragioneria@comune.varena.tn.it,altro,,,,,,,,,,,0,varena,Varena,46.3077,11.4594
c_m356,http://creativecommons.org/licenses/by/2.5/it/,Creative Commons (CCBY) (apre il link in una nuova finestra),,c_m356,Comune di Conta,Conta',Fulvio,Zanon,38010,TN,Trentino Alto Adige,http://www.comune.conta.tn.it,"Via Roma, 21",Sindaco,Comuni e loro Consorzi e Associazioni,Pubbliche Amministrazioni,,S,2401910225,comune@pec.comune.conta.tn.it,pec,info@comune.conta.tn.it,altro,,,,,,,,,,,0,conta,Conta,46.31096,11.02424
c_f263,http://creativecommons.org/licenses/by/2.5/it/,Creative Commons (CCBY) (apre il link in una nuova finestra),,c_f263,Comune di Moena,Moena,Edoardo,Felicetti,38035,TN,Trentino Alto Adige,http://www.comune.moena.tn.it,Piazza De Sotegrava N. 20,Sindaco,Comuni e loro Consorzi e Associazioni,Pubbliche Amministrazioni,,S,152150223,moena@legalmail.it,pec,segreteria@comune.moena.tn.it,altro,ragioneria@comune.moena.tn.it,altro,lavoripubblici@comune.moena.tn.it,altro,,,,,,,0,moena,Moena,46.3783,11.6634
c_a637,http://creativecommons.org/licenses/by-sa/2.5/it/,,,c_a637,Comune di Barbona,Barbona,Merlo,Annalisa,35040,PD,Veneto,http://www.comunebarbona.pd.it,Via Roma 1,Responsabile del servizio,Comuni e loro Consorzi e Associazioni,Pubbliche Amministrazioni,,S,82001970282,comune.barbona.pd@pecveneto.it,pec,,,,,,,,,,,,,0,barbona,Barbona,45.1034,11.7031
c_e048,http://creativecommons.org/licenses/by/2.5/it/,Creative Commons (CCBY) (apre il link in una nuova finestra),,c_e048,Comune di Giovo,Giovo,Vittorio,Stonfer,38030,TN,Trentino Alto Adige,http://www.comune.giovo.tn.it,Via S. Antonio 4,Sindaco,Comuni e loro Consorzi e Associazioni,Pubbliche Amministrazioni,,S,80007710223,comune@pec.comune.giovo.tn.it,pec,protocollo@comune.giovo.tn.it,altro,,,,,,,,,,,0,giovo,Giovo,46.1568,11.1531
c_f920,http://creativecommons.org/licenses/by/2.5/it/,Creative Commons (CCBY) (apre il link in una nuova finestra),,c_f920,Comune di Nogaredo,Nogaredo,Bonfanti,Fulvio,38060,TN,Trentino Alto Adige,http://www.comune.nogaredo.tn.it,"Piazza Centrale, 7",Sindaco,Comuni e loro Consorzi e Associazioni,Pubbliche Amministrazioni,,S,270850225,nogaredo@postemailcertificata.it,pec,info@comune.nogaredo.tn.it,altro,,,,,,,,,,,0,nogaredo,Nogaredo,45.9137,11.0244
c_d622,http://creativecommons.org/licenses/by/3.0/it/,Licenza Creative Commons,,c_d622,Comune di Fiumedinisi,Fiumedinisi,Giovanni Sebastiano,De Luca,98022,ME,Sicilia,http://www.comune.fiumedinisi.me.it,Via Umberto I,Sindaco,Comuni e loro Consorzi e Associazioni,Pubbliche Amministrazioni,,S,352170831,comune.fiumedinisi@legalmail.it,pec,,,,,,,,,,,,,2,fiumedinisi,Fiumedinisi,38.0258,15.38
c_d663,http://creativecommons.org/licenses/by/2.5/it/,Creative Commons (CCBY) (apre il link in una nuova finestra),,c_d663,Comune di Fondo,Fondo,Alberto,Albertini,38013,TN,Trentino Alto Adige,http://www.fondo.it,"Piazza S.Giovanni, 9",Responsabile servizi demografici - commercio,Comuni e loro Consorzi e Associazioni,Pubbliche Amministrazioni,,S,266900224,comune@pec.comune.fondo.tn.it,pec,anagrafe@fondo.it,altro,segreteria@comune.fondo.tn.it,altro,ragioneria@fondo.it,altro,tecnico@fondo.it,altro,,,,,0,fondo,Fondo,46.4392,11.1386
c_b514,http://creativecommons.org/licenses/by/2.5/it/,Creative Commons (CCBY) (apre il link in una nuova finestra),,c_b514,Comune di Campitello di Fassa,Campitello di Fassa,Graziano,Sensato,38031,TN,Trentino Alto Adige,http://www.comune.campitellodifassa.tn.it,"Streda Dolomites, 44",Segretario Comunale,Comuni e loro Consorzi e Associazioni,Pubbliche Amministrazioni,,S,82000230225,comune@pec.comune.campitellodifassa.tn.it,pec,info@comune.campitellodifassa.tn.it,altro,,,,,,,,,,,0,campitello-di-fassa,Campitello di Fassa,46.4774,11.7431
c_h288,http://creativecommons.org/licenses/by/3.0/it/,Creative Commons - Attribuzione - versione 3.0,,c_h288,Comune di Rignano Flaminio,Rignano Flaminio,Fabio,Di Lorenzi,68,RM,Lazio,http://www.comune.rignanoflaminio.rm.it,Piazza IV Novembre N. 1,Sindaco,Comuni e loro Consorzi e Associazioni,Pubbliche Amministrazioni,,S,80163710587,protocollo@pec.comune.rignanoflaminio.rm.it,pec,affarigeneralicontratti@comune.rignanoflaminio.rm.it,altro,,,,,,,,,,,0,rignano-flaminio,Rignano Flaminio,42.2074,12.4803
c_i925,http://creativecommons.org/licenses/by/2.5/it/,Creative Commons (CCBY) (apre il link in una nuova finestra),,c_i925,Comune di Sporminore,Sporminore,Giovanni,Formolo,38010,TN,Trentino Alto Adige,http://www.comune.sporminore.tn.it,"Piazza Anaunia, 4",Sindaco,Comuni e loro Consorzi e Associazioni,Pubbliche Amministrazioni,,S,80009570229,comune@pec.comune.sporminore.tn.it,pec,,,,,,,,,,,,,0,sporminore,Sporminore,46.2378,11.0312
c_g491,http://creativecommons.org/licenses/by/3.0/it/,Licenza Creative Commons,,c_g491,Comune di Pescia,Pescia,Oreste,Giurlani,51017,PT,Toscana,http://www.comune.pescia.pt.it,"Piazza Mazzini, 1",Sindaco,Comuni e loro Consorzi e Associazioni,Pubbliche Amministrazioni,,S,141930479,comune.pescia@legalmail.it,pec,info@comune.pescia.pt.it,altro,,,,,,,,,,,0,pescia,Pescia,43.8981,10.6914
c_g429,http://creativecommons.org/licenses/by/2.5/it/,Creative Commons (CCBY) (apre il link in una nuova finestra),,c_g429,Comune di Pelugo,Pelugo,Stefano Pietro,Galli,38079,TN,Trentino Alto Adige,http://www.comune.pelugo.tn.it,Via Del Municipio 2,Sindaco,Comuni e loro Consorzi e Associazioni,Pubbliche Amministrazioni,,S,86003230223,comune@pec.comune.pelugo.tn.it,pec,comune@comune.pelugo.tn.it,altro,,,,,,,,,,,0,pelugo,Pelugo,46.0889,10.7238
c_f351,http://creativecommons.org/licenses/by/3.0/it/,Creative Commons 3.0 Italia,,c_f351,Comune di Mondovi,Mondovi',Paolo,Adriano,12084,CN,Piemonte,http://www.comune.mondovi.cn.it,"Corso Statuto, 15",Sindaco,Comuni e loro Consorzi e Associazioni,Pubbliche Amministrazioni,,S,248770042,comune.mondovi@postecert.it,pec,info@comune.mondovi.cn.it,altro,,,,,,,https://www.facebook.com/cittadimondovi/,,,,2,mondovi,Mondovì,44.3896,7.8206
c_e584,http://creativecommons.org/licenses/by/3.0/it/,Creative Commons - Attribuzione 3.0 Italia (CC BY 3.0 IT),,c_e584,Comune di Lignano Sabbiadoro,Lignano Sabbiadoro,Luca,Fanotto,33054,UD,Friuli Venezia Giulia,http://www.comune.lignano-sabbiadoro.ud.it,Viale Europa 26,Sindaco,Comuni e loro Consorzi e Associazioni,Pubbliche Amministrazioni,,S,83000710307,comune.lignanosabbiadoro@certgov.fvg.it,pec,,,,,,,,,,,,,0,lignano-sabbiadoro,Lignano Sabbiadoro,45.6717,13.1098
c_c057,http://creativecommons.org/licenses/by-sa/2.5/it/,,,c_c057,Comune di Castelbaldo,Castelbaldo,Riccardo,Bernardinello,35040,PD,Veneto,http://www.comune.castelbaldo.pd.it,"Viale Matteotti, 11",Sindaco,Comuni e loro Consorzi e Associazioni,Pubbliche Amministrazioni,CASTELBALDO,S,82001830288,castelbaldo.pd@cert.ip-veneto.net,pec,ragioneria@comune.castelbaldo.pd.it,altro,,,,,,,,,,,2,castelbaldo,Castelbaldo,45.1234,11.4592
c_h533,http://creativecommons.org/licenses/by/3.0/it/,Creative Commons - Attribuzione 3.0 Italia (CC BY 3.0 IT),,c_h533,Comune di Ronchis,Ronchis,Manfredi,MICHELUTTO,33050,UD,Friuli Venezia Giulia,http://www.comune.ronchis.ud.it/,"Corso Italia, 72",Sindaco,Comuni e loro Consorzi e Associazioni,Pubbliche Amministrazioni,,S,83000490306,comune.ronchis@certgov.fvg.it,pec,luigia.sbaiz@comune.ronchis.ud.it,altro,,,,,,,,,,,1,ronchis,Ronchis,45.8077,13.0
c_g296,http://creativecommons.org/licenses/by/2.5/it/,Creative Commons (CCBY) (apre il link in una nuova finestra),,c_g296,Comune di Palu' del Fersina,Palu' del Fersina,Stefano,Moltrer,38050,TN,Trentino Alto Adige,http://www.comune.paludelfersina.tn.it,"Loc. Lenzi, 42",Sindaco,Comuni e loro Consorzi e Associazioni,Pubbliche Amministrazioni,,S,272300229,comune@pec.comune.paludelfersina.tn.it,pec,segreteria@comune.paludelfersina.tn.it,altro,,,,,,,,,,,0,palu-del-fersina,Palù del Fersina,46.1297,11.3524
c_a968,http://creativecommons.org/licenses/by/2.5/it/,Creative Commons (CCBY) (apre il link in una nuova finestra),,c_a968,Comune di Bondone,Bondone,Gianni,Cimarolli,38080,TN,Trentino Alto Adige,http://www.comune.bondone.tn.it,"Via Giusti, 48",Sindaco,Comuni e loro Consorzi e Associazioni,Pubbliche Amministrazioni,,S,273990226,comune@pec.comune.bondone.tn.it,pec,comune@comune.bondone.tn.it,altro,,,,,,,,,,,0,bondone,Bondone,45.8058,10.5513
c_c797,http://creativecommons.org/licenses/by/2.5/it/,Creative Commons (CCBY) (apre il link in una nuova finestra),,c_c797,Comune di Cloz,Cloz,Natale,Floretta,38020,TN,Trentino Alto Adige,http://www.comune.cloz.tn.it,"Via Di S.Stefano, 2",Sindaco,Comuni e loro Consorzi e Associazioni,Pubbliche Amministrazioni,,S,311730220,comune@pec.comune.cloz.tn.it,pec,,,,,,,,,,,,,0,cloz,Cloz,46.4199,11.088
c_f307,http://creativecommons.org/licenses/by/2.5/it/,Creative Commons (CCBY) (apre il link in una nuova finestra),,c_f307,Comune di Molveno,Molveno,Ruggero,Franchi,38018,TN,Trentino Alto Adige,http://www.comune.molveno.tn.it,"Piazza Marconi, 1",Sindaco,Comuni e loro Consorzi e Associazioni,Pubbliche Amministrazioni,,S,149120222,comune@pec.comune.molveno.tn.it,pec,molveno@comuni.infotn.it,altro,,,,,,,,,,,0,molveno,Molveno,46.1431,10.9649
c_b780,http://creativecommons.org/licenses/by/3.0/it/,Licenza Creative Commons,,c_b780,Comune di Carini,Carini,Giuseppe,Monteleone,90044,PA,Sicilia,http://www.comune.carini.pa.it,Corso Umberto I,Sindaco,Comuni e loro Consorzi e Associazioni,Pubbliche Amministrazioni,,S,147540827,protocollo@pec.comune.carini.pa.it,pec,,,,,,,,,,,,,0,carini,Carini,38.1316,13.1809
c_g428,http://creativecommons.org/licenses/by/2.5/it/,Creative Commons (CCBY) (apre il link in una nuova finestra),,c_g428,Comune di Pellizzano,Pellizzano,Dennis,Cova,38020,TN,Trentino Alto Adige,http://www.comune.pellizzano.tn.it,Piazza Di Santa Maria n. 6,Sindaco,Comuni e loro Consorzi e Associazioni,Pubbliche Amministrazioni,,S,149130221,comune@pec.comune.pellizzano.tn.it,pec,info@comune.pellizzano.tn.it,altro,,,,,,,,,,,0,pellizzano,Pellizzano,46.31100000000001,10.7609
c_I924,http://creativecommons.org/licenses/by/2.5/it/,Creative Commons (CCBY) (apre il link in una nuova finestra),,c_I924,Comune di Spormaggiore,Spormaggiore,DIEGO,TANEL,38010,TN,Trentino Alto Adige,http://www.comune.spormaggiore.tn.it,Piazza Di Fiera N. 1,RAGIONIERE,Comuni e loro Consorzi e Associazioni,Pubbliche Amministrazioni,,S,318880226,posta@pec.comune.spormaggiore.tn.it,pec,anagrafe@pec.comune.spormaggiore.tn.it,pec,ragioneria@pec.comune.spormaggiore.tn.it,pec,segreteria@comune.spormaggiore.tn.it,altro,tecnico@pec.comune.spormaggiore.tn.it,pec,,,,,0,spormaggiore,Spormaggiore,46.2195,11.0498
c_dez8,http://creativecommons.org/licenses/by/2.5/it/,Creative Commons (CCBY) (apre il link in una nuova finestra),,c_dez8,Comune di Cavedago,Cavedago,Silvano,Daldoss,38010,TN,Trentino Alto Adige,http://www.cavedago.com,Piazza San Lorenzo 1,Sindaco,Comuni e loro Consorzi e Associazioni,Pubbliche Amministrazioni,,S,80008770226,comune@pec.comune.cavedago.tn.it,pec,ragioneria@comune.cavedago.tn.it,altro,,,,,,,,,,,0,cavedago,Cavedago,46.1863,11.0325
c_g808,http://creativecommons.org/licenses/by/2.5/it/,Creative Commons (CCBY) (apre il link in una nuova finestra),,c_g808,Comune di Pomarolo,Pomarolo,Roberto,Adami,38060,TN,Trentino Alto Adige,http://www.comune.pomarolo.tn.it/,"Piazza Fratelli Fontana, 7",Sindaco,Comuni e loro Consorzi e Associazioni,Pubbliche Amministrazioni,,S,310930227,comune@pec.comune.pomarolo.tn.it,pec,pomarolo@comune.pomarolo.tn.it,altro,,,,,,,,,,,0,pomarolo,Pomarolo,45.9291,11.0442
c_l194,http://creativecommons.org/licenses/by/3.0/it/,Licenza Creative Commons,,c_l194,Comune di Tollo,Tollo,Angelo,Radica,66010,CH,Abruzzo,http://www.comune.tollo.ch.it,Piazza Della Liberazione,Sindaco,Comuni e loro Consorzi e Associazioni,Pubbliche Amministrazioni,,S,145440699,comune.tollo@legalmail.it,pec,comunetollo@comune.tollo.ch.it,altro,tecnico@comune.tollo.ch.it,altro,tecnico.tollo@legalmail.it,pec,anagrafe@comune.tollo.ch.it,altro,http://www.facebook.com/comune.tollo.7,,,,0,tollo,Tollo,42.3489,14.3191
c_b165,http://creativecommons.org/licenses/by/2.5/it/,Creative Commons (CCBY) (apre il link in una nuova finestra),,c_b165,Comune di Brez,Brez,Silvio,Rossi,38021,TN,Trentino Alto Adige,http://www.comune.brez.tn.it,"Piazza Municipio, 12",Segretario,Comuni e loro Consorzi e Associazioni,Pubbliche Amministrazioni,,S,311750228,comune@pec.comune.brez.tn.it,pec,c.brez@comuni.brez.tn.it,altro,,,,,,,,,,,0,brez,Brez,46.4319,11.1077
c_l090,http://creativecommons.org/licenses/by/2.5/it/,Creative Commons (CCBY) (apre il link in una nuova finestra),,c_l090,Comune di Telve di Sopra,Telve di Sopra,Ivano,Colme,38050,TN,Trentino Alto Adige,http://www.comune.telvedisopra.tn.it,"Via San Giovanni Bosco, 10",Sindaco,Comuni e loro Consorzi e Associazioni,Pubbliche Amministrazioni,,S,81001210228,comune@pec.comune.telvedisopra.tn.it,pec,info@comune.telvedisopra.tn.it,altro,,,,,,,,,,,0,telve-di-sopra,Telve di Sopra,46.0724,11.4728
c_l511,http://creativecommons.org/licenses/by/2.5/it/,licenza Creative Commons - Attribuzione 2.5 Italia,,c_l511,Comune di Usmate Velate,Usmate Velate,Maria Elena,Riva,20865,MB,Lombardia,http://www.comune.usmatevelate.mb.it,"Corso Italia, 22",Sindaco,Comuni e loro Consorzi e Associazioni,Pubbliche Amministrazioni,,S,1482570155,protocollo.comuneusmatevelate@postecert.it,pec,ragioneria.comuneusmatevelate@postecert.it,pec,ufficiotecnico.comuneusmatevelate@postecert.it,pec,servizisociali.comuneusmatevelate@postecert.it,pec,polizialocale.comuneusmatevelate@postecert.it,pec,,,,,0,usmate-velate,Usmate Velate,45.6508,9.3625
c_m357,http://creativecommons.org/licenses/by/2.5/it/,Creative Commons (CCBY) (apre il link in una nuova finestra),,c_m357,Comune di Madruzzo,Madruzzo,Michele,Bortoli,38076,TN,Trentino Alto Adige,http://www.comune.madruzzo.tn.it,"Piazza Alcide Degasperi, 25",Sindaco,Comuni e loro Consorzi e Associazioni,Pubbliche Amministrazioni,,S,2401750225,comune@pec.comune.madruzzo.tn.it,pec,info@comune.madruzzo.tn.it,altro,,,,,,,,,,,0,madruzzo,Madruzzo,46.026112,10.98424
c_l100,http://creativecommons.org/licenses/by-sa/2.5/it/,,,c_l100,Comune di Teolo,Teolo,MARIO,VISCONTI,35037,PD,Veneto,http://www.comune.teolo.pd.it,V Euganea Treponti 34,Segretario Comunale,Comuni e loro Consorzi e Associazioni,Pubbliche Amministrazioni,,S,80010150284,teolo.pd@cert.ip-veneto.net,pec,,,,,,,,,,,,,0,teolo,Teolo,45.3485,11.6723
c_f947,http://creativecommons.org/licenses/by/2.5/it/,Creative Commons (CCBY) (apre il link in una nuova finestra),,c_f947,Comune di Novaledo,Novaledo,Diego,Margon,38050,TN,Trentino Alto Adige,http://www.comune.novaledo.tn.it,"Piazza Municipio, 7",Sindaco,Comuni e loro Consorzi e Associazioni,Pubbliche Amministrazioni,,S,289900227,comune@pec.comune.novaledo.tn.it,pec,comune@comune.novaledo.tn.it,altro,,,,,,,,,,,0,novaledo,Novaledo,46.023,11.3669
c_f013,http://creativecommons.org/licenses/by-sa/2.5/it/,,,c_f013,Comune di Masi,Masi,Cosimo,Galassini,35040,PD,Veneto,http://www.comune.masi.pd.it,Piazza Liberta' n.1-3,Sindaco,Comuni e loro Consorzi e Associazioni,Pubbliche Amministrazioni,,S,82001470283,masi.pd@cert.ip-veneto.net,pec,ufficio.ragioneria@comune.masi.pd.it,altro,,,,,,,,,,,0,masi,Masi,45.1099,11.4903
c_g028,http://creativecommons.org/licenses/by/2.5/it/,licenza Creative Commons - Attribuzione 2.5 Italia,,c_g028,Comune di Olgiate Olona,Olgiate Olona,Giovanni,Montano,21057,VA,Lombardia,http://www.comuneolgiateolona.it,v. Luigia Greppi 4,Sindaco,Comuni e loro Consorzi e Associazioni,Pubbliche Amministrazioni,,S,322700121,comune.olgiateolona@pec.regione.lombardia.it,pec,info@comuneolgiateolona.it,altro,demograficiolgiateolona@legalmail.it,pec,,,,,,,,,0,olgiate-olona,Olgiate Olona,45.63,8.8863
c_d468,http://creativecommons.org/licenses/by/2.5/it/,Creative Commons (CCBY) (apre il link in una nuova finestra),,c_d468,Comune di Fai della Paganella,Fai della Paganella,Gabriele,Tonidandel,38010,TN,Trentino Alto Adige,http://www.comune.faidellapaganella.tn.it,"Via Villa, 29",Sindaco,Comuni e loro Consorzi e Associazioni,Pubbliche Amministrazioni,,S,431040229,comune@pec.comune.faidellapaganella.tn.it,pec,protocollo@comune.faidellapaganella.tn.it,altro,,,,,,,,,,,0,fai-della-paganella,Fai della Paganella,46.1753,11.0685
c_c544,http://creativecommons.org/licenses/by-sa/2.5/it/,licenza Creative Commons Attribuzione - Condividi allo stesso modo 2.5 Italia,,c_c544,Comune di Cervarese Santa Croce,Cervarese Santa Croce,Massimo,Campagnolo,35030,PD,Veneto,http://www.comune.cervarese.pd.it,Piazza A.Moro 9,Sindaco,Comuni e loro Consorzi e Associazioni,Pubbliche Amministrazioni,,S,80009270283,cervaresesantacroce.pd@cert.ip-veneto.net,pec,,,,,,,,,,,,,0,cervarese-santa-croce,Cervarese Santa Croce,45.4245,11.6868
c_m366,http://creativecommons.org/licenses/by/2.5/it/,Creative Commons (CCBY) (apre il link in una nuova finestra),,c_m366,Comune di Dimaro Folgarida,Dimaro Folgarida,Andrea,Lazzaroni,38025,TN,Trentino Alto Adige,http://www.comune.dimarofolgarida.tn.it,"Piazza Giovanni Serra, 10",Sindaco,Comuni e loro Consorzi e Associazioni,Pubbliche Amministrazioni,,S,2401970229,comune@pec.comune.dimarofolgarida.tn.it,pec,,,,,,,,,,,,,0,dimaro-folgarida,Dimaro,46.3272,10.8719
c_g823,http://creativecommons.org/licenses/by-sa/2.5/it/,,,c_g823,Comune di Ponso,Ponso,SEGRETARIO,COMUNALE,35040,PD,Veneto,http://www.comune.ponso.pd.it,"Via Vittorio, 33",SEGRETARIO COMUNALE,Comuni e loro Consorzi e Associazioni,Pubbliche Amministrazioni,,S,82002950283,ponso.pd@cert.ip-veneto.net,pec,comune@comune.ponso.pd.it,altro,,,,,,,,,,,0,ponso,Ponso,45.1926,11.5871
c_d188,http://creativecommons.org/licenses/by/2.5/it/,Creative Commons (CCBY) (apre il link in una nuova finestra),,c_d188,Comune di Croviana,Croviana,GIORGIO,OSELE,38027,TN,Trentino Alto Adige,http://www.comune.croviana.tn.it/,"Via Di Carbonara, 16",Segretario Comunale,Comuni e loro Consorzi e Associazioni,Pubbliche Amministrazioni,,S,423390228,comune@pec.comune.croviana.tn.it,pec,segretario@comune.croviana.tn.it,altro,,,,,,,,,,,0,croviana,Croviana,46.3463,10.9045
c_i714,http://creativecommons.org/licenses/by/2.5/it/,Creative Commons (CCBY),,c_i714,Comune di Sfruz,Sfruz,Andrea,Biasi,38010,TN,Trentino Alto Adige,http://www.comune.sfruz.tn.it,"Piazza De Gasperi, 16",Sindaco,Comuni e loro Consorzi e Associazioni,Pubbliche Amministrazioni,,S,83005070228,comune.sfruz@pec.it,pec,info@comune.sfruz.tn.it,altro,,,,,,,,,,,0,sfruz,Sfruz,46.3406,11.1249
c_f727,http://creativecommons.org/licenses/by/3.0/it/,Licenza Creative Commons,,c_f727,Comune di Morgongiori,Morgongiori,Renzo,Ibba,9090,OR,Sardegna,http://www.comune.morgongiori.or.it,"Via Rinascita, 6",Sindaco,Comuni e loro Consorzi e Associazioni,Pubbliche Amministrazioni,,S,74170952,protocollo@pec.comune.morgongiori.or.it,pec,protocollo@comune.morgongiori.or.it,altro,utc.morgongiori@pec.it,pec,finanziario@pec.comune.morgongiori.or.it,pec,,,https://www.facebook.com/ComuneDiMorgongiori,,,,0,morgongiori,Morgongiori,39.7478,8.7713
c_l097,http://creativecommons.org/licenses/by/2.5/it/,Creative Commons (CCBY) (apre il link in una nuova finestra),,c_l097,Comune di Tenno,Tenno,Giuliano,Marocchi,38060,TN,Trentino Alto Adige,http://www.comune.tenno.tn.it,"Via Dante Alighieri, 18",Vicesindaco,Comuni e loro Consorzi e Associazioni,Pubbliche Amministrazioni,,S,84000250229,comune@pec.comune.tenno.tn.it,pec,p.colautti@comune.tenno.tn.it,altro,,,,,,,,,,,0,tenno,Tenno,45.9203,10.8325
c_i411,http://creativecommons.org/licenses/by/2.5/it/,Creative Commons (CCBY) (apre il link in una nuova finestra),,c_i411,Comune di Sanzeno,Sanzeno,Claudia,Scanzoni,38010,TN,Trentino Alto Adige,http://www.comune.sanzeno.tn.it,"Frazione Banco Piazza del Municipio, 1",Collaboratore Amministrativo,Comuni e loro Consorzi e Associazioni,Pubbliche Amministrazioni,,S,83005250226,comune@pec.comune.sanzeno.tn.it,pec,comune@comune.sanzeno.tn.it,altro,,,,,,,,,,,0,sanzeno,Sanzeno,46.3678,11.0777
c_e648,http://creativecommons.org/licenses/by/3.0/it/,Licenza Creative Commons,,c_e648,Comune di Lodi,Lodi,Sara,Casanova,26900,LO,Lombardia,http://www.comune.lodi.it,Piazza Broletto 1,Sindaco,Comuni e loro Consorzi e Associazioni,Pubbliche Amministrazioni,,S,84507570152,comunedilodi@legalmail.it,pec,urp@comune.lodi.it,altro,,,,,,,http://www.facebook.com/pages/Comune-di-Lodi/49965188375?v=wall,https://twitter.com/ComunediLodi,http://www.youtube.com/user/ComunediLodi,,2,lodi,Lodi,45.3129,9.4978
c_g419,http://creativecommons.org/licenses/by/2.5/it/,Creative Commons (CCBY) (apre il link in una nuova finestra),,c_g419,Comune di Peio,Peio,Angelo,Dalpez,38024,TN,Trentino Alto Adige,http://www.comune.peio.tn.it,"Via Giovanni Casarotti, 31",Sindaco,Comuni e loro Consorzi e Associazioni,Pubbliche Amministrazioni,,S,308670223,comune@pec.comune.peio.tn.it,pec,protocollo@comune.peio.tn.it,altro,,,,,,,,,,,0,peio,Peio,46.3628,10.6734
c_i543,http://creativecommons.org/licenses/by/3.0/it/,Licenza Creative Commons,,c_i543,Comune di Scontrone,Scontrone,Ileana,Schipani,67030,AQ,Abruzzo,http://www.comune.scontrone.aq.it,Piazza Roma 1,Sindaco,Comuni e loro Consorzi e Associazioni,Pubbliche Amministrazioni,,S,82000350668,comunescontrone@pec.it,pec,comunescontrone@virgilio.it,altro,,,,,,,,,,,0,scontrone,Scontrone,41.7472,14.0396
c_i040,http://creativecommons.org/licenses/by/3.0/it/,Licenza Creative Commons,,c_i040,Comune di San Michele Al Tagliamento,San Michele al Tagliamento,Pasqualino,Codognotto,30028,VE,Veneto,http://www.comunesanmichele.it,"Piazza della Liberta', 2",Sindaco,Comuni e loro Consorzi e Associazioni,Pubbliche Amministrazioni,,S,325190270,comune.sanmichelealtagliamento.ve@pecveneto.it,pec,info@comunesanmichele.it,altro,,,,,,,https://www.facebook.com/sanmichelealtagliamento,https://twitter.com/Comune_SMT,http://www.youtube.com/channel/UC6prgAC9Bt8G4ZckULj1jFQ,,0,san-michele-al-tagliamento,San Michele al Tagliamento,45.7642,12.995
c_b749,http://creativecommons.org/licenses/by-sa/2.5/it/,,,c_b749,Comune di Carceri,Carceri,Tiberio,Businaro,35040,PD,Veneto,http://www.comune.carceri.pd.it,Via Roma 22,Sindaco,Comuni e loro Consorzi e Associazioni,Pubbliche Amministrazioni,COMUNE DI CARCERI,S,82002210282,carceri.pd@cert.ip-veneto.net,pec,ragioneria@comune.carceri.pd.it,altro,,,,,,,,,,,0,carceri,Carceri,45.196999999999996,11.6203
c_f835,http://creativecommons.org/licenses/by/2.5/it/,Creative Commons (CCBY) (apre il link in una nuova finestra),,c_f835,Comune di Nago-Torbole,Nago-Torbole,Gianni,Morandi,38069,TN,Trentino Alto Adige,http://www.comune.nago-torbole.tn.it,"Via Giacomo Matteotti, 33",Sindaco,Comuni e loro Consorzi e Associazioni,Pubbliche Amministrazioni,,S,84000050223,comunenagotorbole@pec.it,pec,protocollo.comune.nago-torbole.tn@legalmail.it,pec,comune@comune.nago-torbole.tn.it,altro,,,,,,,,,0,nago-torbole,Nago-Torbole,45.8693,10.8775
c_l147,http://creativecommons.org/licenses/by/2.5/it/,Creative Commons (CCBY) (apre il link in una nuova finestra),,c_l147,Comune di Tesero,Tesero,Elena,Ceschini,38038,TN,Trentino Alto Adige,http://www.comune.tesero.tn.it,"Via 4 Novembre, 27",Sindaco,Comuni e loro Consorzi e Associazioni,Pubbliche Amministrazioni,,S,303060222,comune@pec.comune.tesero.tn.it,pec,info@comune.tesero.tn.it,altro,,,,,,,,,,,0,tesero,Tesero,46.2914,11.5131
c_m351,http://creativecommons.org/licenses/by/2.5/it/,Creative Commons (CCBY) (apre il link in una nuova finestra),,c_m351,Comune di Amblar Don,Amblar Don,Giuliano,Marches,38011,TN,Trentino Alto Adige,http://www.comune.amblardon.tn.it/,"Via Alla Chiesa, 5",Sindaco,Comuni e loro Consorzi e Associazioni,Pubbliche Amministrazioni,,S,2401960220,comune@pec.comune.amblardon.tn.it,pec,comune@comune.amblardon.tn.it,altro,anagrafe@comune.amblardon.tn.it,altro,ragioniere@comune.amblardon.tn.it,altro,segretario@comune.amblardon.tn.it,altro,,,,,0,amblar-don,Amblar,46.3953,11.1443
c_e624,http://creativecommons.org/licenses/by/2.5/it/,Creative Commons (CCBY) (apre il link in una nuova finestra),,c_e624,Comune di Livo TN,Livo,FERRUCCIO,ZANOTELLI,38020,TN,Trentino Alto Adige,http://www.comune.livo.tn.it,"Via G Marconi, 54",SINDACO,Comuni e loro Consorzi e Associazioni,Pubbliche Amministrazioni,,S,83002860225,comune@pec.comune.livo.tn.it,pec,ragioneria@comune.livo.tn.it,altro,,,,,,,,,,,0,livo,Livo,46.1699,9.305
c_l805,http://creativecommons.org/licenses/by-sa/2.5/it/,,,c_l805,Comune di Vescovana,Vescovana,Elena,Muraro,35040,PD,Veneto,http://www.comune.vescovana.pd.it,"Via Roma, 32",Sindaco,Comuni e loro Consorzi e Associazioni,Pubbliche Amministrazioni,,S,82001130283,vescovana.pd@cert.ip-veneto.net,pec,segreteria@comune.vescovana.pd.it,altro,,,,,,,,,,,0,vescovana,Vescovana,45.1363,11.7108
c_i703,http://creativecommons.org/licenses/by/3.0/it/,testo integrale della licenza,,c_i703,Comune di Settimo Torinese,Settimo Torinese,ELENA,PIASTRA,10036,TO,Piemonte,http://www.comune.settimo-torinese.to.it,"Piazza Liberta', 4",Sindaco,Comuni e loro Consorzi e Associazioni,Pubbliche Amministrazioni,,S,1054240013,settimo@cert.comune.settimo-torinese.to.it,pec,,,,,,,,,,,,,0,settimo-torinese,Settimo Torinese,45.1371,7.7709
c_e757,http://creativecommons.org/licenses/by/2.5/it/,Creative Commons (CCBY) (apre il link in una nuova finestra),,c_e757,Comune di Luserna,Luserna,Emanuela,Defrancesco,38040,TN,Trentino Alto Adige,http://www.comune.luserna.tn.it,"Piazza Marconi, 2",Segretario generale,Comuni e loro Consorzi e Associazioni,Pubbliche Amministrazioni,,S,80004770220,comune@pec.comune.luserna.tn.it,pec,,,,,,,,,,,,,0,luserna,Luserna,44.8085,7.2454
c_c400,http://creativecommons.org/licenses/by/2.5/it/,Creative Commons (CCBY) (apre il link in una nuova finestra),,c_c400,Comune di Cavizzana,Cavizzana,Gianni,Rizzi,38022,TN,Trentino Alto Adige,http://www.comune.cavizzana.tn.it/,"Piazza del Municipio, 2",Sindaco,Comuni e loro Consorzi e Associazioni,Pubbliche Amministrazioni,,S,291620227,comune@pec.comune.cavizzana.tn.it,pec,comune@comune.cavizzana.tn.it,altro,ragioneria@comune.cavizzana.tn.it,altro,,,,,,,,,0,cavizzana,Cavizzana,46.3682,10.9586
c_l872,http://creativecommons.org/licenses/by-sa/3.0/it/deed.it,Creative Commons CC-BY-SA,,c_l872,Comune di Vigevano,Vigevano,Andrea,Sala,27029,PV,Lombardia,http://www.comune.vigevano.pv.it,"Corso Vittorio Emanuele II, 25",Sindaco,Comuni e loro Consorzi e Associazioni,Pubbliche Amministrazioni,,S,85001870188,protocollovigevano@pec.it,pec,gr-sic-sysadm@comune.vigevano.pv.it,altro,,,,,,,,,,,0,vigevano,Vigevano,45.3171,8.8586
c_f205,https://creativecommons.org/licenses/by/3.0/it/,Licenza Creative Commons;,,c_f205,Comune di Milano,Milano,Giuseppe,Sala,20121,MI,Lombardia,http://www.comune.milano.it,"Piazza Della Scala, 2",Sindaco,Comuni e loro Consorzi e Associazioni,Pubbliche Amministrazioni,,S,1199250158,protocollo@postacert.comune.milano.it,pec,,,,,,,,,,,,,0,milano,Milano,45.4612,9.1878
c_c103,http://creativecommons.org/licenses/by/2.5/it/,Creative Commons (CCBY) (apre il link in una nuova finestra),,c_c103,Comune di Castelfondo,Castelfondo,OSCAR,PIAZZI,38020,TN,Trentino Alto Adige,http://www.comune.castelfondo.tn.it/,"Via General Cantore, 13",Sindaco,Comuni e loro Consorzi e Associazioni,Pubbliche Amministrazioni,,S,311710222,comune@pec.comune.castelfondo.tn.it,pec,castelfondo@comuni.infotn.it,altro,,,,,,,,,,,0,castelfondo,Castelfondo,46.4566,11.1184
c_i871,http://creativecommons.org/licenses/by/2.5/it/,Creative Commons (CCBY) (apre il link in una nuova finestra),,c_i871,Comune di Sover,Sover,Carlo,Battisti,38048,TN,Trentino Alto Adige,http://www.comune.sover.tn.it,"Piazza S. Lorenzo, 12",Sindaco,Comuni e loro Consorzi e Associazioni,Pubbliche Amministrazioni,,S,371870221,comune@pec.comune.sover.tn.it,pec,affarigenerali.gestioneassociata@comune.segonzano.tn.it,altro,,,,,,,,,,,0,sover,Sover,46.2228,11.3156
c_l736,http://creativecommons.org/licenses/by/3.0/it/,Licenza Creative Commons,,c_l736,Comune di Venezia,Venezia,Luigi,Brugnaro,30100,VE,Veneto,http://www.comune.venezia.it,"San Marco, 4136",Sindaco,Comuni e loro Consorzi e Associazioni,Pubbliche Amministrazioni,,S,339370272,protocolloinformatico@pec.comune.venezia.it,pec,,,,,,,,,http://it-it.facebook.com/pages/Comune-di-Venezia/40209203564,www.comune.venezia.it/flex/cm/pages/ServeBLOB.php/L/IT/IDPagina/1#.Vl1dkoN9pCM.twitter,,,0,venezia,Venezia,45.4345,12.3384
c_d243,http://creativecommons.org/licenses/by/2.5/it/,Creative Commons (CCBY) (apre il link in una nuova finestra),,c_d243,Comune di Daiano,Daiano,Emanuela,Bez,38030,TN,Trentino Alto Adige,http://www.comune.daiano.tn.it,"Piazza A. De Gasperi, 1",Segretario Comunale,Comuni e loro Consorzi e Associazioni,Pubbliche Amministrazioni,,S,145810222,daiano@pec.comune.daiano.tn.it,pec,daiano@comuni.infotn.it,altro,,,,,,,,,,,0,daiano,Daiano,46.3025,11.4502
c_i975,http://creativecommons.org/licenses/by/2.5/it/,Creative Commons (CCBY) (apre il link in una nuova finestra),,c_i975,Comune di Strembo,Strembo,Guido,Botteri,38080,TN,Trentino Alto Adige,http://www.comune.strembo.tn.it/,"Via G. Garibaldi, 5",Sindaco,Comuni e loro Consorzi e Associazioni,Pubbliche Amministrazioni,,S,263320228,comune@pec.comune.strembo.tn.it,pec,comune.strembo@comuni.infotn.it,altro,,,,,,,,,,,0,strembo,Strembo,46.1213,10.7521
c_a652,,,Open Data,c_a652,Comune di Bareggio,Bareggio,Linda,Colombo,20010,MI,Lombardia,http://www.comune.bareggio.mi.it,Piazza Cavour,Sindaco,Comuni e loro Consorzi e Associazioni,Pubbliche Amministrazioni,,S,82000710150,comune.bareggio@pec.regione.lombardia.it,pec,,,,,,,,,https://www.facebook.com/comunedibareggio/,https://twitter.com/comunebareggio,,,0,bareggio,Bareggio,45.476000000000006,8.9949
c_b707,,,Open Data,c_b707,Comune di Capriglio,Capriglio,TIZIANA,GAETA,14014,AT,Piemonte,http://www.comune.capriglio.at.it,"Piazza Mamma Margherita, 3",Sindaco,Comuni e loro Consorzi e Associazioni,Pubbliche Amministrazioni,,S,80003130053,capriglio@cert.ruparpiemonte.it,pec,info@comune.capriglio.at.it,altro,,,,,,,,,,,0,capriglio,Capriglio,44.4778,10.2041
c_e345,,,Open Data (dati aperti),c_e345,Comune di Isolabella,Isolabella,Silvia,Colombatto,10046,TO,Piemonte,http://comune.isolabella.to.it,Piazza Cavour 1,Sindaco,Comuni e loro Consorzi e Associazioni,Pubbliche Amministrazioni,,S,84502050010,isolabella@cert.ruparpiemonte.it,pec,comune.isolabella@sicap.it,altro,,,,,,,,,,,0,isolabella,Isolabella,44.9075,7.9102
c_d554,,,Open data,c_d554,Comune di Ferrere,Ferrere,Silvio Maria,Tealdi,14012,AT,Piemonte,http://www.comune.ferrere.at.it,"Via IV Novembre, 14",Sindaco,Comuni e loro Consorzi e Associazioni,Pubbliche Amministrazioni,COMUNE DI FERRERE,S,80003510056,amministrazione.ferrere@pec.it,pec,municipio@comune.ferrere.at.it,altro,,,,,,,,,,,0,ferrere,Ferrere,44.8783,7.9942
c_h259,,,OpenData,c_h259,Comune di Val Rezzo,Val Rezzo,Ivan,Puddu,22010,CO,Lombardia,http://www.comune.valrezzo.co.it,"Via Provinciale, 4",Sindaco,Comuni e loro Consorzi e Associazioni,Pubbliche Amministrazioni,,S,84000950133,comune.valrezzo@pec.regione.lombardia.it,pec,,,,,,,,,,,,,0,val-rezzo,Val Rezzo,46.0722,9.1106
c_c194,,,Open Data,c_c194,Comune di Castello-Molina di Fiemme,Castello-Molina di Fiemme,Marco,Larger,38030,TN,Trentino Alto Adige,http://www.comune.castellomolina.tn.it,"Via Roma, 38",Sindaco,Comuni e loro Consorzi e Associazioni,Pubbliche Amministrazioni,,S,128850229,comune@pec.comune.castellomolina.tn.it,pec,,,,,,,,,,,,,0,castello-molina-di-fiemme,Castello-Molina di Fiemme,46.2819,11.4351
c_a812,,,Open Data,c_a812,Comune di Berzano di San Pietro,Berzano di San Pietro,Mario,Lupo,14020,AT,Piemonte,http://www.comune.berzanosanpietro.at.it,Piazza Municipale N. 1,Sindaco,Comuni e loro Consorzi e Associazioni,Pubbliche Amministrazioni,,S,92035370052,berzano.di.san.pietro@cert.ruparpiemonte.it,pec,protocollo@comune.berzanosanpietro.at.it,altro,,,,,,,,,,,0,berzano-di-san-pietro,Berzano di San Pietro,45.0952,7.9531
c_h330,,,Dati aperti rilasciati dal Comune,c_h330,Comune di Riva del Garda,Riva del Garda,Adalberto,Mosaner,38066,TN,Trentino Alto Adige,http://www.comune.rivadelgarda.tn.it,"Piazza Tre Novembre, 5",Sindaco,Comuni e loro Consorzi e Associazioni,Pubbliche Amministrazioni,,S,84001170228,comune.rivadelgarda.tn.it@cert.legalmail.it,pec,info@comune.rivadelgarda.tn.it,altro,,,,,,,,,,,0,riva-del-garda,Riva del Garda,45.8881,10.8445
c_l200,,,Open Data,c_l200,Comune di Ton,Ton,Angelo,Fedrizzi,38010,TN,Trentino Alto Adige,http://www.comune.ton.tn.it,Piazza Guardi 7,Sindaco,Comuni e loro Consorzi e Associazioni,Pubbliche Amministrazioni,,S,80011830223,comuneton@legalmail.it,pec,segreteria@comune.ton.tn.it,altro,anagrafe@comune.ton.tn.it,altro,,,,,,,,,0,ton,Ton,46.265,11.0867
c_i452,,,Open Data,c_i452,Comune di Sassari,Sassari,Nicola,Sanna,7100,SS,Sardegna,http://www.comune.sassari.it,"Piazza Del Comune, 1",Sindaco,Comuni e loro Consorzi e Associazioni,Pubbliche Amministrazioni,,S,239740905,protocollo@pec.comune.sassari.it,pec,sportellounico@pec.comune.sassari.it,pec,sue@pec.comune.sassari.it,pec,pg.polizialocalesassari@pec.comune.sassari.it,pec,tributi@pec.comune.sassari.it,pec,@ComunediSassari,@Comunedisassari,https://www.youtube.com/channel/UCEZygiq2sPLK-J6YCQC7TqA,,2,sassari,Sassari,40.7272,8.5585
c_c858,,,Open Data,c_c858,Comune di Colleferro,Colleferro,Antonio,Gagliarducci,34,RM,Lazio,http://www.comune.colleferro.rm.it,"Piazza Italia, 1",Responsabile area Economico-Finanziaria,Comuni e loro Consorzi e Associazioni,Pubbliche Amministrazioni,,S,2850240587,comune.colleferro@legalmail.it,pec,foltran@comune.colleferro.rm.it,altro,,,,,,,,,,,0,colleferro,Colleferro,41.7302,13.0058
c_f709,,,Open data,c_f709,Comune di Moransengo,Moransengo,Massimo,Ghigo,14023,AT,Piemonte,http://www.comune.moransengo.at.it,Piazza Ferrero 2,Sindaco,Comuni e loro Consorzi e Associazioni,Pubbliche Amministrazioni,,S,80005300050,protocollo.moransengo@cert.ruparpiemonte.it,pec,info@comune.moransengo.at.it,altro,,,,,,,,,,,0,moransengo,Moransengo,45.1158,8.0246
c_l168,,,Open data,c_l168,Comune di Tigliole,Tigliole,Massimo,Strocco Merlone,14016,AT,Piemonte,http://www.comune.tigliole.at.it,Piazza Vittoria N. 3,Sindaco,Comuni e loro Consorzi e Associazioni,Pubbliche Amministrazioni,,S,80003990050,tigliole@cert.ruparpiemonte.it,pec,,,,,,,,,,,,,0,tigliole,Tigliole,44.8866,8.0767
c_h783,,,Open Data,c_h783,Comune di San Bonifacio,San Bonifacio,GIAMPAOLO,PROVOLI,37047,VR,Veneto,http://www.comune.sanbonifacio.vr.it,Piazza Costituzione 4,SINDACO,Comuni e loro Consorzi e Associazioni,Pubbliche Amministrazioni,,S,220240238,sanbonifacio.vr@cert.ip-veneto.net,pec,,,,,,,,,,,,,0,san-bonifacio,San Bonifacio,45.3962,11.2702
c_m352,,,Open Data,c_m352,Comune di Borgo Chiese,Borgo Chiese,Paolo,Baldracchi,38083,TN,Trentino Alto Adige,http://www.comune.borgochiese.tn.it,"Piazza San Rocco, 20",Segretario Comunale,Comuni e loro Consorzi e Associazioni,Pubbliche Amministrazioni,,S,2402160226,comune@pec.comune.borgochiese.tn.it,pec,info@comune.borgochiese.tn.it,altro,,,,,,,,,,,0,borgo-chiese,Borgo Chiese,45.89063,10.60143
c_m344,,,Open Data,c_m344,Comune di Predaia,Taio,Paolo,Forno,38012,TN,Trentino Alto Adige,http://www.comune.predaia.tn.it,"Via Simone Barbacovi, 4",Sindaco,Comuni e loro Consorzi e Associazioni,Pubbliche Amministrazioni,,S,2354850220,comune@pec.comune.predaia.tn.it,pec,comune@comune.predaia.tn.it,altro,,,,,,,,,,,0,taio,Taio,46.3217,11.0711
c_f158,,,Open Data – Città di Messina,c_f158,Comune di Messina,Messina,Cateno,De Luca,98122,ME,Sicilia,http://www.comunemessina.gov.it,Piazza Unione Europea,Sindaco,Comuni e loro Consorzi e Associazioni,Pubbliche Amministrazioni,,S,80270838,protocollo@pec.comune.messina.it,pec,,,,,,,,,,,,,0,messina,Messina,38.1922,15.5566
c_l781,,,Open Data,c_l781,Comune di Verona,Verona,Federico,Sboarina,37121,VR,Veneto,http://www.comune.verona.it,"Piazza Bra, 1",Sindaco,Comuni e loro Consorzi e Associazioni,Pubbliche Amministrazioni,,S,215150236,protocollo.informatico@pec.comune.verona.it,pec,,,,,,,,,,,,,3,verona,Verona,45.442,10.9955
c_rlzv,,,Open Data,c_rlzv,Comune di Castello Tesino,Castello Tesino,Ivan,Boso,38053,TN,Trentino Alto Adige,http://www.comune.castello-tesino.tn.it,Via Dante 12,Sindaco,Comuni e loro Consorzi e Associazioni,Pubbliche Amministrazioni,,S,247030224,comune@pec.comune.castello-tesino.tn.it,pec,info@comune.castello-tesino.tn.it,altro,,,,,,,,,,,0,castello-tesino,Castello Tesino,46.0646,11.6334
c_a274,,,Open Data,c_a274,Comune di Andalo,Andalo,Maurizio,Tanel,38010,TN,Trentino Alto Adige,http://www.comune.andalo.tn.it,"Piazza Centrale, 1",Segretario comunale,Comuni e loro Consorzi e Associazioni,Pubbliche Amministrazioni,,S,319630224,segreteria@pec.comune.andalo.tn.it,pec,info@comune.andalo.tn.it,altro,,,,,,,,,,,0,andalo,Andalo,46.1661,11.0052
c_h517,,,Open Data,c_h517,Comune di Romeno,Romeno,Luca,Fattor,38010,TN,Trentino Alto Adige,http://www.comune.romeno.tn.it,"Via Zucali, 29",Sindaco,Comuni e loro Consorzi e Associazioni,Pubbliche Amministrazioni,,S,278170220,comune@pec.comune.romeno.tn.it,pec,anagrafe@comune.romeno.tn.it,altro,,,,,,,,,,,3,romeno,Romeno,46.3958,11.1195
c_a235,,,Open Data,c_a235,Comune di Altino,Altino,Vincenzo,Muratelli,66040,CH,Abruzzo,http://www.comune.altino.ch.it,"Via San Pietro, 54F",Sindaco,Comuni e loro Consorzi e Associazioni,Pubbliche Amministrazioni,,S,81001430693,protocollo@pec.comune.altino.ch.it,pec,protocollo@comune.altino.ch.it,altro,,,,,,,,,,,0,altino,Altino,42.1024,14.3307
c_l057,,,Italian Open Data License 2.0,c_l057,Comune di Tarvisio,Tarvisio,Renzo,Zanette,33018,UD,Friuli Venezia Giulia,http://www.comune.tarvisio.ud.it,"Via Roma, 3",Sindaco,Comuni e loro Consorzi e Associazioni,Pubbliche Amministrazioni,,S,251670303,comune.tarvisio@certgov.fvg.it,pec,affari.generali@com-tarvisio.regione.fvg.it,altro,,,,,,,,,,,3,tarvisio,Tarvisio,46.5054,13.5785
c_d488,,,OpenData,c_d488,Comune di Fano,Fano,Massimo,Seri,61032,PU,Marche,http://www.comune.fano.pu.it,"Via San Francesco D'Assisi, 76",Sindaco,Comuni e loro Consorzi e Associazioni,Pubbliche Amministrazioni,,S,127440410,comune.fano@emarche.it,pec,sindaco@comune.fano.pu.it,altro,,,,,,,,,,,0,fano,Fano,43.8449,13.0169
c_h501,,,Dati aperti,c_h501,ROMA CAPITALE,Roma,Virginia,Raggi,186,RM,Lazio,http://www.comune.roma.it,"Piazza Del Campidoglio, 1",Sindaco,Comuni e loro Consorzi e Associazioni,Pubbliche Amministrazioni,COMUNE ROMA,S,2438750586,protocollo.segretariato@pec.comune.roma.it,pec,protocollo.ragioneriagenerale@pec.comune.roma.it,pec,,,,,,,,,,,0,roma,Roma,41.9,12.4833
c_f323,,,Open data,c_f323,Comune di Monale,Monale,Sergio,Magnetti,14013,AT,Piemonte,http://www.comune.monale.at.it,"Piazza Vittorio Emanuele II, 1",Sindaco,Comuni e loro Consorzi e Associazioni,Pubbliche Amministrazioni,PA,S,85950053,monale@cert.ruparpiemonte.it,pec,info@comune.monale.at.it,altro,,,,,,,,,,,0,monale,Monale,44.9353,8.0727
c_m113,,,Open Data,c_m113,Comune di Volano,Volano,MARIA ALESSANDRA,FURLINI,38060,TN,Trentino Alto Adige,http://www.comune.volano.tn.it,"Via S. Maria, 36",SINDACO,Comuni e loro Consorzi e Associazioni,Pubbliche Amministrazioni,,S,369340229,comune@pec.comune.volano.tn.it,pec,ufficiodemografico@pec.comune.volano.tn.it,pec,,,,,,,,,,,0,volano,Volano,45.9185,11.0633
c_d365,,,Open Data,c_d365,Comune di Drena,Drena,TARCISIO,MICHELOTTI,38074,TN,Trentino Alto Adige,http://www.comune.drena.tn.it/,"Via Roma, 12",Sindaco,Comuni e loro Consorzi e Associazioni,Pubbliche Amministrazioni,,S,84000770226,comune.drena@emailpec.eu,pec,,,,,,,,,,,,,0,drena,Drena,45.97,10.9438
c_i042,,,Open Data,c_i042,Comune di San Michele all'Adige,San Michele all'Adige,CLELIA,SANDRI,38010,TN,Trentino Alto Adige,http://www.comune.sanmichelealladige.tn.it,"Via Biasi, 1A",Sindaco,Comuni e loro Consorzi e Associazioni,Pubbliche Amministrazioni,,S,141660225,certificata@pec.comune.sanmichelealladige.tn.it,pec,info@comune.sanmichelealladige.tn.it,altro,,,,,,,,,,,0,san-michele-all-adige,San Michele all'Adige,46.1939,11.1347
c_d689,,,Opendata,c_d689,Comune di Forano,Forano,Marco ,Cortella,2044,RI,Lazio,http://www.comune.forano.ri.it,"Via Del Passeggio, 2",Sindaco,Comuni e loro Consorzi e Associazioni,Pubbliche Amministrazioni,COMUNE DI FORANO,S,109320572,posta@pec.comune.forano.ri.it,pec,elettorale@comune.forano.ri.it,altro,,,,,,,,,,,0,forano,Forano,42.2971,12.5957
c_m105,,,Obiettivo del progetto è il riuso del modello organizzativo/gestionale della Città Metropolitana di Genova nato per supportare il complesso processo di apertura dei dati amministrativi e renderli fruibili online tramite l’Albero dell’Amministrazione Trasparente in modalità Open Data.,c_m105,Comune di Vobbia,Vobbia,Simone,Franceschi,16010,GE,Liguria,http://vobbia.unionedelloscrivia.ge.it,"Localita' Vobbia, 29",Sindaco,Comuni e loro Consorzi e Associazioni,Pubbliche Amministrazioni,,S,903710101,comune.vobbia@pec.it,pec,serviziosegreteria@comunedivobbia.com,altro,,,,,,,,,,,0,vobbia,Vobbia,44.6004,9.0393
c_e866,,,Open Data,c_e866,Comune di Malosco,Malosco,Walter,Clauser,38013,TN,Trentino Alto Adige,http://www.comune.malosco.tn.it,"Piazza Vittorio Erspamer, 1",Sindaco,Comuni e loro Consorzi e Associazioni,Pubbliche Amministrazioni,,S,255620221,comune@pec.comune.malosco.tn.it,pec,comunemalosco@cim.it,altro,,,,,,,,,,,0,malosco,Malosco,46.437,11.1474
c_g656,,,Open Data,c_g656,Comune di Pieve Tesino,Pieve Tesino,Carola,Gioseffi,38050,TN,Trentino Alto Adige,http://www.comune.pievetesino.tn.it,"Piazza Giovanni Buffa Schievano, 1",Sindaco,Comuni e loro Consorzi e Associazioni,Pubbliche Amministrazioni,,S,249810227,comune@pec.comune.pievetesino.tn.it,pec,pievetesino@comuni.infotn.it,altro,,,,,,,,,,,0,pieve-tesino,Pieve Tesino,46.0692,11.6114
c_b946,,,Open Data - Deliberazioni di Consiglio Comunale,c_b946,Comune di Casavatore,Casavatore,VALENTE-ALBERTINI,IZZO,80020,,Campania,http://www.comune.casavatore.na.it,"Piazza Gaspare Di Nocera, 1",Commissione Straordinaria,Comuni e loro Consorzi e Associazioni,Pubbliche Amministrazioni,,S,605360635,protocollo.casavatore@asmepec.it,pec,,,,,,,,,,,,,0,casavatore,Casavatore,40.9003,14.2775
c_h018,,,Open Data,c_h018,Comune di Predazzo,Predazzo,Maria,Bosin,38037,TN,Trentino Alto Adige,http://www.comune.predazzo.tn.it,P.za Ss. Filippo E Giacomo,Sindaco,Comuni e loro Consorzi e Associazioni,Pubbliche Amministrazioni,,S,148590227,comune@pec.comune.predazzo.tn.it,pec,info@comune.predazzo.tn.it,altro,anagrafe@pec.comune.predazzo.tn.it,pec,,,,,,,,,0,predazzo,Predazzo,46.3099,11.6008
c_c341,,,Open Data,c_c341,Comune di Castrofilippo,Castrofilippo,Antonio Francesco,Badalamenti,92020,AG,Sicilia,http://www.comune.castrofilippo.ag.it,"Piazza Paolo Borsellino , 2",Sindaco,Comuni e loro Consorzi e Associazioni,Pubbliche Amministrazioni,COMUNE DI CASTROFILIPPO,S,82001030848,protocollo.comune.castrofilippo@pec.it,pec,info@comune.castrofilippo.ag.it,altro,segretario@comune.castrofilippo.ag.it,altro,sindaco@comune.castrofilippo.ag.it,altro,segreteria@comune.castrofilippo.ag.it,altro,,,,,0,castrofilippo,Castrofilippo,37.3492,13.7492
c_h223,,,Open data,c_h223,Comune di Reggio Emilia,Reggio Emilia,Luca,Vecchi,42121,RE,Emilia Romagna,http://www.comune.re.it,"Piazza Prampolini, 1",Sindaco,Comuni e loro Consorzi e Associazioni,Pubbliche Amministrazioni,,S,145920351,comune.reggioemilia@pec.municipio.re.it,pec,,,,,,,,,https://www.facebook.com/cittadireggioemilia,https://twitter.com/News_Comune_RE,http://www.youtube.com/user/redazionewebRE,,0,reggio-emilia,Reggio Emilia,44.695591,10.64125
c_h366,,,Open Data,c_h366,Comune di Roatto,Roatto,Bruno,Colombo,14018,AT,Piemonte,http://www.comune.roatto.at.it,"Piazza Piemonte, 2",Sindaco,Comuni e loro Consorzi e Associazioni,Pubbliche Amministrazioni,,S,80005620051,roatto@cert.ruparpiemonte.it,pec,comuneroatto@libero.it,altro,,,,,,,,,,,0,roatto,Roatto,44.9524,8.027000000000001
c_f728,,,I dati aperti del Comune,c_f728,Comune di Mori,Mori,Stefano,Barozzi,38065,TN,Trentino Alto Adige,http://www.comune.mori.tn.it,"Via Scuole, 2",Sindaco,Comuni e loro Consorzi e Associazioni,Pubbliche Amministrazioni,,S,124030222,protocollo@pec.comune.mori.tn.it,pec,,,,,,,,,,,,,0,mori,Mori,45.8528,10.9762
c_f929,,,Open Data,c_f929,Comune di Nomi,Nomi,Rinaldo,Maffei,38060,TN,Trentino Alto Adige,http://www.comune.nomi.tn.it,"Piazza M. Springa, 3",Sindaco,Comuni e loro Consorzi e Associazioni,Pubbliche Amministrazioni,,S,85005290227,comune@pec.comune.nomi.tn.it,pec,nomi@comune.nomi.tn.it,altro,,,,,,,,,,,0,nomi,Nomi,45.9295,11.073
c_d810,,,OPENDATA-G.I.S.,c_d810,Comune di Frosinone,Frosinone,Nicola,Ottaviani,3100,FR,Lazio,http://www.comune.frosinone.gov.it,"Piazza VI Dicembre, Palazzo Comunale",Sindaco,Comuni e loro Consorzi e Associazioni,Pubbliche Amministrazioni,,S,264560608,pec@pec.comune.frosinone.it,pec,info@comune.frosinone.it,altro,ced@comune.frosinone.it,altro,,,,,https://www.facebook.com/pages/Comune-di-Frosinone/45451812682,https://twitter.com/ComuneFrosinone,https://www.youtube.com/c/comunefrosinone,,3,frosinone,Frosinone,41.6401,13.3519
c_l574,,,Open Data,c_l574,Comune di Valfenera,Valfenera,Paolo,Lanfranco,14017,AT,Piemonte,http://www.comune.valfenera.at.it,"P.zza T. Villa, 3",Sindaco,Comuni e loro Consorzi e Associazioni,Pubbliche Amministrazioni,,S,91920058,valfenera@cert.ruparpiemonte.it,pec,municipio@comune.valfenera.at.it,altro,,,,,,,,,,,0,valfenera,Valfenera,44.903,7.9674
c_d451,,,OpenData,c_d451,Comune di Fabriano,Fabriano,Vania,Ceccarani,60044,AN,Marche,http://www.comune.fabriano.an.it,"Piazza Del Comune, 1",Segretario Generale,Comuni e loro Consorzi e Associazioni,Pubbliche Amministrazioni,,S,155670425,protocollo@pec.comune.fabriano.an.it,pec,info@comune.fabriano.an.it,altro,,,,,,,,,,,0,fabriano,Fabriano,43.3361,12.9047
c_e565,,,Open Data,c_e565,Comune di Levico Terme,Levico Terme,Marino,Simoni,38056,TN,Trentino Alto Adige,http://www.comune.levico-terme.tn.it,"Via Marconi, 6",Commissario,Comuni e loro Consorzi e Associazioni,Pubbliche Amministrazioni,,S,253930226,comunelevicoterme@cert.legalmail.it,pec,,,,,,,,,,,,,3,levico-terme,Levico Terme,46.0111,11.3026
c_d548,,,open data - dati aperti,c_d548,Comune di Ferrara,Ferrara,Alan,Fabbri,44120,FE,Emilia Romagna,http://www.comune.fe.it,"p. Municipale, 2",Sindaco,Comuni e loro Consorzi e Associazioni,Pubbliche Amministrazioni,COMUNE DI FERRARA,S,297110389,comune.ferrara@cert.comune.fe.it,pec,,,,,,,,,https://www.facebook.com/cittadiferrara,https://twitter.com/ComuneDiFerrara,https://www.youtube.com/user/comuneferrara,,0,ferrara,Ferrara,44.8379,11.6204
c_a863,,,Open Data,c_a863,Comune di Bieno,Bieno,Luca,Guerri,38050,TN,Trentino Alto Adige,http://www.comune.bieno.tn.it,"Piazza Maggiore, 3",Sindaco,Comuni e loro Consorzi e Associazioni,Pubbliche Amministrazioni,,S,347080228,comune@pec.comune.bieno.tn.it,pec,bieno@comuni.infotn.it,altro,ragioneria@comune.bieno.tn.it,altro,,,,,,,,,0,bieno,Bieno,45.9514,8.5133
c_a072,,,Open Data,c_a072,Comune di Agliano Terme,Agliano Terme,FRANCO GIUSEPPE,SERRA,14041,AT,Piemonte,http://www.comune.aglianoterme.at.it,Piazza Roma 21,SINDACO,Comuni e loro Consorzi e Associazioni,Pubbliche Amministrazioni,,S,82000250058,comune.aglianoterme.at@cert.legalmail.it,pec,protocollo@comune.aglianoterme.at.it,altro,,,,,,,,,,,0,agliano-terme,Agliano Terme,44.7915,8.2497
c_i439,,,Open Data,c_i439,Comune di Sarnonico,Sarnonico,Emanuela,Abram,38011,TN,Trentino Alto Adige,http://www.comune.sarnonico.tn.it,Via Mendola. 1,Sindaco,Comuni e loro Consorzi e Associazioni,Pubbliche Amministrazioni,,S,256300229,comune@pec.comune.sarnonico.tn.it,pec,,,,,,,,,,,,,0,sarnonico,Sarnonico,46.4216,11.1428
c_g889,,,OpenData,c_g889,Comune di Porlezza,Porlezza,Sergio,Erculiani,22018,CO,Lombardia,http://www.comune.porlezza.co.it,"Via G. Garibaldi, 66",Sindaco,Comuni e loro Consorzi e Associazioni,Pubbliche Amministrazioni,,S,542250139,porlezza@pec.it,pec,protocollo@comune.porlezza.co.it,altro,,,,,,,https://www.facebook.com/comuneporlezza/,,,,2,porlezza,Porlezza,46.0394,9.1309
c_a662,,,Portale Opendata del Comune di Bari,c_a662,Comune di Bari,Bari,Antonio,Decaro,70122,BA,Puglia,http://www.comune.bari.it,"Cso Vittorio Emanuele II, 84",Sindaco,Comuni e loro Consorzi e Associazioni,Pubbliche Amministrazioni,,S,80015010723,archiviogenerale.comunebari@pec.rupar.puglia.it,pec,contrattiappalti.comunebari@pec.rupar.puglia.it,pec,suap.comunebari@pec.rupar.puglia.it,pec,tributi.comunebari@pec.rupar.puglia.it,pec,ragioneria.comunebari@pec.rupar.puglia.it,pec,,,,,0,bari,Bari,41.1261,16.8693
c_m354,,,Open Data,c_m354,Comune di Castel Ivano,Castel Ivano,Vittorio,Dorigato,38059,TN,Trentino Alto Adige,http://www.comunecastelivano.tn.it,"Piazza Municipio, 12",Segretario Comunale,Comuni e loro Consorzi e Associazioni,Pubbliche Amministrazioni,,S,2401920224,info@pec.comune.castel-ivano.tn.it,pec,,,,,,,,,,,,,0,castel-ivano,Castel Ivano,46.06757,11.52224
c_e334,,,Open Data,c_e334,Comune di Isera,Isera,Enrica,Rigotti,38060,TN,Trentino Alto Adige,http://www.comune.isera.tn.it,Via A. Ravagni N. 8,Sindaco,Comuni e loro Consorzi e Associazioni,Pubbliche Amministrazioni,,S,203870225,comune.isera@legalmail.it,pec,ragioneria@comune.isera.tn.it,altro,,,,,,,,,,,0,isera,Isera,45.8886,11.0103
c_l380,,,Piattaforma Open Data BDAP,c_l380,Comune di Trenzano,Trenzano,Spalenza,Italo,25030,BS,Lombardia,http://www.comune.trenzano.bs.it,Via Vittorio Emanuele II n. 3,Sindaco,Comuni e loro Consorzi e Associazioni,Pubbliche Amministrazioni,,S,949980171,protocollo@pec.comune.trenzano.bs.it,pec,info@comune.trenzano.bs.it,altro,,,,,,,,,,,0,trenzano,Trenzano,45.4783,10.0117
c_g935,,,Open Data,c_g935,Comune di Posta Fibreno,Posta Fibreno,Sante,Mele,3030,FR,Lazio,http://www.comune.postafibreno.fr.it,"Piazza Cesare Battisti, 4",Sindaco,Comuni e loro Consorzi e Associazioni,Pubbliche Amministrazioni,COMUNE,S,82000610608,comune@postafibrenopec.it,pec,comunedipostafibreno@virgilio.it,altro,info@comune.postafibreno.fr.it,altro,,,,,,,,,0,posta-fibreno,Posta Fibreno,41.6944,13.6969
c_l945,,,Open Data,c_l945,Comune di Villafranca D'Asti,Villafranca d'Asti,Guido,Cavalla,14018,AT,Piemonte,http://www.comune.villafrancadasti.at.it,"Via Roma, 50",Sindaco,Comuni e loro Consorzi e Associazioni,Pubbliche Amministrazioni,,S,80004110054,villafranca.dasti@cert.ruparpiemonte.it,pec,info@comune.villafrancadasti.at.it,altro,,,,,,,,,,,0,villafranca-d-asti,Villafranca d'Asti,44.913000000000004,8.0328
c_b633,,,Open Data,c_b633,Comune di Cantarana,Cantarana,Roberta,Franco,14010,AT,Piemonte,http://www.comune.cantarana.at.it,"Piazza D.G. Soria, 1",Sindaco,Comuni e loro Consorzi e Associazioni,Pubbliche Amministrazioni,,S,80003110055,comunecantarana@pec.it,pec,comunecantarana@libero.it,altro,,,,,,,,,,,0,cantarana,Cantarana,45.1994,12.0987
c_c022,,,Open data,c_c022,Comune di Cassinasco,Cassinasco,Sergio,Primosig,14050,AT,Piemonte,http://www.comune.cassinasco.at.it,"Via Umberto I, 3",Sindaco,Comuni e loro Consorzi e Associazioni,Pubbliche Amministrazioni,,S,192230050,cassinasco@cert.ruparpiemonte.it,pec,,,,,,,,,,,,,0,cassinasco,Cassinasco,44.6895,8.3018
c_i839,,,Open Data,c_i839,Comune di Soraga di Fassa,Soraga,Devi,Brunel,38030,TN,Trentino Alto Adige,http://comune.soraga.tn.it,Stradon De Fascia 22,Sindaco,Comuni e loro Consorzi e Associazioni,Pubbliche Amministrazioni,,S,334870227,comune@pec.comune.soraga.tn.it,pec,,,,,,,,,,,,,0,soraga,Soraga,46.3956,11.6674
c_m362,,,Open Data,c_m362,Comune di Vallelaghi,Vallelaghi,Gianni,Bressan,38070,TN,Trentino Alto Adige,http://www.comune.vallelaghi.tn.it,"Via Roma, 41",Sindaco,Comuni e loro Consorzi e Associazioni,Pubbliche Amministrazioni,,S,2401940222,info@pec.comune.vallelaghi.tn.it,pec,,,,,,,,,,,,,0,vallelaghi,Vallelaghi,46.080002,11.00065
c_c540,,,Opendata,c_c540,Comune di Certaldo,Certaldo,Giacomo,Cucini,50052,FI,Toscana,http://www.comune.certaldo.fi.it,"Piazza Boccaccio, 13",Sindaco Pro-Tempore,Comuni e loro Consorzi e Associazioni,Pubbliche Amministrazioni,,S,1310860489,comune.certaldo@postacert.toscana.it,pec,,,,,,,,,https://www.facebook.com/pages/Comune-di-Certaldo/184146938343934,http://twitter.com/comunecertaldo,http://www.youtube.com/user/ComunediCertaldo,,0,certaldo,Certaldo,43.5474,11.0386
c_f257,,,Open data,c_f257,Comune di Modena,Modena,Gian Carlo,Muzzarelli,41121,MO,Emilia Romagna,http://www.comune.modena.it/,"Via Scudari, 20",Sindaco,Comuni e loro Consorzi e Associazioni,Pubbliche Amministrazioni,,S,221940364,comune.modena@cert.comune.modena.it,pec,sindaco@cert.comune.modena.it,pec,,,,,,,,,,,0,modena,Modena,44.6471,10.9252
c_i726,,,Portale Open Data,c_i726,Comune di Siena,Siena,Luigi,De Mossi,53100,SI,Toscana,http://www.comune.siena.it,"Piazza Il Campo, 1",Sindaco,Comuni e loro Consorzi e Associazioni,Pubbliche Amministrazioni,,S,50800523,comune.siena@postacert.toscana.it,pec,,,,,,,,,,,,,0,siena,Siena,43.3187,11.3305
c_c794,,,Open Data,c_c794,Comune di Cles,Cles,Ruggero,Mucchi,38023,TN,Trentino Alto Adige,http://www.comune.cles.tn.it,"Corso Dante, N. 28",Sindaco,Comuni e loro Consorzi e Associazioni,Pubbliche Amministrazioni,,S,316390228,info@pec.comune.cles.tn.it,pec,info@comune.cles.tn.it,altro,,,,,,,https://www.facebook.com/comunedicles/,,https://www.youtube.com/user/ComuneCles,,0,cles,Cles,46.3661,11.0341
c_e093,,,"La mappa dei cantieri antidissesto, i nuovi dati aperti con le opere contro frane e alluvioni comune per comune e lo stato delle emergenze regione per regione.",c_e093,Comune di Gorgoglione,Gorgoglione,Giuseppe,Filippo,75010,MT,Basilicata,http://www.comune.gorgoglione.mt.it,Via Roma 159,Sindaco,Comuni e loro Consorzi e Associazioni,Pubbliche Amministrazioni,,S,83000410775,protocollo@pec.comune.gorgoglione.mt.it,pec,clpatern@rete.basilicata.it,altro,,,,,,,,,,,0,gorgoglione,Gorgoglione,40.3937,16.1441
c_h434,,,Open Data per la Pubblica Amministrazione,c_h434,Comune di Roccaraso,Roccaraso,Francesco,Di Donato,67037,AQ,Abruzzo,http://www.comunediroccaraso.it,"Viale Degli Alberghi, 2/A",Sindaco,Comuni e loro Consorzi e Associazioni,Pubbliche Amministrazioni,,S,82000150662,protocollo.roccaraso@pec.it,pec,,,,,,,,,,,,,0,roccaraso,Roccaraso,41.8477,14.0799
c_c852,,,Open data,c_c852,Comune di Collecchio,Collecchio,Maristella,Galli,43044,PR,Emilia Romagna,http://www.comune.collecchio.pr.it,"Viale Liberta', 3",Sindaco,Comuni e loro Consorzi e Associazioni,Pubbliche Amministrazioni,,S,168090348,protocollo@postacert.comune.collecchio.pr.it,pec,,,,,,,,,https://www.facebook.com/ComuneDiCollecchio,,,,0,collecchio,Collecchio,44.7518,10.2167
c_e986,,,OpenData e innovazione,c_e986,Comune di Martina Franca,Martina Franca,D'Arcangelo,Lucia,74015,TA,Puglia,http://www.comune.martinafranca.ta.it,p. Roma,Dirigente,Comuni e loro Consorzi e Associazioni,Pubbliche Amministrazioni,,S,80006710737,protocollo.comunemartinafranca@pec.rupar.puglia.it,pec,,,,,,,,,https://www.facebook.com/ComuneMartinaFranca/,,,,3,martina-franca,Martina Franca,40.7042,17.3349
c_f646,,,Open Data,c_f646,Comune di Montesilvano,Montesilvano,Francesco,Maragno,65015,PE,Abruzzo,http://www.comune.montesilvano.pe.it,Piazza Diaz N 1,Sindaco,Comuni e loro Consorzi e Associazioni,Pubbliche Amministrazioni,,S,193460680,protocollo@comunemontesilvano.legalmail.it,pec,,,,,,,,,,,,,0,montesilvano,Montesilvano,42.5051,14.1389
c_h930,,,"Portale ""Open Data""",c_h930,Comune di San Giuliano Milanese,San Giuliano Milanese,Giovanni,Andreassi,20098,MI,Lombardia,http://www.sangiulianonline.it,"Via De Nicola,2",Segretario Generale,Comuni e loro Consorzi e Associazioni,Pubbliche Amministrazioni,,S,798940151,comune.sangiulianomilanese@cert.legalmail.it,pec,,,,,,,,,https://www.facebook.com/pages/Comune-di-San-Giuliano-Milanese/159848427466147,,,,0,san-giuliano-milanese,San Giuliano Milanese,45.3983,9.2852
c_g702,,,OPEN DATA,c_g702,Comune di Pisa,Pisa,Michele,Conti,56120,PI,Toscana,http://www.comune.pisa.it,"Via Degli Uffizi, 1",Sindaco,Comuni e loro Consorzi e Associazioni,Pubbliche Amministrazioni,,S,341620508,comune.pisa@postacert.toscana.it,pec,comune.pisa.anagrafe@pec.it,pec,comune.pisa.elettorale@pec.it,pec,comune.pisa.statocivile@pec.it,pec,info@comune.pisa.it,altro,http://www.facebook.com/pages/Comune-di-Pisa/65915678372,,http://www.youtube.com/comunedipisa,,0,pisa,Pisa,43.7161,10.3966
c_h224,,,Open Data,c_h224,Comune di Reggio Calabria,Reggio Calabria,Giuseppe,Falcomata',89124,RC,Calabria,http://www.reggiocal.it,"Piazza Italia, Palazzo San Giorgio",Sindaco,Comuni e loro Consorzi e Associazioni,Pubbliche Amministrazioni,,S,136380805,protocollo@pec.reggiocal.it,pec,,,,,,,,,,,,,0,reggio-calabria,Reggio Calabria,38.112701,15.651720000000001
c_f390,,,Open Data,c_f390,Comune di Montafia,Montafia,Marina,Conti,14014,AT,Piemonte,http://www.comune.montafia.asti.it,"Piazza Camillo Riccio, 7",Sindaco,Comuni e loro Consorzi e Associazioni,Pubbliche Amministrazioni,,S,122310055,montafia@cert.ruparpiemonte.it,pec,info@comune.montafia.asti.it,altro,,,,,,,,,,,0,montafia,Montafia,44.9897,8.0241
c_m358,,,Open Data,c_m358,Comune di Porte di Rendena,Porte di Rendena,Enrico,Pellegrini,38094,TN,Trentino Alto Adige,http://www.comuneportedirendena.tn.it/,"Via Di Verdesina, 9",Sindaco,Comuni e loro Consorzi e Associazioni,Pubbliche Amministrazioni,,S,2401990227,comune@pec.comuneportedirendena.tn.it,pec,protocollo@comuneportedirendena.tn.it,altro,segretario@comuneportedirendena.tn.it,altro,,,,,,,,,0,porte-di-rendena,Porte di Rendena,46.062672,10.7122
c_f386,,,Open Data,c_f386,Comune di Montabone,Montabone,Giovanni Giuseppe,GALLO,14040,AT,Piemonte,http://www.comune.montabone.at.it,"Via G. Ferraris, 25",Sindaco,Comuni e loro Consorzi e Associazioni,Pubbliche Amministrazioni,,S,209680057,montabone@cert.ruparpiemonte.it,pec,montabone@reteunitaria.piemonte.it,altro,,,,,,,,,,,0,montabone,Montabone,44.6988,8.3901
c_i566,,,DATI APERTI,c_i566,Comune di Sedriano,Sedriano,Angelo,Cipriani,20018,MI,Lombardia,http://www.comune.sedriano.mi.it,"Via Fagnani, 35",Sindaco,Comuni e loro Consorzi e Associazioni,Pubbliche Amministrazioni,,S,86003630158,comune.sedriano@postemailcertificata.it,pec,,,,,,,,,https://www.facebook.com/comune.sedriano/,https://twitter.com/ComuneSedriano,https://www.youtube.com/channel/UCAsjoIYa-w9TRI1-SsgqXcQ,,0,sedriano,Sedriano,45.4874,8.9696
c_l764,,,"Sistema informativo territoriale, cartografia, statistiche, Open Data",c_l764,Comune di Verghereto,Verghereto,Enrico,Salvi,47028,FC,Emilia Romagna,http://www.comune.verghereto.fc.it,Via Caduti D'Ungheria N. 11,Sindaco,Comuni e loro Consorzi e Associazioni,Pubbliche Amministrazioni,,S,749660403,verghereto@pec.unionevallesavio.it,pec,segreteria@comune.verghereto.fc.it,altro,,,,,,,,,,,0,verghereto,Verghereto,43.7939,12.005
c_c756,,,Open Data,c_c756,Comune di Civezzano,Civezzano,Stefano,Dellai,38045,TN,Trentino Alto Adige,http://www.comunecivezzano.it,"Via Telvana, 9",Sindaco,Comuni e loro Consorzi e Associazioni,Pubbliche Amministrazioni,,S,233820224,comune@pec.comune.civezzano.tn.it,pec,info@comunecivezzano.it,altro,roberto.oss@comunecivezzano.it,altro,,,,,,,,,0,civezzano,Civezzano,46.0914,11.1846
c_d928,,,Open Data,c_d928,Comune di Garniga Terme,Garniga Terme,Gianna,Eccher,38060,TN,Trentino Alto Adige,http://www.comunegarnigaterme.it,"Via Dei Bagni Di Fieno, 18",Responsabile Servizio Finanziario,Comuni e loro Consorzi e Associazioni,Pubbliche Amministrazioni,,S,80004690220,comune@pec.comune.garnigaterme.tn.it,pec,amministratori@comunegarnigaterme.it,altro,,,,,,,,,,,3,garniga-terme,Garniga Terme,46.0041,11.0884
c_g168,,,Open Data,c_g168,Comune di Ospedaletto (TN),Ospedaletto,Ruggero,Felicetti,38050,TN,Trentino Alto Adige,http://www.comune.ospedaletto.tn.it,"Via Roma, 50",Sindaco,Comuni e loro Consorzi e Associazioni,Pubbliche Amministrazioni,,S,81002430221,ospedaletto@pec.comune.ospedaletto.tn.it,pec,,,,,,,,,,,,,0,ospedaletto,Ospedaletto,45.5054,10.8451
c_a116,,,Open Data,c_a116,Comune di Ala,Ala,Claudio,Soini,38061,TN,Trentino Alto Adige,http://www.comune.ala.tn.it,Piazza S. Giovanni 1,Sindaco,Comuni e loro Consorzi e Associazioni,Pubbliche Amministrazioni,,S,85000870221,comuneala.tn@legalmail.it,pec,demografico@pec.comune.ala.tn.it,pec,serv.gen@comune.ala.tn.it,altro,,,,,,,,,0,ala,Ala,45.7578,11.0003
c_c469,,,Opendata,c_c469,Comune di Cento,Cento,Fabrizio,Toselli,44042,FE,Emilia Romagna,http://www.comune.cento.fe.it,"Via M. Provenzali, 15",Sindaco,Comuni e loro Consorzi e Associazioni,Pubbliche Amministrazioni,,S,81000520387,comune.cento@cert.comune.cento.fe.it,pec,,,,,,,,,https://it-it.facebook.com/ComuneCento,https://twitter.com/comunedicento,https://www.youtube.com/user/comunedicento,,0,cento,Cento,44.7271,11.2892
c_d969,,,Open Data,c_d969,Comune di Genova,Genova,Marco,Bucci,16124,GE,Liguria,http://www.comune.genova.it,"Via Garibaldi, 9",Sindaco,Comuni e loro Consorzi e Associazioni,Pubbliche Amministrazioni,,S,856930102,comunegenova@postemailcertificata.it,pec,,,,,,,,,http://www.facebook.com/Comune.di.genova,http://twitter.com/ComunediGenova,http://www.youtube.com/genoamunicipality,,0,genova,Genova,44.4167,8.95
c_a182,,,Open Data,c_a182,Comune di Alessandria,Alessandria,Gianfranco,Cuttica di Revigliasco,15121,AL,Piemonte,http://www.comune.alessandria.it,Piazza Della Liberta'  1,Sindaco,Comuni e loro Consorzi e Associazioni,Pubbliche Amministrazioni,,S,429440068,comunedialessandria@legalmail.it,pec,,,,,,,,,https://www.facebook.com/comunealessandria,https://twitter.com/Com_Alessandria,,,0,alessandria,Alessandria,44.9132,8.617
c_b604,,,OPEN DATA,c_b604,Comune di Canino,Canino,LINA,NOVELLI,1011,VT,Lazio,http://www.comune.canino.vt.it,"Via Roma, 1",Sindaco,Comuni e loro Consorzi e Associazioni,Pubbliche Amministrazioni,,S,156710568,comune.canino.vt@legalmail.it,pec,settore1@comune.canino.vt.it,altro,sindaco@comune.canino.vt.it,altro,urp@comune.canino.vt.it,altro,,,,,,,0,canino,Canino,42.465,11.7522
c_a710,,,Open Data,c_a710,Comune di Bastia Umbra,Bastia Umbra,Paola,Lungarotti,6083,PG,Umbria,http://www.comunebastiaumbra.gov.it,"Piazza Cavour, 19",Sindaco,Comuni e loro Consorzi e Associazioni,Pubbliche Amministrazioni,,S,385230545,comune.bastiaumbra@postacert.umbria.it,pec,info@comune.bastia.pg.it,altro,,,,,,,,,https://www.youtube.com/channel/UCQbVR9q21ZMM66lsEXEO7WQ,,2,bastia-umbra,Bastia Umbra,43.067551,12.55161
c_d142,,,OpenData,c_d142,Comune di Crema,Crema,Stefania,Bonaldi,26013,CR,Lombardia,http://www.comune.crema.cr.it,"Piazza Duomo, 25",Sindaco,Comuni e loro Consorzi e Associazioni,Pubbliche Amministrazioni,,S,91035680197,protocollo@comunecrema.telecompost.it,pec,,,,,,,,,https://www.facebook.com/comunedicrema/,,,,0,crema,Crema,45.3618,9.6832
c_m363,,,Open Data,c_m363,Comune di Ville D'Anaunia,Ville d'Anaunia,Francesco,Facinelli,38019,TN,Trentino Alto Adige,http://www.comune.villedanaunia.tn.it,"Piazza Della Liberazione, 34",Sindaco,Comuni e loro Consorzi e Associazioni,Pubbliche Amministrazioni,,S,2401760224,comune@pec.comune.villedanaunia.tn.it,pec,comune@comune.villedanaunia.tn.it,altro,,,,,,,https://it-it.facebook.com/comune.ville.danaunia/,,https://www.youtube.com/channel/UCSAhb50N1Ig7rM0sgV9jaPg,,0,ville-d-anaunia,Ville d'Anaunia',46.32985,11.02407
c_d457,,,Open Data,c_d457,Comune di Faedo,Faedo,Carlo,Rossi,38010,TN,Trentino Alto Adige,http://www.comune.faedo.tn.it,"Via S. Agata, 5",Sindaco,Comuni e loro Consorzi e Associazioni,Pubbliche Amministrazioni,,S,296490220,comune@pec.comune.faedo.tn.it,pec,info@comune.faedo.tn.it,altro,,,,,,,,,,,0,faedo,Faedo,46.1923,11.1619
c_d565,,,Open Data,c_d565,Comune di Fiave',Fiave',Giorgio,Merli,38075,TN,Trentino Alto Adige,http://www.comune.fiave.tn.it,"Via San Zeno, 18/A",Segretario Comunale,Comuni e loro Consorzi e Associazioni,Pubbliche Amministrazioni,,S,308770221,comune@pec.comune.fiave.tn.it,pec,segreteria.fi@gaoge.it,altro,,,,,,,,,,,0,fiave,Fiavè,46.0045,10.8441
c_h442,,,Open Data,c_h442,Comune di Roccascalegna,Roccascalegna,Domenico,Giangiordano,66040,CH,Abruzzo,http://www.comuneroccascalegna.gov.it,"Via Roma, 12",Sindaco,Comuni e loro Consorzi e Associazioni,Pubbliche Amministrazioni,,S,81001800697,pec@comuneroccascalegna.it,pec,protocollo@comunediroccascalegna.it,altro,,,,,,,,,,,0,roccascalegna,Roccascalegna,42.0636,14.3078
c_b389,,,Open Data,c_b389,Comune di Calceranica al Lago,Calceranica al Lago,Cristian,Uez,38050,TN,Trentino Alto Adige,http://www.comune.calceranica.tn.it,"Piazza Municipio, 1",Sindaco,Comuni e loro Consorzi e Associazioni,Pubbliche Amministrazioni,,S,81001250224,segreteria@pec.comune.calceranica.tn.it,pec,segreteria@comune.calceranica.tn.it,altro,,,,,,,,,,,0,calceranica-al-lago,Calceranica al Lago,46.0056,11.2449
c_l378,,,Open Data,c_l378,Comune di Trento,Trento,Alessandro,Andreatta,38122,TN,Trentino Alto Adige,http://www.comune.trento.it,"Via Belenzani, 19",Sindaco,Comuni e loro Consorzi e Associazioni,Pubbliche Amministrazioni,,S,355870221,protocollo.comune.tn@cert.legalmail.it,pec,elettorale@pec.comune.trento.it,pec,,,,,,,,,,,0,trento,Trento,46.0703,11.1216
c_c577,,,Linked Open Data,c_c577,Comune di Cesiomaggiore,Cesiomaggiore,Carlo,Zanella,32030,BL,Veneto,http://www.comune.cesiomaggiore.bl.it,"Piazza Mercato, 2",Sindaco,Comuni e loro Consorzi e Associazioni,Pubbliche Amministrazioni,,S,203620257,cesiomaggiore.bl@cert.ip-veneto.net,pec,,,,,,,,,,,,,0,cesiomaggiore,Cesiomaggiore,46.0891,11.9877
c_c127,,,Open data,c_c127,Comune di Castell'Alfero,Castell'Alfero,Angelo,Marengo,14033,AT,Piemonte,http://www.comune.castellalfero.at.it,"Piazza Castello, 2",Legale rappresentante,Comuni e loro Consorzi e Associazioni,Pubbliche Amministrazioni,,S,80003170059,castellalfero@cert.ruparpiemonte.it,pec,segreteria@comune.castellalfero.at.it,altro,ragioneria@comune.castellalfero.at.it,altro,,,,,,,,,0,castell-alfero,Castell'Alfero,44.9824,8.2102
c_d573,,,Open Data,c_d573,Comune di Fierozzo,Fierozzo,Luca,Moltrer,38050,TN,Trentino Alto Adige,http://www.comune.fierozzo.tn.it,"Maso Ronca, 1",Sindaco,Comuni e loro Consorzi e Associazioni,Pubbliche Amministrazioni,,S,80005230224,comune@pec.comune.fierozzo.tn.it,pec,segreteria@comune.fierozzo.tn.it,altro,,,,,,,,,,,0,fierozzo,Fierozzo,46.1124,11.3195
c_l840,,,Open data,c_l840,Comune di Vicenza,Vicenza,Francesco,Rucco,36100,VI,Veneto,http://www.comune.vicenza.it,"Corso Palladio, 98",Sindaco,Comuni e loro Consorzi e Associazioni,Pubbliche Amministrazioni,,S,516890241,vicenza@cert.comune.vicenza.it,pec,,,,,,,,,,,,,0,vicenza,Vicenza,45.5459,11.5403
c_c936,,,OpenData,c_c936,Comune di Valsolda,Valsolda,ANGELA,PAGANO,22010,CO,Lombardia,http://www.comune.valsolda.co.it,"Via M.Bellotti, 21",COMMISARIO,Comuni e loro Consorzi e Associazioni,Pubbliche Amministrazioni,,S,598360139,comune.valsolda@halleycert.it,pec,tecnico.valsolda@pec.it,pec,info@comune.valsolda.co.it,altro,,,,,,,,,0,valsolda,Valsolda,46.025,9.0543
c_e899,,,Open Data FVG,c_e899,Comune di Manzano,Manzano,Piero,Furlani,33044,UD,Friuli Venezia Giulia,http://www.comune.manzano.ud.it,"Via Natisone, 34",Sindaco,Comuni e loro Consorzi e Associazioni,Pubbliche Amministrazioni,,S,548040302,comune.manzano@certgov.fvg.it,pec,comune@comune.manzano.ud.it,altro,,,,,,,,,,,0,manzano,Manzano,45.9914,13.376
c_g220,,,Open data: dati in Comune,c_g220,Comune di Paderno Dugnano,Paderno Dugnano,Ezio,Casati,20037,MI,Lombardia,http://www.comune.paderno-dugnano.mi.it,"Via Grandi, 15",Sindaco,Comuni e loro Consorzi e Associazioni,Pubbliche Amministrazioni,,S,2866100155,comune.paderno-dugnano@pec.regione.lombardia.it,pec,urp@comune.paderno-dugnano.mi.it,altro,,,,,,,https://www.facebook.com/pages/Comune-Paderno-Dugnano/182997335143721,https://twitter.com/pad_dugnano,,,1,paderno-dugnano,Paderno Dugnano,45.5674,9.1595
c_e134,,,Open Data,c_e134,Comune di Grana,Grana,Graziella,Varvello,14031,AT,Piemonte,http://www.comune.grana.at.it/,"Corso Garibaldi, 39",Responsabile Ufficio Demografici,Comuni e loro Consorzi e Associazioni,Pubbliche Amministrazioni,,S,80003550052,comunedigrana@registerpec.it,pec,comunedigrana@micso.net,altro,,,,,,,,,,,0,grana,Grana,44.9994,8.3006
c_b425,,,Open Data,c_b425,Comune di Calosso,Calosso,Giuseppe,Ugonia,14052,AT,Piemonte,http://www.comune.calosso.at.it,"Via Roma, 11",Sindaco,Comuni e loro Consorzi e Associazioni,Pubbliche Amministrazioni,,S,195710058,calosso@cert.ruparpiemonte.it,pec,comune.calosso@pec.it,pec,,,,,,,,,,,0,calosso,Calosso,44.7393,8.2281
c_i354,,,Open Data,c_i354,Comune di Sant'Orsola Terme,Sant'Orsola Terme,Ivano,Fontanari,38050,TN,Trentino Alto Adige,http://www.comune.santorsolaterme.tn.it,"Loc. Pintarei, 55",Sindaco,Comuni e loro Consorzi e Associazioni,Pubbliche Amministrazioni,,S,80007510227,comunesantorsola@cert.legalmail.it,pec,,,,,,,,,,,,,0,sant-orsola-terme,Sant'Orsola Terme,46.1099,11.3034
c_e463,,,Open Data,c_e463,Comune di La Spezia,La Spezia,Pierluigi,Peracchini,19124,SP,Liguria,http://www.comune.sp.it,"Piazza Europa, 1 - Palazzo Civico",Sindaco,Comuni e loro Consorzi e Associazioni,Pubbliche Amministrazioni,,S,211160114,protocollo.comune.laspezia@legalmail.it,pec,,,,,,,,,,,,,0,la-spezia,La Spezia,44.1097,9.8135
c_a565,,,Open Data Unione Valle Savio,c_a565,Comune di Bagno di Romagna,Bagno di Romagna,Marco,Baccini,47021,FC,Emilia Romagna,http://www.comune.bagnodiromagna.fc.it,"Piazza Martiri 25 Luglio 1944, 1 - San Piero in Bagno",Sindaco,Comuni e loro Consorzi e Associazioni,Pubbliche Amministrazioni,,S,81000330407,bagnodiromagna@pec.unionevallesavio.it,pec,protocollo@comune.bagnodiromagna.fc.it,altro,,,,,,,,,,,0,bagno-di-romagna,Bagno di Romagna,43.8336,11.9599
c_i051,,,OpenData,c_i051,Comune di San Nazzaro Val Cavargna,San Nazzaro Val Cavargna,Tiziana Rita ,Guidi,22010,CO,Lombardia,http://www.comune.sannazzarovalcavargna.co.it,Via Don Luigi Gabbani 168 C,Sindaco,Comuni e loro Consorzi e Associazioni,Pubbliche Amministrazioni,,S,709680136,comune.snazzarovc@pec.regione.lombardia.it,pec,segreteria@comune.sannazzarovalcavargna.co.it,altro,,,,,,,,,,,0,san-nazzaro-val-cavargna,San Nazzaro Val Cavargna,46.0898,9.1279
c_c372,,,Open Data,c_c372,Comune di Cavalese,Cavalese,Silvano,Welponer,38033,TN,Trentino Alto Adige,http://www.comunecavalese.it,"Via San Sebastiano, 7",Sindaco,Comuni e loro Consorzi e Associazioni,Pubbliche Amministrazioni,,S,270680226,comune.cavalese@certificata.com,pec,info@comunecavalese.it,altro,,,,,,,,,,,0,cavalese,Cavalese,46.2902,11.4605
c_l204,,,Open Data,c_l204,Comune di Tonengo,Tonengo,Raffaele Angelo,Audino,14023,AT,Piemonte,http://www.comune.tonengo.at.it,"Via Airali, 9",SINDACO,Comuni e loro Consorzi e Associazioni,Pubbliche Amministrazioni,,S,80005280054,comune.tonengo@cert.legalmail.it,pec,protocollo@comune.tonengo.at.it,altro,,,,,,,,,,,1,tonengo,Tonengo,45.1188,8.0019
c_e506,,,Dal portale open data,c_e506,Comune di Lecce,Lecce,Ennio Mario,Sodano,73100,LE,Puglia,http://www.comune.lecce.it,"Via Rubichi, 16",Commissario Prefettizio,Comuni e loro Consorzi e Associazioni,Pubbliche Amministrazioni,,S,80008510754,protocollo@pec.comune.lecce.it,pec,urp@comune.lecce.it,altro,sindaco@comune.lecce.it,altro,segreteria.generale@pec.comune.lecce.it,pec,elettorale@pec.comune.lecce.it,pec,https://it-it.facebook.com/comunedilecce,,,,0,lecce,Lecce,40.3533,18.174
c_i964,,,Open Data,c_i964,Comune di Storo,Storo,Turinelli,Luca,38089,TN,Trentino Alto Adige,http://www.comune.storo.tn.it,"Piazza Europa, 5",Sindaco,Comuni e loro Consorzi e Associazioni,Pubbliche Amministrazioni,,S,285750220,comune@pec.comune.storo.tn.it,pec,comune@comune.storo.tn.it,altro,,,,,,,https://www.facebook.com/comune.storo.tn.it,,,,0,storo,Storo,45.8509,10.5774
c_d086,,,Open Data,c_d086,Comune di Cosenza,Cosenza,Mario,Occhiuto,87100,CS,Calabria,http://www.comune.cosenza.it,Piazza Dei Bruzi,Sindaco,Comuni e loro Consorzi e Associazioni,Pubbliche Amministrazioni,,S,347720781,comunedicosenza@superpec.eu,pec,comunedicosenza.elettorale@superpec.eu,pec,comunedicosenza.statocivile@superpec.eu,pec,comunedicosenza.servizidemografici@superpec.eu,pec,,,,,,,0,cosenza,Cosenza,39.2954,16.2536
c_l588,,,Open Data,c_l588,Comune di Vallarsa,Vallarsa,Gios,Geremia,38060,TN,Trentino Alto Adige,http://www.comune.vallarsa.tn.it,Raossi n. 13 ,Sindaco,Comuni e loro Consorzi e Associazioni,Pubbliche Amministrazioni,,S,270840226,vallarsa@legalmail.it,pec,,,,,,,,,,,,,0,vallarsa,Vallarsa,45.7826,11.1173
c_b579,,,Open Data,c_b579,Comune di Canazei,Canazei,Silvano,Parmesani,38032,TN,Trentino Alto Adige,http://www.comune.canazei.tn.it,"Via Roma, 12",Sindaco,Comuni e loro Consorzi e Associazioni,Pubbliche Amministrazioni,,S,374450229,protocollo.comunecanazei@pec.it,pec,segreteria@comune.canazei.tn.it,altro,ragioneria.canazei@pec.it,pec,,,,,,,,,0,canazei,Canazei,46.4767,11.7725
c_l834,,,Open data,c_l834,Comune di Viarigi,Viarigi,Francesca,Ferraris,14030,AT,Piemonte,http://www.comune.viarigi.at.it/,"Via Recinto, 6",Sindaco,Comuni e loro Consorzi e Associazioni,Pubbliche Amministrazioni,,S,80004050052,viarigi@postemailcertificata.it,pec,info@comune.viarigi.at.it,altro,,,,,,,,,,,0,viarigi,Viarigi,44.9813,8.357999999999999
c_f078,,,"li>
                    <a href=""#"">Documenti</a>
                </li>
                 <li>
                    <a href=""#"">Bandi di gara</a>
                </li>
                 <li>
                    <a href=""#"">Concorsi</a>
                </li>
                 <li>
                    <a href=""#"">Guida ai servizi</a>
                </li>
                 <li>
                    <a href=""#"">Servizi Online</a>
                </li>
                <li>
                    <a href=""#"">Report ed opendata</a>
                </li>
                <!--li></li>
                <li>
                    <a href=""https://www.comune.meda.mb.it/category/tipologie/notizie/"">Notizie</a>
                </li>
                <li>
                    <a href=""https://www.comune.meda.mb.it/eventi/"">Eventi</a>
                </li>
                  <li>
                    <a href=""https://www.comune.meda.mb.it/informazioni/"">Informazioni</a>
                </li>
                <li>
                    <a href=""https://www.comune.meda.mb.it/uffici/"">Uffici</a>
                </li",c_f078,Comune di Meda,Meda,Luca,Santambrogio,20821,MB,Lombardia,http://www.comune.meda.mb.it,"Piazza Municipio, 4",Sindaco,Comuni e loro Consorzi e Associazioni,Pubbliche Amministrazioni,,S,1745100154,posta@cert.comune.meda.mi.it,pec,posta@comune.meda.mb.it,altro,suap@cert.comune.meda.mi.it,pec,anagrafe@cert.comune.meda.mb.it,pec,,,,,,,0,meda,Meda,45.66,9.1545
c_a178,,,Open Data,c_a178,Comune di Aldeno,Aldeno,Nicola,Fioretti,38060,TN,Trentino Alto Adige,http://www.comune.aldeno.tn.it,Piazza Cesare Battisti N. 5,Sindaco,Comuni e loro Consorzi e Associazioni,Pubbliche Amministrazioni,,S,80013230224,aldeno@postemailcertificata.it,pec,protocollo@comune.aldeno.tn.it,altro,,,,,,,,,,,0,aldeno,Aldeno,45.9791,11.0946
c_m360,,,Open Data,c_m360,Comune di Sella Giudicarie,Sella Giudicarie,Vincenzo,Todaro,38087,TN,Trentino Alto Adige,http://www.comunesellagiudicarie.tn.it,"Piazza Cesare Battisti, 1",Segretario Comunale,Comuni e loro Consorzi e Associazioni,Pubbliche Amministrazioni,,S,2401900226,comune@pec.comune.sellagiudicarie.tn.it,pec,,,,,,,,,,,,,0,sella-giudicarie,Sella Giudicarie,45.98378,10.66922
c_l121,,,Open Data,c_l121,Comune di Terragnolo,Terragnolo,Lorenzo,Galletti,38060,TN,Trentino Alto Adige,http://www.comune.terragnolo.tn.it,"Frazione Piazza, 14",Sindaco,Comuni e loro Consorzi e Associazioni,Pubbliche Amministrazioni,,S,267990224,posta@pec.comune.terragnolo.tn.it,pec,,,,,,,,,,,,,0,terragnolo,Terragnolo,45.8788,11.1546
c_m361,,,Open Data,c_m361,Comune di Tre Ville,Tre Ville,Sabrina,Priami,38070,TN,Trentino Alto Adige,http://www.comunetreville.tn.it,"Via Roma, 4a",Segretario Comunale,Comuni e loro Consorzi e Associazioni,Pubbliche Amministrazioni,,S,2402200220,comune@pec.comunetreville.tn.it,pec,,,,,,,,,,,,,0,tre-ville,Treville,45.0978,8.3606
c_f311,,,Open Data (dati aperti),c_f311,Comune di Mombaruzzo,Mombaruzzo,Giovanni,Spandonaro,14046,AT,Piemonte,http://www.comune.mombaruzzo.at.it,"Piazza Marconi, 1",sindaco,Comuni e loro Consorzi e Associazioni,Pubbliche Amministrazioni,,S,182890053,mombaruzzo@cert.ruparpiemonte.it,pec,protocollo@comune.mombaruzzo.at.it,altro,demografici@comune.mombaruzzo.at.it,altro,,,,,,,,,0,mombaruzzo,Mombaruzzo,44.7721,8.4484
c_d052,,,Open Data,c_d052,Comune di Cortazzone,Cortazzone,Francesco,Chiara,14010,AT,Piemonte,http://www.comune.cortazzone.at.it,"Via Del Castello, 21",Sindaco,Comuni e loro Consorzi e Associazioni,Pubbliche Amministrazioni,,S,80003410059,comune.cortazzone@pec.it,pec,,,,,,,,,,,,,0,cortazzone,Cortazzone,44.9798,8.0618
c_g687,,,Open data del comune di Piombino,c_g687,Comune di Piombino,Piombino,Francesco,Ferrari,57025,LI,Toscana,http://www.comune.piombino.li.it,Via Ferruccio 4,Sindaco,Comuni e loro Consorzi e Associazioni,Pubbliche Amministrazioni,,S,290280494,comunepiombino@postacert.toscana.it,pec,,,,,,,,,https://www.facebook.com/pages/Comune-di-Piombino/1431024277118759,https://twitter.com/ComunePiombino,http://www.youtube.com/user/piombinoURP,,0,piombino,Piombino,42.9259,10.5254
c_l531,,,Open Data,c_l531,Comune di Vaglio Serra,Vaglio Serra,Cristiano Piergiuseppe,Fornaro,14049,AT,Piemonte,http://www.comune.vaglioserra.at.it/,"Via al Castello, 2",Sindaco,Comuni e loro Consorzi e Associazioni,Pubbliche Amministrazioni,,S,82002530051,comune.vaglioserra.at@cert.legalmail.it,pec,protocollo@comune.vaglioserra.at.it,altro,ragioneria@comune.vaglioserra.at.it,altro,tecnico@comune.vaglioserra.at.it,altro,,,,,,,0,vaglio-serra,Vaglio Serra,44.7974,8.34
c_i949,,,Open Data,c_i949,Comune di Stenico,Stenico,Monica,Mattevi,38070,TN,Trentino Alto Adige,http://www.comune.stenico.tn.it,Via Giuseppe Garibaldi N 2,Sindaco,Comuni e loro Consorzi e Associazioni,Pubbliche Amministrazioni,,S,308750223,comune@pec.comune.stenico.tn.it,pec,segreteria@comune.stenico.tn.it,altro,ragioneria@comune.stenico.tn.it,altro,,,,,,,,,0,stenico,Stenico,46.0512,10.8545
c_d678,,,Open Data,c_d678,Comune di Fontanile,Fontanile,Sandra,Balbo,14044,AT,Piemonte,http://www.comune.fontanile.at.it,P. San Giovanni Battista 1,Sindaco,Comuni e loro Consorzi e Associazioni,Pubbliche Amministrazioni,,S,82000070050,fontanile@cert.ruparpiemonte.it,pec,protocollo@comune.fontanile.at.it,altro,,,,,,,,,,,0,fontanile,Fontanile,44.7539,8.4225
c_b153,,,Open Data,c_b153,Comune di Brentonico,Brentonico,Debora,Sartori,38060,TN,Trentino Alto Adige,http://www.comune.brentonico.tn.it,Via Fabio Filzi 35,Segretario Comunale,Comuni e loro Consorzi e Associazioni,Pubbliche Amministrazioni,,S,126690221,comunebrentonico@legalmail.it,pec,segreteria@comune.brentonico.tn.it,altro,anagrafe@pec.comune.brentonico.tn.it,pec,appalti@pec.comune.brentonico.tn.it,pec,,,,,,,0,brentonico,Brentonico,45.82,10.9563
c_i573,,,Open Data,c_i573,Comune di Segni,Segni,Piero,Cascioli,37,RM,Lazio,http://www.comune.segni.rm.it,"Via Umberto I, 99",Sindaco,Comuni e loro Consorzi e Associazioni,Pubbliche Amministrazioni,,S,87000150588,comune.segni@pec.it,pec,,,,,,,,,,,,,0,segni,Segni,41.6883,13.0163
c_e507,,,Open Data,c_e507,Comune di Lecco,Lecco,Virginio,Brivio,23900,LC,Lombardia,http://www.comune.lecco.it,"Piazza Diaz, 1",Sindaco,Comuni e loro Consorzi e Associazioni,Pubbliche Amministrazioni,,S,623530136,comune@pec.comunedilecco.it,pec,,,,,,,,,https://it-it.facebook.com/ComunediLecco,,https://www.youtube.com/channel/UC6mMACoCnt9fgmMkZeS1s4Q,,0,lecco,Lecco,45.853,9.3901
c_a944,,,Open data Bologna,c_a944,Comune di Bologna,Bologna,Virginio,Merola,40121,BO,Emilia Romagna,http://www.comune.bologna.it,"Piazza Maggiore, 6",Sindaco,Comuni e loro Consorzi e Associazioni,Pubbliche Amministrazioni,,S,1232710374,ProtocolloGenerale@pec.comune.bologna.it,pec,,,,,,,,,,,,,0,bologna,Bologna,44.4938,11.3387
c_f556,,,Open data,c_f556,Comune di Montemagno,Montemagno,Paolo,Porta,14030,AT,Piemonte,http://www.comune.montemagno.at.it,Vicolo I 1,Sindaco,Comuni e loro Consorzi e Associazioni,Pubbliche Amministrazioni,,S,80003710052,comune.montemagno@pec.it,pec,info@comune.montemagno.at.it,altro,,,,,,,,,,,0,montemagno,Montemagno,43.8475,10.94
c_a821,,,Open Data,c_a821,Comune di Besenello,Besenello,Cristian,Comperini,38060,TN,Trentino Alto Adige,http://www.comune.besenello.tn.it,"Via Degasperi, 5",Sindaco,Comuni e loro Consorzi e Associazioni,Pubbliche Amministrazioni,,S,149110223,comunedibesenello@pec.it,pec,info@comune.besenello.tn.it,altro,,,,,,,,,,,0,besenello,Besenello,45.943999999999996,11.1082
c_g388,,,Open data,c_g388,Comune di Pavia,Pavia,Mario Fabrizio,Fracassi,27100,PV,Lombardia,http://www.comune.pv.it,"Piazza Municipio, 2",Sindaco,Comuni e loro Consorzi e Associazioni,Pubbliche Amministrazioni,,S,296180185,protocollo@pec.comune.pavia.it,pec,,,,,,,,,https://www.facebook.com/comunePV,https://twitter.com/ComunePV,https://www.youtube.com/user/redazionepv,,2,pavia,Pavia,45.1859,9.1566
c_i695,,,Open Data,c_i695,Comune di Sestu,Sestu,Maria Paola,Secci,9028,CA,Sardegna,http://www.comune.sestu.ca.it,"Via Scipione, 1",Sindaco,Comuni e loro Consorzi e Associazioni,Pubbliche Amministrazioni,,S,80004890929,protocollo.sestu@pec.it,pec,,,,,,,,,,,,,0,sestu,Sestu,39.2955,9.0941
c_h250,,,OpenData,c_h250,Comune di Revigliasco d'Asti,Revigliasco d'Asti,Giuseppe,Contorno,14010,AT,Piemonte,http://www.comune.revigliasco.asti.it,"Piazza Vittorio Alfieri, 1",Sindaco,Comuni e loro Consorzi e Associazioni,Pubbliche Amministrazioni,,S,131050056,revigliasco.dasti@cert.ruparpiemonte.it,pec,segreteria@comune.revigliasco.asti.it,altro,,,,,,,,,,,0,revigliasco-d-asti,Revigliasco d'Asti,44.858999999999995,8.1586
c_d273,,,Open Data,c_d273,Comune di Denno,Denno,Fabrizio,Inama,38010,TN,Trentino Alto Adige,http://www.comune.denno.tn.it,"Via G.Ossanna, 1",Sindaco,Comuni e loro Consorzi e Associazioni,Pubbliche Amministrazioni,,S,80014520227,comune@pec.comune.denno.tn.it,pec,c.denno@comuni.infotn.it,altro,,,,,,,,,,,0,denno,Denno,46.2736,11.0488
c_m394,,,OpenData,c_m394,Comune di Centro Valle Intelvi,Centro Valle Intelvi,Mario,Pozzi,22028,CO,Lombardia,http://www.comune.centrovalleintelvi.co.it,"Largo IV Novembre, 8",Sindaco,Comuni e loro Consorzi e Associazioni,Pubbliche Amministrazioni,,S,3747990137,centrovalleintelvi@pec.it,pec,protocollo@comune.centrovalleintelvi.co.it,altro,,,,,,,,,,,0,centro-valle-intelvi,Centro Valle Intelvi,45.96878,9.08189
c_i206,,,Linked Open Data,c_i206,Comune di Santa Giustina,Santa Giustina,Martina,Ravagni,32035,BL,Veneto,http://www.comune.santagiustina.bl.it,"Piazza Maggiore, 1",Segretario Comunale,Comuni e loro Consorzi e Associazioni,Pubbliche Amministrazioni,,S,95070256,comune.santagiustina.bl@pecveneto.it,pec,,,,,,,,,https://www.facebook.com/pages/Comune-di-Santa-Giustina/171296252926186,,,,0,santa-giustina,Santa Giustina,44.4177,8.4825
c_a266,,,Open Data,c_a266,Comune di Cortina D' Ampezzo,Cortina d'Ampezzo,Gianpietro,Ghedina,32043,BL,Veneto,http://www.comunecortinadampezzo.it,"Corso Italia, 33",Sindaco,Comuni e loro Consorzi e Associazioni,Pubbliche Amministrazioni,CDA,S,87640256,cortina@pec.comunecortinadampezzo.it,pec,,,,,,,,,,,,,3,cortina-d-ampezzo,Cortina d'Ampezzo,46.5374,12.1389
c_d863,,,Open Data,c_d863,Comune di Galatone,Galatone,FLAVIO,FILONI,73044,LE,Puglia,http://www.comune.galatone.le.it,Piazza Costadura,Sindaco,Comuni e loro Consorzi e Associazioni,Pubbliche Amministrazioni,,S,82001290756,protocollo.comune.galatone@pec.rupar.puglia.it,pec,sindaco@comune.galatone.le.it,altro,,,,,,,,,,,0,galatone,Galatone,40.1439,18.0713
c_h148,,,i dati aperti della pubblica amministrazione,c_h148,Comune di Racalmuto,Racalmuto,Vincenzo,Maniglia,92020,AG,Sicilia,http://www.comune.racalmuto.ag.it/,"Via Vitt. Emanuele, 15",Sindaco,Comuni e loro Consorzi e Associazioni,Pubbliche Amministrazioni,,S,82002360848,comunediracalmuto.ag@pec.it,pec,salvatore.restivo@comune.racalmuto.ag.it,altro,sindaco.maniglia@comune.racalmuto.ag.it,altro,info@comune.racalmuto.ag.it,altro,,,,,,,3,racalmuto,Racalmuto,37.4088,13.7331
c_b400,,,Open Data,c_b400,Comune di Caldes,Caldes,Antonio,Maini,38022,TN,Trentino Alto Adige,http://www.comune.caldes.tn.it,"Via Al Castello, 12",Sindaco,Comuni e loro Consorzi e Associazioni,Pubbliche Amministrazioni,,S,83005150228,comune@pec.comune.caldes.tn.it,pec,,,,,,,,,,,,,0,caldes,Caldes,46.3651,10.9424
c_e500,,,Open Data,c_e500,Comune di Lavis,Lavis,Mariano,Carlini,38015,TN,Trentino Alto Adige,http://www.comune.lavis.tn.it,"Via Matteotti, 45",Segretario Generale,Comuni e loro Consorzi e Associazioni,Pubbliche Amministrazioni,,S,179650221,pec.comunelavis@legalmail.it,pec,info@comunelavis.it,altro,,,,,,,,,,,0,lavis,Lavis,46.1405,11.1139
c_l664,,,DATI APERTI,c_l664,Comune di Vanzaghello,Vanzaghello,Arconte,Gatti,20020,MI,Lombardia,http://www.comune.vanzaghello.mi.it,"Via Donatori Volontari Del Sangue, 3",Sindaco pro tempore,Comuni e loro Consorzi e Associazioni,Pubbliche Amministrazioni,,S,2937320154,comune.vanzaghello@postecert.it,pec,info@comune.vanzaghello.mi.it,altro,,,,,,,,,,,3,vanzaghello,Vanzaghello,45.58,8.7798
c_c712,,,Open Data,c_c712,Comune di Cinte Tesino,Cinte Tesino,Bruno,Zampedri,38050,TN,Trentino Alto Adige,http://www.comune.cintetesino.tn.it/,"Via Don Dalmonego, 57",Segretario Comunale,Comuni e loro Consorzi e Associazioni,Pubbliche Amministrazioni,,S,302450226,comune@pec.comune.cintetesino.tn.it,pec,cintetesino@comune.cintetesino.tn.it,altro,,,,,,,,,,,0,cinte-tesino,Cinte Tesino,46.0586,11.6144
c_a390,,,Open data,c_a390,Comune di Arezzo,Arezzo,Alessandro,Ghinelli,52100,AR,Toscana,http://www.comune.arezzo.it,"Piazza Della Liberta', 1",Sindaco,Comuni e loro Consorzi e Associazioni,Pubbliche Amministrazioni,,S,176820512,comune.arezzo@postacert.toscana.it,pec,protocollo@comune.arezzo.it,altro,,,,,,,https://www.facebook.com/ComuneDiArezzo,https://twitter.com/ComunediArezzo,,,2,arezzo,Arezzo,43.4712,11.8631
c_a902,,,Open Data,c_a902,Comune di Bleggio Superiore,Bleggio Superiore,Alberto,Iori,38071,TN,Trentino Alto Adige,http://www.comune.bleggiosuperiore.tn.it,Frazione Santa Croce 40,Sindaco,Comuni e loro Consorzi e Associazioni,Pubbliche Amministrazioni,,S,308700228,comune@pec.comune.bleggiosuperiore.tn.it,pec,,,,,,,,,,,,,0,bleggio-superiore,Bleggio Superiore,46.0251,10.8378
c_a778,,,OpenData,c_a778,Comune di Bene Lario,Bene Lario,Mario Abele,Fumagalli,22010,CO,Lombardia,http://www.comune.benelario.co.it,"Via Superiore, 25",Sindaco,Comuni e loro Consorzi e Associazioni,Pubbliche Amministrazioni,,S,467880134,comune.benelario@pec.regione.lombardia.it,pec,,,,,,,,,,,,,0,bene-lario,Bene Lario,46.0294,9.1851
c_f052,,,Matera Opendata,c_f052,Comune di Matera,Matera,Raffaello,De Ruggieri,75100,MT,Basilicata,http://www.comune.mt.it,Via Aldo Moro,Sindaco,Comuni e loro Consorzi e Associazioni,Pubbliche Amministrazioni,,S,80002870774,comune.matera@cert.ruparbasilicata.it,pec,,,,,,,,,,,,,0,matera,Matera,40.6687,16.6061
c_l218,,,"<div class=""row"">
                     <ul class=""nav""><li class=""page_item page-item-365""><a href=""https://www.comune.torinodisangro.ch.it/accessibilita/"">Accessibilità</a></li>
<li class=""page_item page-item-1570""><a href=""https://www.comune.torinodisangro.ch.it/adotta-un-cane/"">Adotta un cane</a></li>
<li class=""page_item page-item-1431""><a href=""https://www.comune.torinodisangro.ch.it/amici-del-mare/"">Amici del Mare</a></li>
<li class=""page_item page-item-1378""><a href=""https://www.comune.torinodisangro.ch.it/amministrazione/"">Amministrazione</a></li>
<li class=""page_item page-item-1415""><a href=""https://www.comune.torinodisangro.ch.it/amministrazione-trasparente/"">Amministrazione trasparente</a></li>
<li class=""page_item page-item-994""><a href=""https://www.comune.torinodisangro.ch.it/antonio-giorgio/"">Antonio Giorgio</a></li>
<li class=""page_item page-item-1182""><a href=""https://www.comune.torinodisangro.ch.it/antonino-romagnoli/"">Arch. Antonino Romagnoli</a></li>
<li class=""page_item page-item-2143""><a href=""https://www.comune.torinodisangro.ch.it/archivio-ordinanze/"">Archivio Ordinanze</a></li>
<li class=""page_item page-item-1255""><a href=""https://www.comune.torinodisangro.ch.it/asl-lanciano-vasto-chieti/"">ASL Lanciano-Vasto-Chieti</a></li>
<li class=""page_item page-item-571""><a href=""https://www.comune.torinodisangro.ch.it/atti-online/"">Atti online</a></li>
<li class=""page_item page-item-1392""><a href=""https://www.comune.torinodisangro.ch.it/attionline/"">Atti online</a></li>
<li class=""page_item page-item-1216""><a href=""https://www.comune.torinodisangro.ch.it/centro-alda-merini/"">Centro culturale Alda Merini</a></li>
<li class=""page_item page-item-988""><a href=""https://www.comune.torinodisangro.ch.it/claudio-schipsi/"">Claudio Schipsi</a></li>
<li class=""page_item page-item-1118""><a href=""https://www.comune.torinodisangro.ch.it/condice-di-comportamento/"">Codice di Comportamento</a></li>
<li class=""page_item page-item-1128""><a href=""https://www.comune.torinodisangro.ch.it/codice-disciplinare/"">Codice Disciplinare</a></li>
<li class=""page_item page-item-1196""><a href=""https://www.comune.torinodisangro.ch.it/commercio-suap/"">Commercio-SUAP</a></li>
<li class=""page_item page-item-1479 current_page_item""><a href=""https://www.comune.torinodisangro.ch.it/"">Comune Torino di Sangro</a></li>
<li class=""page_item page-item-1319""><a href=""https://www.comune.torinodisangro.ch.it/contratti-integrativi/"">Contratti Integrativi</a></li>
<li class=""page_item page-item-1366""><a href=""https://www.comune.torinodisangro.ch.it/contratto-decentrato-integrativo-2012/"">Contratto decentrato integrativo 2012</a></li>
<li class=""page_item page-item-1358""><a href=""https://www.comune.torinodisangro.ch.it/contratto-decentrato-integrativo-2013/"">Contratto decentrato integrativo 2013</a></li>
<li class=""page_item page-item-1348""><a href=""https://www.comune.torinodisangro.ch.it/contratto-decentrato-integrativo-2014/"">Contratto decentrato integrativo 2014</a></li>
<li class=""page_item page-item-1341""><a href=""https://www.comune.torinodisangro.ch.it/contratto-decentrato-integrativo-2015/"">Contratto decentrato integrativo 2015</a></li>
<li class=""page_item page-item-1334""><a href=""https://www.comune.torinodisangro.ch.it/contratto-decentrato-integrativo-2016/"">Contratto decentrato integrativo 2016</a></li>
<li class=""page_item page-item-1292""><a href=""https://www.comune.torinodisangro.ch.it/contratto-decentrato-integrativo-normativo-2016-2018/"">Contratto decentrato integrativo 2016-2018</a></li>
<li class=""page_item page-item-1327""><a href=""https://www.comune.torinodisangro.ch.it/contratto-decentrato-integrativo-normativo-2017/"">Contratto decentrato integrativo 2017</a></li>
<li class=""page_item page-item-1049""><a href=""https://www.comune.torinodisangro.ch.it/cug/"">CUG – Comitato Unico di Garanzia</a></li>
<li class=""page_item page-item-1184""><a href=""https://www.comune.torinodisangro.ch.it/domenico-trivellato/"">Domenico Trivellato</a></li>
<li class=""page_item page-item-1151""><a href=""https://www.comune.torinodisangro.ch.it/giovanna-sabbarese/"">Dott.ssa Giovanna Sabbarese</a></li>
<li class=""page_item page-item-1162""><a href=""https://www.comune.torinodisangro.ch.it/marta-colasante/"">Dott.ssa Marta Colasante</a></li>
<li class=""page_item page-item-1584""><a href=""https://www.comune.torinodisangro.ch.it/fatturazione-elettronica/"">Fatturazione Elettronica</a></li>
<li class=""page_item page-item-999""><a href=""https://www.comune.torinodisangro.ch.it/filippo-priori/"">Filippo Priori</a></li>
<li class=""page_item page-item-1445""><a href=""https://www.comune.torinodisangro.ch.it/foto-storiche/"">Foto Storiche</a></li>
<li class=""page_item page-item-1440""><a href=""https://www.comune.torinodisangro.ch.it/galleria/"">Galleria fotografica</a></li>
<li class=""page_item page-item-6""><a href=""https://www.comune.torinodisangro.ch.it/home/"">Home</a></li>
<li class=""page_item page-item-1583""><a href=""https://www.comune.torinodisangro.ch.it/home-page/"">Home Page</a></li>
<li class=""page_item page-item-1386""><a href=""https://www.comune.torinodisangro.ch.it/i-settori/"">I Settori</a></li>
<li class=""page_item page-item-1288""><a href=""https://www.comune.torinodisangro.ch.it/cimitero-inglese/"">Il Cimitero Inglese</a></li>
<li class=""page_item page-item-957""><a href=""https://www.comune.torinodisangro.ch.it/il-consiglio/"">Il Consiglio</a></li>
<li class=""page_item page-item-1144""><a href=""https://www.comune.torinodisangro.ch.it/segretario-comunale/"">Il segretario comunale</a></li>
<li class=""page_item page-item-935""><a href=""https://www.comune.torinodisangro.ch.it/il-sindaco/"">Il Sindaco</a></li>
<li class=""page_item page-item-1273""><a href=""https://www.comune.torinodisangro.ch.it/il-territorio/"">Il Territorio</a></li>
<li class=""page_item page-item-1222""><a href=""https://www.comune.torinodisangro.ch.it/imposta-di-soggiorno/"">Imposta di Soggiorno</a></li>
<li class=""page_item page-item-1279""><a href=""https://www.comune.torinodisangro.ch.it/costa-dei-trabocchi/"">La Costa dei Trabocchi</a></li>
<li class=""page_item page-item-909""><a href=""https://www.comune.torinodisangro.ch.it/la-giunta/"">La Giunta</a></li>
<li class=""page_item page-item-1270""><a href=""https://www.comune.torinodisangro.ch.it/la-storia/"">La Storia</a></li>
<li class=""page_item page-item-1420""><a href=""https://www.comune.torinodisangro.ch.it/le-associazioni/"">Le Associazioni</a></li>
<li class=""page_item page-item-1276""><a href=""https://www.comune.torinodisangro.ch.it/le-chiese/"">Le Chiese</a></li>
<li class=""page_item page-item-1291""><a href=""https://www.comune.torinodisangro.ch.it/ricorrenze/"">Le Ricorrenze</a></li>
<li class=""page_item page-item-1429""><a href=""https://www.comune.torinodisangro.ch.it/liberarti/"">LiberArti</a></li>
<li class=""page_item page-item-1018""><a href=""https://www.comune.torinodisangro.ch.it/lo-statuto/"">Lo Statuto</a></li>
<li class=""page_item page-item-1866""><a href=""https://www.comune.torinodisangro.ch.it/mail/"">Mail</a></li>
<li class=""page_item page-item-367""><a href=""https://www.comune.torinodisangro.ch.it/note-legali/"">Note legali</a></li>
<li class=""page_item page-item-1265""><a href=""https://www.comune.torinodisangro.ch.it/numeri-utili/"">Numeri utili</a></li>
<li class=""page_item page-item-1408""><a href=""https://www.comune.torinodisangro.ch.it/open-data/"">Open Data</a></li>
<li class=""page_item page-item-1140""><a href=""https://www.comune.torinodisangro.ch.it/orari-uffici-comunali/"">Orari uffici comunali</a></li>
<li class=""page_item page-item-1136""><a href=""https://www.comune.torinodisangro.ch.it/organigramma/"">Organigramma</a></li>
<li class=""page_item page-item-1412""><a href=""https://www.comune.torinodisangro.ch.it/pec/"">P.E.C. &#8211; Posta Elettronica Certificata</a></li>
<li class=""page_item page-item-1932""><a href=""https://www.comune.torinodisangro.ch.it/pagina-di-test/"">pagina di test</a></li>
<li class=""page_item page-item-1302""><a href=""https://www.comune.torinodisangro.ch.it/pagina-menu/"">pagina menu</a></li>
<li class=""page_item page-item-2271""><a href=""https://www.comune.torinodisangro.ch.it/piano-di-gestione-del-territorio/"">Piano di gestione del territorio</a></li>
<li class=""page_item page-item-1614""><a href=""https://www.comune.torinodisangro.ch.it/piano-regolatore-esecutivo/"">Piano Regolatore Esecutivo</a></li>
<li class=""page_item page-item-1193""><a href=""https://www.comune.torinodisangro.ch.it/polizia-municipale/"">Polizia Municipale</a></li>
<li class=""page_item page-item-369""><a href=""https://www.comune.torinodisangro.ch.it/privacy/"">Privacy</a></li>
<li class=""page_item page-item-726""><a href=""https://www.comune.torinodisangro.ch.it/privacy-policy/"">Privacy Policy</a></li>
<li class=""page_item page-item-1427""><a href=""https://www.comune.torinodisangro.ch.it/pro-loco/"">Pro Loco Torino di Sangro e Marina</a></li>
<li class=""page_item page-item-1596""><a href=""https://www.comune.torinodisangro.ch.it/raccolta-differenziata/"">Raccolta differenziata</a></li>
<li class=""page_item page-item-1066""><a href=""https://www.comune.torinodisangro.ch.it/regolamenti/"">Regolamenti</a></li>
<li class=""page_item page-item-1034""><a href=""https://www.comune.torinodisangro.ch.it/responsabile-della-trasparenza/"">Responsabile della Trasparenza</a></li>
<li class=""page_item page-item-1024""><a href=""https://www.comune.torinodisangro.ch.it/responsabile-potere-sostitutivo/"">Responsabile Potere Sostitutivo</a></li>
<li class=""page_item page-item-1042""><a href=""https://www.comune.torinodisangro.ch.it/responsabile-prevenzione-corruzione/"">Responsabile Prevenzione e Corruzione</a></li>
<li class=""page_item page-item-1186""><a href=""https://www.comune.torinodisangro.ch.it/riserva-lecceta/"">Riserva Lecceta</a></li>
<li class=""page_item page-item-983""><a href=""https://www.comune.torinodisangro.ch.it/sabrina-paolucci/"">Sabrina Paolucci</a></li>
<li class=""page_item page-item-1383""><a href=""https://www.comune.torinodisangro.ch.it/servizi-cittadino/"">Servizi al cittadino</a></li>
<li class=""page_item page-item-1148""><a href=""https://www.comune.torinodisangro.ch.it/settore-amministrativo/"">Settore Amministrativo</a></li>
<li class=""page_item page-item-1172""><a href=""https://www.comune.torinodisangro.ch.it/settore-economico-finanziario/"">Settore Economico-Finanziario</a></li>
<li class=""page_item page-item-1179""><a href=""https://www.comune.torinodisangro.ch.it/settore-tecnico-manutentivo/"">Settore Tecnico-Manutentivo</a></li>
<li class=""page_item page-item-1159""><a href=""https://www.comune.torinodisangro.ch.it/alberico-marocco/"">Sig. Alberico Marocco</a></li>
<li class=""page_item page-item-1175""><a href=""https://www.comune.torinodisangro.ch.it/anselmo-valerio/"">Sig. Anselmo Valerio</a></li>
<li class=""page_item page-item-1156""><a href=""https://www.comune.torinodisangro.ch.it/concetta-rotoli/"">Sig.ra Concetta Rotoli</a></li>
<li class=""page_item page-item-1166""><a href=""https://www.comune.torinodisangro.ch.it/lorella-lusi/"">Sig.ra Lorella Lusi</a></li>
<li class=""page_item page-item-1177""><a href=""https://www.comune.torinodisangro.ch.it/silvana-di-ilio/"">Sig.ra Silvana Di Ilio</a></li>
<li class=""page_item page-item-1389""><a href=""https://www.comune.torinodisangro.ch.it/storia-territorio/"">Storia e Territorio</a></li>
<li class=""page_item page-item-1231""><a href=""https://www.comune.torinodisangro.ch.it/tributi/"">Tributi</a></li>
<li class=""page_item page-item-1219""><a href=""https://www.comune.torinodisangro.ch.it/turismo/"">Turismo</a></li>
<li class=""page_item page-item-1464""><a href=""https://www.comune.torinodisangro.ch.it/uffici-e-contatti/"">Uffici e Contatti</a></li>
<li class=""page_item page-item-1576""><a href=""https://www.comune.torinodisangro.ch.it/wifi-to-coast/"">Wifi to Coast</a></li>
</ul>
                  </div>",c_l218,Comune di Torino di Sangro,Torino di Sangro,NINO,DI FONSO,66020,CH,Abruzzo,http://www.comune.torinodisangro.ch.it,"Piazza Donato Iezzi, 15",Sindaco,Comuni e loro Consorzi e Associazioni,Pubbliche Amministrazioni,,S,243570694,protocollo@comunetorinodisangro.legalmail.it,pec,dir_amministrativo@comune.torinodisangro.ch.it,altro,,,,,,,,,,,0,torino-di-sangro,Torino di Sangro,42.1892,14.5417
c_f183,,,Open Data,c_f183,Comune di Mezzocorona,Mezzocorona,Adriano,Ceolan,38016,TN,Trentino Alto Adige,http://www.comune.mezzocorona.tn.it,"Piazza Della Chiesa, 1",Segretario Comunale,Comuni e loro Consorzi e Associazioni,Pubbliche Amministrazioni,,S,177020229,comune@pec.comune.mezzocorona.tn.it,pec,info@comune.mezzocorona.tn.it,altro,,,,,,,,,,,3,mezzocorona,Mezzocorona,46.2144,11.1199
c_h488,,,"<div class=""u-background-white u-color-black u-text-xxl u-padding-r-top u-padding-r-bottom"">
    <div class=""u-layout-wide u-layoutCenter u-layout-r-withGutter"" id=""utilita"">
      <section class=""u-padding-r-top u-padding-r-bottom"">
  <h2 class=""u-text-h3 u-layout-centerLeft"">Utilità</h2>
  <ul class=""Grid Grid--withGutter"">

      <li class=""Grid-cell u-sizeFull u-md-size1of4 u-lg-size1of4"">
        <a class=""Leads-link u-color-black"" href="""">Open data</a>
      </li>

      <li class=""Grid-cell u-sizeFull u-md-size1of4 u-lg-size1of4"">
        <a class=""Leads-link u-color-black"" href="""">Comunicati stampa</a>
      </li>

  </ul>
</section>

    </div>
  </div>",c_h488,Comune di Roggiano Gravina,Roggiano Gravina,Santa Rosaria,Algieri,87017,CS,Calabria,http://www.comune.roggianogravina.cs.it,"Via Bufaletto, 18",Segretario Comunale,Comuni e loro Consorzi e Associazioni,Pubbliche Amministrazioni,,S,355760786,sindaco@pec.comune.roggianogravina.cs.it,pec,ced@comune.roggianogravina.cs.it,altro,edilizia@pec.comune.roggianogravina.cs.it,pec,protocollo@pec.comune.roggianogravina.cs.it,pec,demografici@pec.comune.roggianogravina.cs.it,pec,,,,,1,roggiano-gravina,Roggiano Gravina,39.6189,16.1609
c_f068,,,Open Data,c_f068,Comune di Mazzin,Mazzin,Graziano,Sensato,38030,TN,Trentino Alto Adige,http://www.comune.mazzin.tn.it,"Streda Dolomites, 41",Segretario Comunale,Comuni e loro Consorzi e Associazioni,Pubbliche Amministrazioni,,S,82000750222,comune@pec.comune.mazzin.tn.it,pec,info@comune.mazzin.tn.it,altro,,,,,,,,,,,0,mazzin,Mazzin,46.4585,11.7011
c_c051,,,altri contenuti – Accessibilità e dati aperti,c_c051,Comune di Castell'Umberto,Castell'Umberto,Vincenzo Biagio,LIONETTO CIVA,98070,ME,Sicilia,http://www.comune.castellumberto.me.it,Via Garibaldi 27,Sindaco,Comuni e loro Consorzi e Associazioni,Pubbliche Amministrazioni,,S,84004180836,comune.castellumberto@pec.it,pec,info@comune.castellumberto.me.it,altro,,,,,,,https://www.facebook.com/ComunediCastellUmberto/,,https://www.youtube.com/user/comunecastellumberto,,0,castell-umberto,Castell'Umberto,38.0849,14.8067
c_c114,,,Open Data,c_c114,Comune di Castel Frentano,Castel Frentano,GABRIELE,D'ANGELO,66032,CH,Abruzzo,http://www.comunedicastelfrentano.it,"Corso Roma, 25",Sindaco,Comuni e loro Consorzi e Associazioni,Pubbliche Amministrazioni,,S,253170690,protocollo@pec.comunedicastelfrentano.it,pec,,,,,,,,,,,,,0,castel-frentano,Castel Frentano,42.1981,14.3563
c_e664,,,Open Data,c_e664,Comune di Lona-lases,Lona-Lases,Marco,Casagranda,38040,TN,Trentino Alto Adige,http://www.comune.lonalases.tn.it,"Via Maseri, 2",Sindaco,Comuni e loro Consorzi e Associazioni,Pubbliche Amministrazioni,,S,383060225,comunelonalases@pec.it,pec,serviziosegreteria@comune.lonalases.tn.it,altro,servizioragioneria@comune.lonalases.tn.it,altro,,,,,,,,,0,lona-lases,Lona-Lases,46.1452,11.2206
c_m350,,,Open Data,c_m350,Comune di Altopiano della Vigolana,Altopiano della Vigolana,Anna,Marzatico,38049,TN,Trentino Alto Adige,http://www.comune.vigolana.tn.it,"P.zza Del Popolo, 9",Segretario Comunale,Comuni e loro Consorzi e Associazioni,Pubbliche Amministrazioni,,S,2402000224,comune@pec.comune.vigolana.tn.it,pec,,,,,,,,,,,,,0,altopiano-della-vigolana,Altopiano della Vigolana,46.00657,11.19987
c_d171,,,OPENDATA,c_d171,Comune di Crispiano,Crispiano,Giovanna,Di Gregorio,74012,TA,Puglia,http://www.comune.crispiano.ta.it,Piazza Madonna Della Neve 1,Segretario Generale,Comuni e loro Consorzi e Associazioni,Pubbliche Amministrazioni,,S,80008910731,protocollo.comune.crispiano@pec.rupar.puglia.it,pec,,,,,,,,,,,,,3,crispiano,Crispiano,40.6047,17.2298
c_e625,,,Open data,c_e625,Comune di Livorno,Livorno,Luca,Salvetti,57123,LI,Toscana,http://www.comune.livorno.it,"Piazza Del Municipio, 1",Sindaco,Comuni e loro Consorzi e Associazioni,Pubbliche Amministrazioni,,S,104330493,comune.livorno@postacert.toscana.it,pec,,,,,,,,,,,,,0,livorno,Livorno,43.5519,10.308
c_h294,,,Statistiche e OpenData,c_h294,Comune di Rimini,Rimini,Andrea,Gnassi,47921,RN,Emilia Romagna,http://www.comune.rimini.it,"Piazza Cavour, 27",Sindaco,Comuni e loro Consorzi e Associazioni,Pubbliche Amministrazioni,COMUNE RIMINI,S,304260409,protocollo.generale@pec.comune.rimini.it,pec,,,,,,,,,http://www.facebook.com/comunedirimini,https://twitter.com/comunerimini,http://www.youtube.com/user/arengovideo,,1,rimini,Rimini,44.059,12.5632
c_g161,,,Open Data,c_g161,Comune di Osnago,Osnago,Paolo,Brivio,23875,LC,Lombardia,http://www.osnago.net,"Viale delle Rimembranze, 3",Sindaco,Comuni e loro Consorzi e Associazioni,Pubbliche Amministrazioni,,S,556800134,comune.osnago@legalmail.it,pec,comune@osnago.net,altro,,,,,,,https://www.facebook.com/Comune-di-Osnago-127986824432842/,,,,0,osnago,Osnago,45.6767,9.3924
c_a324,,,Open Data,c_a324,Comune di Anzola dell'Emilia,Anzola dell'Emilia,Giampiero,Veronesi,40011,BO,Emilia Romagna,http://www.comune.anzoladellemilia.bo.it,v. Grimandi 1,Sindaco,Comuni e loro Consorzi e Associazioni,Pubbliche Amministrazioni,,S,80062710373,comune.anzoladellemilia@cert.provincia.bo.it,pec,,,,,,,,,,,,,0,anzola-dell-emilia,Anzola dell'Emilia,44.5474,11.1956
c_b158,,,Open Data,c_b158,Comune di Bresimo,Bresimo,Mara,Dalla Torre,38020,TN,Trentino Alto Adige,http://www.comune.bresimo.tn.it/,Via Fontana Nuova 4,Sindaco,Comuni e loro Consorzi e Associazioni,Pubbliche Amministrazioni,,S,83003580228,comune@pec.comune.bresimo.tn.it,pec,c.bresimo@comuni.infotn.it,altro,,,,,,,,,,,0,bresimo,Bresimo,46.4108,10.9684
c_h607,,,Open Data,c_h607,Comune di Rovere' della Luna,Rovere' della Luna,Luca,Ferrari,38030,TN,Trentino Alto Adige,http://www.comune.roveredellaluna.tn.it,"Piazza Unita' D'Italia, 4",Sindaco,Comuni e loro Consorzi e Associazioni,Pubbliche Amministrazioni,,S,309060226,protocollo.comune.roveredl@legalmail.it,pec,ragioneria@comune.roveredellaluna.tn.it,altro,segreteria@comune.roveredellaluna.tn.it,altro,anagrafe@comune.roveredellaluna.tn.it,altro,tecnico@comune.roveredellaluna.tn.it,altro,,,,,0,rovere-della-luna,Roverè della Luna,46.2495,11.1716
c_d761,,,Portale Open Data,c_d761,Comune di Francavilla Fontana,Francavilla Fontana,Antonello,Denuzzo,72021,BR,Puglia,http://www.comune.francavillafontana.br.it,"Via Municipio, 4",Sindaco,Comuni e loro Consorzi e Associazioni,Pubbliche Amministrazioni,,S,176620748,comune.francavillafontana@pec.it,pec,archivio@comune.francavillafontana.br.it,altro,,,,,,,https://www.facebook.com/comuneff,,,,0,francavilla-fontana,Francavilla Fontana,40.5317,17.5861
c_l886,,,Open Data,c_l886,Comune di Vignola Falesina,Vignola-Falesina,Danilo,Anderle,38057,TN,Trentino Alto Adige,http://www.comune.vignola-falesina.tn.it/,"Frazione Vignola, 12",Sindaco,Comuni e loro Consorzi e Associazioni,Pubbliche Amministrazioni,,S,80013790227,comune@pec.comune.vignola-falesina.tn.it,pec,,,,,,,,,,,,,0,vignola-falesina,Vignola-Falesina,46.0462,11.2766
c_c773,,,Opendata,c_c773,Comune di Civitavecchia,Civitavecchia,Antonio,Cozzolino,53,RM,Lazio,http://www.civitavecchia.gov.it,"Piazzale Pietro Guglielmotti, 7",Sindaco,Comuni e loro Consorzi e Associazioni,Pubbliche Amministrazioni,,S,2700960582,comune.civitavecchia@legalmail.it,pec,,,,,,,,,,,,,0,civitavecchia,Civitavecchia,42.0912,11.7968
c_i407,,,Regolamento accesso open data,c_i407,Comune di San Vito Lo Capo,San Vito Lo Capo,Matteo Davide,Rizzo,91010,TP,Sicilia,http://www.comune.sanvitolocapo.tp.it,"Via Savoia, 167",Sindaco,Comuni e loro Consorzi e Associazioni,Pubbliche Amministrazioni,,S,80002000810,protocollocomunesanvitolocapo@postecert.it,pec,,,,,,,,,,,,,0,san-vito-lo-capo,San Vito Lo Capo,38.175,12.7335
c_g337,,,Open Data,c_g337,Comune di Parma,Parma,Federico,Pizzarotti,43121,PR,Emilia Romagna,http://www.comune.parma.it,"Strada Repubblica, 1",Sindaco,Comuni e loro Consorzi e Associazioni,Pubbliche Amministrazioni,,S,162210348,comunediparma@postemailcertificata.it,pec,,,,,,,,,,,,,0,parma,Parma,44.815,10.308
c_h754,,,Open Data,c_h754,Comune di Samone,Samone,Andrea,Giampiccolo,38059,TN,Trentino Alto Adige,http://www.comune.samone.tn.it,"Via delle Praele, 21",Sindaco,Comuni e loro Consorzi e Associazioni,Pubbliche Amministrazioni,,S,81002230225,comune@pec.comune.samone.tn.it,pec,segreteria@comune.samone.tn.it,altro,,,,,,,,,,,0,samone,Samone,46.0813,11.5212
c_e921,,,Open data,c_e921,Comune di Marcallo con Casone,Marcallo con Casone,Massimo,Olivares,20010,MI,Lombardia,http://www.marcallo.it,"Via Vitali, 18",Sindaco,Comuni e loro Consorzi e Associazioni,Pubbliche Amministrazioni,,S,1009620152,comune.marcalloconcasone@pec.regione.lombardia.it,pec,,,,,,,,,,,,,0,marcallo-con-casone,Marcallo con Casone,45.4852,8.8704
c_l203,,,Open data,c_l203,Comune di Tonco,Tonco,Simonetta,Amerio,14039,AT,Piemonte,http://www.comune.tonco.at.it,"Piazza Lanfranco, 1",Sindaco,Comuni e loro Consorzi e Associazioni,Pubbliche Amministrazioni,,S,80006380051,tonco@cert.ruparpiemonte.it,pec,uffici@comune.tonco.at.it,altro,,,,,,,,,,,0,tonco,Tonco,45.0248,8.1909
c_g273,,,Open Data,c_g273,Comune di Palermo,Palermo,Leoluca,Orlando,90133,PA,Sicilia,http://www.comune.palermo.it,"Piazza Pretoria, 1 - Palazzo Delle Aquile",Sindaco,Comuni e loro Consorzi e Associazioni,Pubbliche Amministrazioni,,S,80016350821,protocollo@cert.comune.palermo.it,pec,,,,,,,,,,,,,0,palermo,Palermo,38.1167,13.3667
c_d371,,,Open Data,c_d371,Comune di Dro,Dro,Vittorio,Fravezzi,38074,TN,Trentino Alto Adige,http://www.comunedro.it,Via Torre 1,Sindaco,Comuni e loro Consorzi e Associazioni,Pubbliche Amministrazioni,,S,84000130223,segreteria@pec.comunedro.it,pec,municipio@comune.dro.tn.it,altro,,,,,,,,,,,0,dro,Dro,45.9624,10.9124
c_d388,,,Open Data,c_d388,Comune di Dusino San Michele,Dusino San Michele,Marco,Lavagnino,14010,AT,Piemonte,http://www.comune.dusinosanmichele.at.it,"Corso Umberto I, 65",Responsabile Ufficio Tecnico,Comuni e loro Consorzi e Associazioni,Pubbliche Amministrazioni,,S,80003490051,dusino.san.michele@cert.ruparpiemonte.it,pec,info@comune.dusinosanmichele.at.it,altro,,,,,,,,,,,0,dusino-san-michele,Dusino San Michele,44.9267,7.9727
c_b525,,,Open Data,c_b525,Comune di Campodenno,Campodenno,Ivana,Battaini,38010,TN,Trentino Alto Adige,http://www.comunecampodenno.it,Via Delle Loze N 1,Segretario Comunale,Comuni e loro Consorzi e Associazioni,Pubbliche Amministrazioni,,S,307740225,comune@pec.comunecampodenno.it,pec,comune.campodenno@comuni.infotn.it,altro,,,,,,,,,,,0,campodenno,Campodenno,46.2589,11.0342
c_a132,,,Open Data,c_a132,Comune di Albano Laziale,Albano Laziale,Nicola,Marini,41,RM,Lazio,http://www.comune.albanolaziale.rm.it,"Piazza Costituente, 1",Sindaco,Comuni e loro Consorzi e Associazioni,Pubbliche Amministrazioni,,S,82011210588,protocollo@cert.comune.albanolaziale.rm.it,pec,segreteria.generale@comune.albanolaziale.rm.it,altro,organi.istituzionali@pec.comune.albanolaziale.rm.it,pec,ragioneria@pec.comune.albanolaziale.rm.it,pec,dirigente.tecnico@pec.comune.albanolaziale.rm.it,pec,,,,,0,albano-laziale,Albano Laziale,41.7285,12.6608
c_l096,,,Open Data,c_l096,Comune di Tenna,Tenna,Antonio,Valentini,38050,TN,Trentino Alto Adige,http://comune.tenna.tn.it,Piazza del Municipio n. 13,Sindaco,Comuni e loro Consorzi e Associazioni,Pubbliche Amministrazioni,,S,159330224,comune@pec.comune.tenna.tn.it,pec,,,,,,,,,,,,,0,tenna,Tenna,46.0167,11.2653
c_c573,,,"Sistema informativo territoriale, cartografia, statistiche, Open Data",c_c573,Comune di Cesena,Cesena,Enzo,Lattuca,47520,FC,Emilia Romagna,http://www.comune.cesena.fc.it,"Piazza Del Popolo, 10",Sindaco,Comuni e loro Consorzi e Associazioni,Pubbliche Amministrazioni,,S,143280402,protocollo@pec.comune.cesena.fc.it,pec,,,,,,,,,https://it-it.facebook.com/comunedicesena,,,,0,cesena,Cesena,44.1391,12.2429
c_a372,,,Open Data,c_a372,Comune di Arco,Arco,Dott Rolando,Mora,38062,TN,Trentino Alto Adige,http://www.comune.arco.tn.it,"Piazza III Novembre, 3",Segretario generale,Comuni e loro Consorzi e Associazioni,Pubbliche Amministrazioni,,S,249830225,comune@pec.comune.arco.tn.it,pec,urp@comune.arco.tn.it,altro,,,,,,,,,,,0,arco,Arco,45.9219,10.8846
c_a734,,,Open Data,c_a734,Comune di Beinasco,Beinasco,Antonella,GUALCHI,10092,TO,Piemonte,http://www.comune.beinasco.to.it,Piazza Alfieri 7,Sindaco,Comuni e loro Consorzi e Associazioni,Pubbliche Amministrazioni,,S,2042100012,protocollo@comune.beinasco.legalmail.it,pec,ced@comune.beinasco.to.it,altro,,,,,,,,,,,0,beinasco,Beinasco,45.0228,7.5878
c_g822,,,Bdap - Open Data,c_g822,Comune di Ponsacco,Ponsacco,Francesca,Brogi,56038,PI,Toscana,http://www.comune.ponsacco.pi.it,Piazza Vialli 8,Sindaco,Comuni e loro Consorzi e Associazioni,Pubbliche Amministrazioni,,S,141490508,comune.ponsacco@postacert.toscana.it,pec,,,,,,,,,,,,,0,ponsacco,Ponsacco,43.6249,10.6302
c_e370,,,Dati aperti - Open data,c_e370,Comune di Isso,Isso,Rocco,Maccali,24040,BG,Lombardia,http://www.comune.isso.bg.it,"Piazza S. Andrea, 32",Sindaco,Comuni e loro Consorzi e Associazioni,Pubbliche Amministrazioni,,S,83001820162,info@cert.comune.isso.bg.it,pec,info@comune.isso.bg.it,altro,,,,,,,https://www.facebook.com/ComunediIsso?sk=wall,https://twitter.com/ComunediIsso,http://www.youtube.com/user/ComunediIsso,,0,isso,Isso,45.4768,9.7577
c_b354,,,Open Data Open Service,c_b354,Comune di Cagliari,Cagliari,Bruno,Carcangiu,9123,CA,Sardegna,http://www.comune.cagliari.it,"Via Roma, 145",Commissario straordinario,Comuni e loro Consorzi e Associazioni,Pubbliche Amministrazioni,,S,147990923,protocollogenerale@comune.cagliari.legalmail.it,pec,urp@comune.cagliari.it,altro,,,,,,,https://www.facebook.com/comunecagliarinews.it,https://twitter.com/Comune_Cagliari,,,0,cagliari,Cagliari,39.2149,9.1095
c_g681,,,Open Data,c_g681,Comune di Pinzolo,Pinzolo,Michele,Cereghini,38086,TN,Trentino Alto Adige,http://www.comune.pinzolo.tn.it,"Viale  Della Pace, 8",Sindaco,Comuni e loro Consorzi e Associazioni,Pubbliche Amministrazioni,,S,286690227,segreteria@pec.comune.pinzolo.tn.it,pec,segreteria@comune.pinzolo.tn.it,altro,,,,,,,https://www.facebook.com/comune.pinzolo.tn.it/,,,,0,pinzolo,Pinzolo,46.16,10.7654
c_f839,,,Open Data,c_f839,Comune di Napoli,Napoli,Luigi,de Magistris,80123,,Campania,http://www.comune.napoli.it,Piazza Municipio - Palazzo S.Giacomo,Sindaco,Comuni e loro Consorzi e Associazioni,Pubbliche Amministrazioni,COMUNE DI NAPOLI,S,80014890638,protocollo@pec.comune.napoli.it,pec,,,,,,,,,,,,,3,napoli,Napoli,40.8333,14.25
c_c154,,,Open Data,c_c154,Comune di Castellero,Castellero,Roberto,Campia,14013,AT,Piemonte,http://www.comune.castellero.at.it,"Piazza Romita, 2",Sindaco,Comuni e loro Consorzi e Associazioni,Pubbliche Amministrazioni,,S,80003190057,castellero@cert.ruparpiemonte.it,pec,,,,,,,,,,,,,0,castellero,Castellero,44.9257,8.0743
c_i627,,,RL Open Data,c_i627,Comune di Sergnano,Sergnano,Angelo,Scarpelli,26010,CR,Lombardia,http://www.comune.sergnano.cr.it,"Piazza IV Novembre, 8",Sindaco,Comuni e loro Consorzi e Associazioni,Pubbliche Amministrazioni,,S,172790198,comune.sergnano@pec.regione.lombardia.it,pec,segreteria@comune.sergnano.cr.it,altro,,,,,,,https://it-it.facebook.com/Biblioteca-Comunale-di-Sergnano-234795209930931/?ref=page_internal,,,,0,sergnano,Sergnano,45.4298,9.7028
c_c380,,,Open Data,c_c380,Comune di Cavareno,Cavareno,Monica,Zini,38011,TN,Trentino Alto Adige,http://www.comune.cavareno.tn.it,"Via Dei Campi, 1",Assistente Amministrativo,Comuni e loro Consorzi e Associazioni,Pubbliche Amministrazioni,,S,343350229,comune@pec.comune.cavareno.tn.it,pec,info@comune.cavareno.tn.it,altro,,,,,,,,,,,0,cavareno,Cavareno,46.4094,11.1392
c_d150,,,Open data,c_d150,Comune di Cremona,Cremona,Gianluca,Galimberti,26100,CR,Lombardia,http://www.comune.cremona.it,"Piazza Del Comune, 8",Sindaco,Comuni e loro Consorzi e Associazioni,Pubbliche Amministrazioni,,S,297960197,protocollo@comunedicremona.legalmail.it,pec,,,,,,,,,,,,,0,cremona,Cremona,45.1335,10.0261
c_a352,,,Open Data,c_a352,Comune di Aramengo,Aramengo,Daniele,Zaia,14020,AT,Piemonte,http://www.comune.aramengo.at.it,"Via Giuseppe Mazzini, 11",Segretario Comunale,Comuni e loro Consorzi e Associazioni,Pubbliche Amministrazioni,,S,80002990051,aramengo@cert.ruparpiemonte.it,pec,info@comune.aramengo.at.it,altro,,,,,,,,,,,0,aramengo,Aramengo,45.1001,8.0011
c_c528,,,Open data,c_c528,Comune di Cerreto D'Asti,Cerreto d'Asti,Mario Angelo,Saini,14020,AT,Piemonte,http://www.comune.cerreto.asti.it,"Piazza Ing. Pietro Mosso,1",Sindaco,Comuni e loro Consorzi e Associazioni,Pubbliche Amministrazioni,,S,80003250059,protocollo.cerreto.dasti@cert.ruparpiemonte.it,pec,protocollo@comune.cerreto.asti.it,altro,,,,,,,,,,,0,cerreto-d-asti,Cerreto d'Asti,45.0496,8.0367
c_d740,,,OpenData,c_d740,Comune di Fossalta di Piave,Fossalta di Piave,Franca,Ferrarese,30020,VE,Veneto,http://www.comunefossaltadipiave.it,"Piazza IV Novembre, 5",Funzionario,Comuni e loro Consorzi e Associazioni,Pubbliche Amministrazioni,,S,703420273,protocollo@pec.comunefossaltadipiave.it,pec,info@comunefossaltadipiave.it,altro,,,,,,,,,,,0,fossalta-di-piave,Fossalta di Piave,45.644,12.5118
c_e917,,,Open Data,c_e917,Comune di Maranzana,Maranzana,Marilena,Ciravegna,14040,AT,Piemonte,http://www.comune.maranzana.at.it,Via G. Bove N.36,Sindaco,Comuni e loro Consorzi e Associazioni,Pubbliche Amministrazioni,,S,82002490058,comune.maranzana.at@legalmail.it,pec,maranzana@ruparpiemonte.it,altro,,,,,,,,,,,0,maranzana,Maranzana,44.7605,8.4787
c_g479,,,E-Government e Open Data,c_g479,Comune di Pesaro,Pesaro,Matteo,Ricci,61120,PU,Marche,http://www.comune.pesaro.pu.it,"Piazza Del Popolo, 1",Sindaco,Comuni e loro Consorzi e Associazioni,Pubbliche Amministrazioni,,S,272430414,comune.pesaro@emarche.it,pec,urp@comune.pesaro.pu.it,altro,,,,,,,,,,,0,pesaro,Pesaro,43.8987,12.8437
c_f045,,,Open Data,c_f045,Comune di Massimeno,Massimeno,Enrico,Beltrami,38086,TN,Trentino Alto Adige,http://www.comune.massimeno.tn.it/,"Via Della Chiesa, 3",Sindaco,Comuni e loro Consorzi e Associazioni,Pubbliche Amministrazioni,,S,270960222,comune@pec.comune.massimeno.tn.it,pec,ragioneria@comune.massimeno.tn.it,altro,,,,,,,,,,,1,massimeno,Massimeno,46.1422,10.7734
c_i076,,,Open Data,c_i076,Comune di San Paolo Solbrito,San Paolo Solbrito,LUCA,PANETTA,14010,AT,Piemonte,http://www.comune.sanpaolosolbrito.at.it,"Piazza Lino Rissone, 1",Sindaco Pro Tempore,Comuni e loro Consorzi e Associazioni,Pubbliche Amministrazioni,,S,80003910058,sanpaolosolbrito@postemailcertificata.it,pec,comune@comune.sanpaolosolbrito.at.it,altro,ufficioragioneriatributi@comune.sanpaolosolbrito.at.it,altro,ufficiotecnico@comune.sanpaolosolbrito.at.it,altro,,,,,,,0,san-paolo-solbrito,San Paolo Solbrito,44.9517,7.9719
c_b005,,,"Tutti i Contenuti che sono presenti all’interno del sito sono protetti ai sensi delle normative sul diritto d’autore e sulla proprietà intellettuale. Pertanto nulla, neppure in parte, potrà essere copiato, modificato o rivenduto per fini di lucro o per trarne qualsivoglia utilità. Gli oggetti presenti in questo sito per lo scaricamento (download) quali ad esempio la modulistica, i documenti, open data, ecc. sono liberamente e gratuitamente disponibili entro i limiti qui definiti. Quanto reperibile via download è coperto da copyright.",c_b005,Comune di Borgio Verezzi,Borgio Verezzi,Marinetta,Valdora,17022,SV,Liguria,http://www.comuneborgioverezzi.it,Via Municipio 17,Responsabile Area Finanziaria,Comuni e loro Consorzi e Associazioni,Pubbliche Amministrazioni,,S,227410099,protocollo@pec.comuneborgioverezzi.it,pec,,,,,,,,,,,,,0,borgio-verezzi,Borgio Verezzi,44.1582,8.3093
c_c751,,,"f) obbligo di pubblicare tutti gli atti, i documenti e le informazioni di cui al presente comma anche in formato elettronico elaborabile e in formati di dati aperti. Per formati di dati aperti si devono intendere almeno i dati resi disponibili e fruibili on-line in formati non proprietari, a condizioni tali da permetterne il più ampio riutilizzo anche a fini statistici e la ridistribuzione senza ulteriori restrizioni d'uso, di riuso o di diffusione diverse dall'obbligo di citare la fonte e di rispettarne l'integrità';",c_c751,Comune di Cittiglio,Cittiglio,Fabrizio,Anzani,21033,VA,Lombardia,http://www.comune.cittiglio.va.it,"Via Provinciale, 46",Sindaco,Comuni e loro Consorzi e Associazioni,Pubbliche Amministrazioni,,S,254640121,comunecittiglio@actaliscertymail.it,pec,protocollo@comune.cittiglio.va.it,altro,,,,,,,,,,,0,cittiglio,Cittiglio,45.8948,8.6605
c_a326,,,E IODL 2.0: “Italian Open Data License,c_a326,Comune di Aosta,Aosta,Fulvio,Centoz,11100,AO,Valle D'Aosta,http://www.comune.aosta.it,"Piazza Chanoux, 1",Sindaco,Comuni e loro Consorzi e Associazioni,Pubbliche Amministrazioni,,S,120680079,protocollo@pec.comune.aosta.it,pec,,,,,,,,,http://www.facebook.com/pages/Comune-di-Aosta/136323453045568,https://twitter.com/ComunediAosta,http://www.youtube.com/user/UffComComuneAosta,,0,aosta,Aosta,45.735,7.3132
c_l647,,,: “Italian Open Data License – MARCHI DOMINI E SEGNI DISTINTIVI,c_l647,Comune di Valsavarenche,Valsavarenche,Daniele Giuseppe,Restano,11010,AO,Valle D'Aosta,http://www.comune.valsavarenche.ao.it,Frazione Degioz 166,Segretario Comunale,Comuni e loro Consorzi e Associazioni,Pubbliche Amministrazioni,COMVALSAVARENCHE,S,124870072,protocollo@pec.comune.valsavarenche.ao.it,pec,info@comune.valsavarenche.ao.it,altro,,,,,,,,,,,0,valsavarenche,Valsavarenche,45.5924,7.2098
c_b019,,,Open data,c_b019,Comune di Borgomanero,Borgomanero,Anna Maria,Battaini,28021,NO,Piemonte,http://www.comune.borgomanero.no.it,Corso Cavour 16,Dirigente Divisione Affari Generali e Finanze,Comuni e loro Consorzi e Associazioni,Pubbliche Amministrazioni,,S,82001370038,protocollo@pec.comune.borgomanero.no.it,pec,urp@comune.borgomanero.no.it,altro,,,,,,,https://www.facebook.com/Borgomanero.Comune,https://twitter.com/CBorgomanero,http://www.youtube.com/comuneborgomanero,,0,borgomanero,Borgomanero,45.6987,8.4626
c_e876,,,"Inoltre, i link esterni sono ammessi se rispettano le regole di policy del Comune di Mandanici o se riguardano app che utilizzano esplicitamente gli Open data del Comune di Mandanici.",c_e876,Comune di Mandanici,Mandanici,Armando,Carpo,98020,ME,Sicilia,http://www.comunedimandanici.it,Via Roma 20,Sindaco,Comuni e loro Consorzi e Associazioni,Pubbliche Amministrazioni,,S,354630832,comunedimandanici@pec.it,pec,comune.mandanici@infinito.it,altro,,,,,,,,,,,0,mandanici,Mandanici,38.0014,15.3183
c_h791,,,Open Data,c_h791,Comune di San Casciano in Val di Pesa,San Casciano in Val di Pesa,Massimiliano,Pescini,50026,FI,Toscana,http://www.comune.san-casciano-val-di-pesa.fi.it,"Via Niccolo' Machiavelli, 56",Sindaco,Comuni e loro Consorzi e Associazioni,Pubbliche Amministrazioni,,S,793290487,comune.sancascianovp@postacert.toscana.it,pec,info@comune.san-casciano-val-di-pesa.fi.it,altro,,,,,,,,,,,0,san-casciano-in-val-di-pesa,San Casciano in Val di Pesa,43.66,11.1906
c_e971,,,"Inoltre, i link esterni sono ammessi se rispettano le regole di policy del Comune di Marradi o se riguardano app che utilizzano esplicitamente gli Open data del Comune di Marradi.",c_e971,Comune di Marradi,Marradi,Mara,Ierpi,50034,FI,Toscana,http://www.comune.marradi.fi.it/,Piazza Scalelle 1,Responsabile Affari Generali,Comuni e loro Consorzi e Associazioni,Pubbliche Amministrazioni,,S,1315320489,comune.marradi@postacert.toscana.it,pec,protocollo@comune.marradi.fi.it,altro,,,,,,,,,,,0,marradi,Marradi,44.0756,11.6131
c_e803,,,Open Data,c_e803,Comune di Maggiora,Maggiora,Italo,Cerri,28014,NO,Piemonte,http://www.comune.maggiora.no.it,Piazza Caduti di tutte le guerre 1,Vice Sindaco reggente,Comuni e loro Consorzi e Associazioni,Pubbliche Amministrazioni,,S,82000330033,protocollo@pec.comune.maggiora.no.it,pec,comune@comune.maggiora.no.it,altro,,,,,,,,,,,0,maggiora,Maggiora,45.6903,8.4234
c_l454,,,Open Data,c_l454,Comune di Truccazzano,Truccazzano,Viviana Margherita,Cerea,20060,MI,Lombardia,http://www.comune.truccazzano.mi.it,"Via Scotti, 50",responsabile servizi finanziari,Comuni e loro Consorzi e Associazioni,Pubbliche Amministrazioni,,S,83502350156,fatturaelettronica.comune.truccazzano@pec.regione.lombardia.it,pec,,,,,,,,,,,,,0,truccazzano,Truccazzano,45.4851,9.4658
c_e202,,,"I materiali Open data sono liberamente riutilizzabili secondo i termini previsti dalla licenza indicata a fianco di ciascun dataset esposto, salvo diversa ed esplicita indicazione.",c_e202,Comune di Grosseto,Grosseto,Antonfrancesco,Vivarelli Colonna,58100,GR,Toscana,http://www.comune.grosseto.it,"Piazza Duomo, 1",Sindaco,Comuni e loro Consorzi e Associazioni,Pubbliche Amministrazioni,,S,82520537,comune.grosseto@postacert.toscana.it,pec,,,,,,,,,http://www.facebook.com/ComunediGrosseto,https://twitter.com/ComuneGrosseto,http://www.youtube.com/user/ComuneGrosseto,,0,grosseto,Grosseto,42.7629,11.1128
c_l936,,,Italian Open data Licence v.2.0,c_l936,Comune di Villa di Serio,Villa di Serio,Bruno Raimondo,Rota,24020,BG,Lombardia,http://www.comune.villadiserio.bg.it,"Via Papa Giovanni XXIII, 60",Sindaco,Comuni e loro Consorzi e Associazioni,Pubbliche Amministrazioni,,S,80023530167,protocollo.villadiserio@pec.it,pec,,,,,,,,,,,,,0,villa-di-serio,Villa di Serio,45.7252,9.7374
c_c765,,,"Inoltre, i link esterni sono ammessi se rispettano le regole di policy del Comune di Civita Castellana o se riguardano app che utilizzano esplicitamente gli Open data del Comune di Civita Castellana.",c_c765,Comune di Civita Castellana,Civita Castellana,Gianluca,Angelelli,1033,VT,Lazio,http://www.comune.civitacastellana.vt.it,"Piazza Matteotti, 3",Sindaco,Comuni e loro Consorzi e Associazioni,Pubbliche Amministrazioni,,S,65540569,comune.civitacastellana@legalmail.it,pec,dataceter@comune.civitacastellana.vt.it,altro,ragioneria.civitacastellana@pec.it,pec,,,,,,,,,0,civita-castellana,Civita Castellana,42.2888,12.4115
c_a826,,,"f) obbligo di pubblicare tutti gli atti, i documenti e le informazioni   di cui al presente comma anche in formato elettronico elaborabile e in   formati di dati aperti. Per formati di dati aperti si devono intendere   almeno i dati resi disponibili e fruibili on-line in formati non   proprietari, a condizioni tali da permetterne il più ampio riutilizzo   anche a fini statistici e la ridistribuzione senza ulteriori restrizioni   d'uso, di riuso o di diffusione diverse dall'obbligo di citare la fonte   e di rispettarne l'integrità';",c_a826,Comune di Besozzo,Besozzo,Riccardo,Del Torchio,21023,VA,Lombardia,http://www.comune.besozzo.va.it,Via Mazzini 4,Sindaco,Comuni e loro Consorzi e Associazioni,Pubbliche Amministrazioni,,S,338010127,comune.besozzo.va@halleycert.it,pec,,,,,,,,,,,,,0,besozzo,Besozzo,45.8462,8.6667
c_f706,,,open data,c_f706,Comune di Monzuno,Monzuno,Bruno,Pasquini,40036,BO,Emilia Romagna,http://www.comune.monzuno.bo.it,Via Casaglia 4,Sindaco,Comuni e loro Consorzi e Associazioni,Pubbliche Amministrazioni,,S,956680375,comune.monzuno@cert.provincia.bo.it,pec,urp@comune.monzuno.bo.it,altro,,,,,,,https://www.facebook.com/pages/Biblioteche-del-Comune-di-Monzuno/109314595756211?fref=ts,,https://www.youtube.com/user/UfficioStampaMonzuno,,3,monzuno,Monzuno,44.2784,11.2679
